name,address,lng,lat
松南郊野公园,上海市松江区车墩镇松金公路9535号,121.2455,30.981549
上海梨文化博物馆,上海市松江区富永路2000号,121.231508,30.970257
平湖浜天主堂,上海市松江区盐仓三村431号,121.235619,30.979784
韩湘水博园,闵行区江川路3805号(近仙鹤路),121.335761,30.990343
千年古樟,上海市闵行区江川路韩湘水博园,121.338614,30.991207
韩仓,上海市闵行区江川路韩湘水博园东侧约180米,121.341834,30.990426
泰顺桥,上海市闵行区江川路3805号临韩湘水博园,121.337179,30.989732
范公亭,上海市闵行区江川路3805号临韩湘水博园,121.337757,30.991862
陆家浜桥,上海市闵行区江川路3805号临韩湘水博园,121.333961,30.989409
浦江魂,上海市闵行区江川路3805号临韩湘水博园,121.337911,30.991343
大禹桥,上海市闵行区江川路3805号临韩湘水博园,121.334582,30.990298
杨树浦桥,上海市闵行区江川路3805号临韩湘水博园,121.334345,30.98947
凤凰桥,上海市闵行区江川路3805号临韩湘水博园,121.334481,30.990534
韩湘水博园,闵行区江川路3805号(近仙鹤路),121.335761,30.990343
韩仓,上海市闵行区江川路韩湘水博园东侧约180米,121.341834,30.990426
千年古樟,上海市闵行区江川路韩湘水博园,121.338614,30.991207
泰顺桥,上海市闵行区江川路3805号临韩湘水博园,121.337179,30.989732
范公亭,上海市闵行区江川路3805号临韩湘水博园,121.337757,30.991862
浦江魂,上海市闵行区江川路3805号临韩湘水博园,121.337911,30.991343
咸泰桥,上海市闵行区江川路3805号临韩湘水博园,121.337269,30.989523
益民桥,上海市闵行区江川路3805号临韩湘水博园,121.337288,30.989451
醒狮桥,上海市闵行区江川路3805号临韩湘水博园,121.338308,30.991325
石帆,上海市闵行区江川路3805号临韩湘水博园,121.337404,30.989319
金庆章故居,江川路2060弄101支弄33号临附近,121.355936,30.996408
渔沥林盘,上海市奉贤区北横路与邬桥·友谊路交叉路口往东约110米,121.392487,30.984295
渔沥林盘,上海市奉贤区北横路与邬桥·友谊路交叉路口往东约110米,121.392487,30.984295
中建海峡,上海市奉贤区安东路118号,121.4103,30.966092
李家阁,上海市奉贤区鸿宝路,121.426876,30.991816
临江园,上海市西渡街道灯塔村9组,121.436779,30.988122
杭州生命,上海市奉贤区沪杭公路巨龙台湾城东北侧约30米,121.440604,30.990921
西渡公园,上海市奉贤区南桥西渡江川路354号(扶兰路与扶兰支路交汇处东南侧),121.446484,30.995574
临江园,上海市西渡街道灯塔村9组,121.436779,30.988122
杭州生命,上海市奉贤区沪杭公路巨龙台湾城东北侧约30米,121.440604,30.990921
紫庵,上海市奉贤区西渡街道,121.483653,30.988521
旃檀禅院,上海市奉贤区金汇村1158号,121.500322,30.992883
益民村史馆,上海市奉贤区金海公路与金益路交叉路口往东约130米,121.488724,30.983646
姚家祠堂,上海市奉贤区姚家祠堂(中国菇菌博物馆东),121.489581,30.979423
庵港宅,上海市奉贤区西渡街道,121.501568,30.986879
紫庵,上海市奉贤区西渡街道,121.483653,30.988521
达令港公园,上海市奉贤区汇中路与金闸公路交叉口东南500米,121.515781,30.990981
旃檀禅院,上海市奉贤区金汇村1158号,121.500322,30.992883
元音公园,上海市奉贤区大叶公路金碧汇虹苑东北侧,121.516149,30.981533
庵港宅,上海市奉贤区西渡街道,121.501568,30.986879
姚家祠堂,上海市奉贤区姚家祠堂(中国菇菌博物馆东),121.489581,30.979423
益民村史馆,上海市奉贤区金海公路与金益路交叉路口往东约130米,121.488724,30.983646
达令港公园,上海市奉贤区汇中路与金闸公路交叉口东南500米,121.515781,30.990981
申亚森林足球营地,上海市奉贤区金汇镇明星村1103号,121.540619,30.991743
元音公园,上海市奉贤区大叶公路金碧汇虹苑东北侧,121.516149,30.981533
申亚森林足球营地,上海市奉贤区金汇镇明星村1103号,121.540619,30.991743
申亚生态林,上海市奉贤区明星路与沿浦公路交叉口东北100米,121.548072,30.993822
泰日小匝港公园,上海市奉贤区泰日新建路,121.566895,30.988212
醉白池公园,上海市松江区人民南路64号,121.237516,31.00776
松江烈士陵园,上海市松江区车墩镇联络公路753号,121.251403,31.000106
东岳庙,中山中路196弄9号,121.239928,31.013918
董其昌书画艺术博物馆,上海市松江区人民南路64号醉白池公园,121.237816,31.008015
耿氏宅,上海市松江区景德路机关幼儿园(松乐路店)西南侧约30米,121.24469,31.014983
方塔园-天妃宫,上海市松江区中山东路235号(近方塔南路)方塔园内,121.253029,31.010798
方塔园,上海市松江区中山东路235号,121.25301,31.010149
松江科技馆,上海市松江区中山东路237号,121.251505,31.012521
松江博物馆,上海市松江区中山东路233号,121.252945,31.012213
上海仓城影视文化产业园盐仓影视拍摄基地,上海市松江区盐平路亿磊商务楼西北侧约240米,121.236418,31.003402
方塔园,上海市松江区中山东路235号,121.25301,31.010149
松江博物馆,上海市松江区中山东路233号,121.252945,31.012213
望仙桥,上海市松江区中山东路235号(近方塔南路)方塔园内,121.25343,31.009362
华阳绿地公园,北松公路和松卫北路交界处东北角,121.272394,31.008651
松江科技馆,上海市松江区中山东路237号,121.251505,31.012521
松江烈士陵园,上海市松江区车墩镇联络公路753号,121.251403,31.000106
地藏古寺,上海市松江区东门村774号,121.275683,31.013802
天主教上海教区邱家湾耶稣圣心堂,上海市松江区方塔北路281号,121.254716,31.015297
方塔园-天妃宫,上海市松江区中山东路235号(近方塔南路)方塔园内,121.253029,31.010798
吕荡庙,S124(松卫北路),121.271847,31.013477
地藏古寺,上海市松江区东门村774号,121.275683,31.013802
吕荡庙,S124(松卫北路),121.271847,31.013477
安养禅院,上海市松江区华铁路800号,121.275516,31.013869
华阳绿地公园,北松公路和松卫北路交界处东北角,121.272394,31.008651
平倭墓碑,上海市松江区北松公路华明小区东北侧约190米,121.294388,31.010231
东禅古寺,上海市松江区东门村659号,121.273019,31.014525
上海影视乐园,上海市松江区车墩镇车亭公路211号,121.318804,31.016708
外滩公园,上海市松江区车墩镇北松公路4915号上海影视乐园内,121.319779,31.015792
新世界(北),上海市松江区车墩镇北松公路4915号上海影视乐园内,121.316603,31.01768
老式火车站,上海市松江区车墩镇北松公路4915号上海影视乐园内,121.316329,31.014638
上海影视乐园研学基地,上海市松江区车墩镇北松公路4915号上海影视乐园,121.317539,31.015334
十六铺码头,上海市松江区车墩镇北松公路4915号上海影视乐园,121.316444,31.018026
上海影视乐园-旧法租界,上海市松江区北松公路4915号,121.318155,31.016673
平倭墓碑,上海市松江区北松公路华明小区东北侧约190米,121.294388,31.010231
吕荡庙,上海市松江区沈海高速财富兴园东北侧约190米,121.310854,31.006633
上海影视乐园演出部,上海市松江区北松公路4671弄200号,121.316331,31.017493
上海影视乐园,上海市松江区车墩镇车亭公路211号,121.318804,31.016708
圣恩堂,上海市松江区车墩镇北松公路4915号上海影视乐园内,121.319761,31.016953
外滩公园,上海市松江区车墩镇北松公路4915号上海影视乐园内,121.319779,31.015792
韩湘水博园,闵行区江川路3805号(近仙鹤路),121.335761,30.990343
车墩天主堂,上海市松江区车峰路186号,121.325636,31.016268
老街,上海市松江区车墩镇北松公路4915号上海影视乐园内,121.320901,31.017555
浙江路桥,上海市松江区车墩镇北松公路4915号上海影视乐园内,121.320427,31.017421
马勒别墅,上海市松江区车墩镇北松公路4915号上海影视乐园内,121.318108,31.018107
千年古樟,上海市闵行区江川路韩湘水博园,121.338614,30.991207
鸟岛,上海市松江区车墩镇北松公路4915号上海影视乐园内,121.321414,31.015412
韩湘水博园,闵行区江川路3805号(近仙鹤路),121.335761,30.990343
韩仓,上海市闵行区江川路韩湘水博园东侧约180米,121.341834,30.990426
千年古樟,上海市闵行区江川路韩湘水博园,121.338614,30.991207
泰顺桥,上海市闵行区江川路3805号临韩湘水博园,121.337179,30.989732
金庆章故居,江川路2060弄101支弄33号临附近,121.355936,30.996408
范公亭,上海市闵行区江川路3805号临韩湘水博园,121.337757,30.991862
浦江魂,上海市闵行区江川路3805号临韩湘水博园,121.337911,30.991343
醒狮桥,上海市闵行区江川路3805号临韩湘水博园,121.338308,30.991325
含碧桥,上海市闵行区江川路3805号临韩湘水博园,121.338125,30.991044
水生态科普体验馆,上海市闵行区江川路3805-20临,121.337563,30.990601
闵行生态公园,上海市闵行区东川路3333号,121.381893,31.00424
水生园,闵行区东川路3366号,121.380018,31.00932
西洋园,上海市闵行区东川路3333,121.38082,31.007064
景德大门,上海市闵行区东川路3285号强生(中国)有限公司液装车间,121.383297,31.007865
金庆章故居,江川路2060弄101支弄33号临附近,121.355936,30.996408
古藤园,上海市闵行区临沧路148号(东川路江川路间),121.393794,31.008877
西洋园,上海市闵行区东川路3333,121.38082,31.007064
闵行生态公园,上海市闵行区东川路3333号,121.381893,31.00424
水生园,闵行区东川路3366号,121.380018,31.00932
景德大门,上海市闵行区东川路3285号强生(中国)有限公司液装车间,121.383297,31.007865
闵行科技馆,上海市闵行区鹤庆路900号上海寰悦广场F1,121.410993,31.013494
古藤园,上海市闵行区临沧路148号(东川路江川路间),121.393794,31.008877
红园,上海市闵行区江川路354号,121.420729,31.009665
银杏公园,上海市闵行区东川路与金平路交叉路口往南约50米,121.417654,31.016918
识默轩美术馆,上海市闵行区鹤庆路560弄89号,121.417355,31.016251
闵行科技馆,上海市闵行区鹤庆路900号上海寰悦广场F1,121.410993,31.013494
红园,上海市闵行区江川路354号,121.420729,31.009665
闵行公园,上海市闵行区沪闵路249号,121.430983,31.014831
银杏公园,上海市闵行区东川路与金平路交叉路口往南约50米,121.417654,31.016918
游乐场,上海市闵行区闵行公园内,121.432207,31.015017
西渡江边公园,上海市奉贤区西闵线鸿宝一村-北区北侧约30米,121.435627,31.001788
龙音寺,上海市闵行区江川路街道闵东路1号,121.437278,31.00917
李家阁,上海市奉贤区鸿宝路,121.426876,30.991816
水帘洞广场公园,上海市奉贤区沪杭公路水帘洞新村,121.437309,31.000218
清净庵旧址,上海市闵行区新闵路新闵小区,121.431847,31.009871
西渡公园,上海市奉贤区南桥西渡江川路354号(扶兰路与扶兰支路交汇处东南侧),121.446484,30.995574
龙音寺,上海市闵行区江川路街道闵东路1号,121.437278,31.00917
游乐场,上海市闵行区闵行公园内,121.432207,31.015017
水帘洞广场公园,上海市奉贤区沪杭公路水帘洞新村,121.437309,31.000218
临江园,上海市西渡街道灯塔村9组,121.436779,30.988122
清净庵旧址,上海市闵行区新闵路新闵小区,121.431847,31.009871
杭州生命,上海市奉贤区沪杭公路巨龙台湾城东北侧约30米,121.440604,30.990921
竹亭,上海市闵行区沪闵路249号闵行公园,121.432793,31.014933
淳之文化,上海市奉贤区关五路188号(关五路与五宅路交叉口),121.489002,31.001566
旃檀禅院,上海市奉贤区金汇村1158号,121.500322,30.992883
紫庵,上海市奉贤区西渡街道,121.483653,30.988521
达令港公园,上海市奉贤区汇中路与金闸公路交叉口东南500米,121.515781,30.990981
旃檀禅院,上海市奉贤区金汇村1158号,121.500322,30.992883
淳之文化,上海市奉贤区关五路188号(关五路与五宅路交叉口),121.489002,31.001566
庵港宅,上海市奉贤区西渡街道,121.501568,30.986879
达令港公园,上海市奉贤区汇中路与金闸公路交叉口东南500米,121.515781,30.990981
申亚森林足球营地,上海市奉贤区金汇镇明星村1103号,121.540619,30.991743
申亚森林足球营地,上海市奉贤区金汇镇明星村1103号,121.540619,30.991743
申亚生态林,上海市奉贤区明星路与沿浦公路交叉口东北100米,121.548072,30.993822
泰日小匝港公园,上海市奉贤区泰日新建路,121.566895,30.988212
方塔园,上海市松江区中山东路235号,121.25301,31.010149
北内路绿地,上海市松江区袜子弄73号,121.248266,31.018668
醉白池公园,上海市松江区人民南路64号,121.237516,31.00776
松江博物馆,上海市松江区中山东路233号,121.252945,31.012213
松江科技馆,上海市松江区中山东路237号,121.251505,31.012521
东岳庙,中山中路196弄9号,121.239928,31.013918
耿氏宅,上海市松江区景德路机关幼儿园(松乐路店)西南侧约30米,121.24469,31.014983
西林禅寺,中山中路666号,121.23067,31.013354
天主教上海教区邱家湾耶稣圣心堂,上海市松江区方塔北路281号,121.254716,31.015297
菜花泾绿地,上海市松江区谷阳北路42号,121.243723,31.016349
方塔园,上海市松江区中山东路235号,121.25301,31.010149
松江科技馆,上海市松江区中山东路237号,121.251505,31.012521
松江博物馆,上海市松江区中山东路233号,121.252945,31.012213
地藏古寺,上海市松江区东门村774号,121.275683,31.013802
吕荡庙,S124(松卫北路),121.271847,31.013477
北内路绿地,上海市松江区袜子弄73号,121.248266,31.018668
方塔园-天妃宫,上海市松江区中山东路235号(近方塔南路)方塔园内,121.253029,31.010798
望仙桥,上海市松江区中山东路235号(近方塔南路)方塔园内,121.25343,31.009362
天主教上海教区邱家湾耶稣圣心堂,上海市松江区方塔北路281号,121.254716,31.015297
浦江源石,上海市松江区中山东路235号(近方塔南路)方塔园内,121.252381,31.011545
地藏古寺,上海市松江区东门村774号,121.275683,31.013802
吕荡庙,S124(松卫北路),121.271847,31.013477
安养禅院,上海市松江区华铁路800号,121.275516,31.013869
平倭墓碑,上海市松江区北松公路华明小区东北侧约190米,121.294388,31.010231
东禅古寺,上海市松江区东门村659号,121.273019,31.014525
上海影视乐园,上海市松江区车墩镇车亭公路211号,121.318804,31.016708
老街,上海市松江区车墩镇北松公路4915号上海影视乐园内,121.320901,31.017555
外滩公园,上海市松江区车墩镇北松公路4915号上海影视乐园内,121.319779,31.015792
浙江路桥,上海市松江区车墩镇北松公路4915号上海影视乐园内,121.320427,31.017421
马勒别墅,上海市松江区车墩镇北松公路4915号上海影视乐园内,121.318108,31.018107
回龙镇,上海市松江区虬长路车墩菜场西侧,121.313981,31.020925
新世界(北),上海市松江区车墩镇北松公路4915号上海影视乐园内,121.316603,31.01768
石库门里弄群,上海市松江区车墩镇北松公路4915号上海影视乐园内,121.318961,31.017346
十六铺码头,上海市松江区车墩镇北松公路4915号上海影视乐园,121.316444,31.018026
老爷车展厅,上海市松江区车墩镇北松公路4915号上海影视乐园内,121.31618,31.018283
上海影视乐园,上海市松江区车墩镇车亭公路211号,121.318804,31.016708
老街,上海市松江区车墩镇北松公路4915号上海影视乐园内,121.320901,31.017555
外滩公园,上海市松江区车墩镇北松公路4915号上海影视乐园内,121.319779,31.015792
浙江路桥,上海市松江区车墩镇北松公路4915号上海影视乐园内,121.320427,31.017421
马勒别墅,上海市松江区车墩镇北松公路4915号上海影视乐园内,121.318108,31.018107
健康主题公园,上海市松江区车墩人口文化广场内(北侧),121.321671,31.020941
车墩天主堂,上海市松江区车峰路186号,121.325636,31.016268
鸟岛,上海市松江区车墩镇北松公路4915号上海影视乐园内,121.321414,31.015412
石库门里弄群,上海市松江区车墩镇北松公路4915号上海影视乐园内,121.318961,31.017346
上海影视乐园-置景场地,上海市松江区车墩镇北松公路4915号上海影视乐园内,121.319024,31.01843
中泾天主堂,上海市松江区新兴村南新224号,121.336135,31.032065
马桥公园,上海市闵行区富岩路298弄15号,121.376495,31.036834
水生园,闵行区东川路3366号,121.380018,31.00932
天主教上海教区杨家圣母圣诞堂,上海市闵行区昆阳路2038弄385号,121.368976,31.029529
万寿庵,上海市闵行区马桥镇东街29号,121.380188,31.035338
古藤园,上海市闵行区临沧路148号(东川路江川路间),121.393794,31.008877
马桥公园,上海市闵行区富岩路298弄15号,121.376495,31.036834
水生园,闵行区东川路3366号,121.380018,31.00932
基督教闵行福音堂,上海市闵行区马桥镇友好村华宁路245号,121.400832,31.021193
俞塘民众教育纪念馆,上海市闵行区俞塘村1弄2号临,121.38874,31.038665
马桥天主堂,上海市闵行区马桥镇东街25号,121.380805,31.035674
西洋园,上海市闵行区东川路3333,121.38082,31.007064
万寿庵,上海市闵行区马桥镇东街29号,121.380188,31.035338
景德大门,上海市闵行区东川路3285号强生(中国)有限公司液装车间,121.383297,31.007865
天主教上海教区杨家圣母圣诞堂,上海市闵行区昆阳路2038弄385号,121.368976,31.029529
闵行科技馆,上海市闵行区鹤庆路900号上海寰悦广场F1,121.410993,31.013494
基督教闵行福音堂,上海市闵行区马桥镇友好村华宁路245号,121.400832,31.021193
银杏公园,上海市闵行区东川路与金平路交叉路口往南约50米,121.417654,31.016918
古藤园,上海市闵行区临沧路148号(东川路江川路间),121.393794,31.008877
红园,上海市闵行区江川路354号,121.420729,31.009665
识默轩美术馆,上海市闵行区鹤庆路560弄89号,121.417355,31.016251
闵行公园,上海市闵行区沪闵路249号,121.430983,31.014831
闵行绿道,上海市闵行区东川路绿家园东北侧约40米,121.427881,31.020171
闵行科技馆,上海市闵行区鹤庆路900号上海寰悦广场F1,121.410993,31.013494
思源湖,上海市闵行区东川路800号上海交通大学闵行校区,121.435963,31.027356
银杏公园,上海市闵行区东川路与金平路交叉路口往南约50米,121.417654,31.016918
红园,上海市闵行区江川路354号,121.420729,31.009665
游乐场,上海市闵行区闵行公园内,121.432207,31.015017
樱花林,上海市闵行区沧源路与东川路交叉路口往西约170米,121.432461,31.022287
龙音寺,上海市闵行区江川路街道闵东路1号,121.437278,31.00917
上海交通大学-园林植物标本园(闵行校区),上海市闵行区东川路800号上海交通大学闵行校区(新图书馆后),121.441867,31.034106
上海交通大学-植物园,上海市闵行区学森路与纬七路交叉口东150米,121.442594,31.034103
闵行公园,上海市闵行区沪闵路249号,121.430983,31.014831
思源湖,上海市闵行区东川路800号上海交通大学闵行校区,121.435963,31.027356
游乐场,上海市闵行区闵行公园内,121.432207,31.015017
龙音寺,上海市闵行区江川路街道闵东路1号,121.437278,31.00917
上海交通大学-园林植物标本园(闵行校区),上海市闵行区东川路800号上海交通大学闵行校区(新图书馆后),121.441867,31.034106
蔷薇园,上海市闵行区思源北路上海交通大学(闵行校区),121.448495,31.034777
闵行绿道,上海市闵行区东川路绿家园东北侧约40米,121.427881,31.020171
樱花林,上海市闵行区沧源路与东川路交叉路口往西约170米,121.432461,31.022287
凌霄廊架,上海市闵行区沪闵路249号闵行公园,121.430926,31.015446
浦江第一湾公园,上海市闵行区吴泾镇紫星路与紫光路交叉口东侧,121.477379,31.019228
浦江第一湾公园-景观台,上海市闵行区紫光路与紫星路交叉路口往东南约210米浦江第一湾公园,121.481621,31.020223
兰香湖-望湖石,上海市闵行区兰香湖边,121.479203,31.027699
华东师大美术馆(闵行校区),上海市闵行区东川路500号华东师范大学闵行校区,121.46033,31.038538
浦江第一湾公园,上海市闵行区吴泾镇紫星路与紫光路交叉口东侧,121.477379,31.019228
浦江第一湾公园-景观台,上海市闵行区紫光路与紫星路交叉路口往东南约210米浦江第一湾公园,121.481621,31.020223
兰香湖-望湖石,上海市闵行区兰香湖边,121.479203,31.027699
情人桥,上海市闵行区浦星公路上海浦江郊野公园内,121.494436,31.038735
儿童游乐场,上海市闵行区新港河路与永颂路交叉口东150米,121.509408,31.03137
儿童游乐场,上海市闵行区新港河路与永颂路交叉口东150米,121.509408,31.03137
旌表亭,上海市闵行区新汇路与闸航公路交叉路口往东南约190米,121.560413,31.023967
施南宅,上海市闵行区三鲁公路浦江镇阳光家园东侧约100米,121.540043,31.038459
旌表亭,上海市闵行区新汇路与闸航公路交叉路口往东南约190米,121.560413,31.023967
松江中央公园,上海市松江区松江园中路与南青路交叉口,121.233076,31.042061
上海中国留学生博物馆,上海市松江区茸梅路1177弄7号,121.251575,31.054889
思贤公园,上海市松江区思贤路与人民北路交叉口东北角,121.229875,31.036602
方松体育公园,方松街道新松江路290号,121.238787,31.045067
双拥林,上海市松江区南青路699号,121.232478,31.041749
其昌公园,上海市松江区嘉松南路与南期昌路交叉口东北方向180米,121.238991,31.030612
茭菱公园,上海市松江区茭菱路时亦商务大厦西北侧约100米,121.254925,31.044812
国家生态水利风景区大邱泾,上海市松江区文翔路1550号上海外国语大学松江校区内,121.234183,31.051964
上海外国语大学(松江校区)-世界语言博物馆,上海市松江区文翔路1550号上海外国语大学松江校区,121.229724,31.050585
南华苑禅修地,上海市五昆路116号,121.254645,31.037495
茭菱公园,上海市松江区茭菱路时亦商务大厦西北侧约100米,121.254925,31.044812
月季园,上海市松江区华军路一区1号,121.269536,31.052099
阡陌云间,上海市松江区明南路819号1幢,121.266545,31.052201
南华苑禅修地,上海市五昆路116号,121.254645,31.037495
月季园,上海市松江区华军路一区1号,121.269536,31.052099
晨星生态绿地,上海市松江区茜蒲路晨星小区-西区东北侧约30米,121.318638,31.054857
中泾天主堂,上海市松江区新兴村南新224号,121.336135,31.032065
晨星生态绿地,上海市松江区茜蒲路晨星小区-西区东北侧约30米,121.318638,31.054857
中泾天主堂,上海市松江区新兴村南新224号,121.336135,31.032065
马桥公园,上海市闵行区富岩路298弄15号,121.376495,31.036834
白沃净寺,上海市闵行区马桥镇昆阳路3251弄100号,121.373084,31.049465
马桥天主堂,上海市闵行区马桥镇东街25号,121.380805,31.035674
万寿庵,上海市闵行区马桥镇东街29号,121.380188,31.035338
天主教上海教区杨家圣母圣诞堂,上海市闵行区昆阳路2038弄385号,121.368976,31.029529
马桥古文化遗址公园,上海市闵行区北松公路888号,121.398213,31.040057
俞塘民众教育纪念馆,上海市闵行区俞塘村1弄2号临,121.38874,31.038665
马桥天主堂,上海市闵行区马桥镇东街25号,121.380805,31.035674
白沃净寺,上海市闵行区马桥镇昆阳路3251弄100号,121.373084,31.049465
万寿庵,上海市闵行区马桥镇东街29号,121.380188,31.035338
钮氏镕才堂,上海市闵行区俞塘村1弄2号临,121.388751,31.038661
马桥古文化遗址公园,上海市闵行区北松公路888号,121.398213,31.040057
金塔公园,沪闵路2422弄(北桥金塔新村对面),121.417064,31.044538
俞塘民众教育纪念馆,上海市闵行区俞塘村1弄2号临,121.38874,31.038665
耶稣堂,上海市闵行区北桥镇北吴路1500号,121.421961,31.051321
安全文化长廊,上海市闵行区金塔路599号临金塔公园,121.416342,31.044457
消防文化浮雕,上海市闵行区金塔路599号临金塔公园,121.416237,31.044306
誓师亭,上海市闵行区金塔路599号临金塔公园,121.417031,31.044475
消防石雕,上海市闵行区金塔路599号临金塔公园,121.41672,31.044286
颛桥剪纸雕塑,上海市闵行区金塔路599号临金塔公园,121.417744,31.044718
钮氏镕才堂,上海市闵行区俞塘村1弄2号临,121.388751,31.038661
上海交通大学-植物园,上海市闵行区学森路与纬七路交叉口东150米,121.442594,31.034103
金塔公园,沪闵路2422弄(北桥金塔新村对面),121.417064,31.044538
思源湖,上海市闵行区东川路800号上海交通大学闵行校区,121.435963,31.027356
耶稣堂,上海市闵行区北桥镇北吴路1500号,121.421961,31.051321
上海交通大学-园林植物标本园(闵行校区),上海市闵行区东川路800号上海交通大学闵行校区(新图书馆后),121.441867,31.034106
颛桥剪纸雕塑,上海市闵行区金塔路599号临金塔公园,121.417744,31.044718
安全文化长廊,上海市闵行区金塔路599号临金塔公园,121.416342,31.044457
誓师亭,上海市闵行区金塔路599号临金塔公园,121.417031,31.044475
消防石雕,上海市闵行区金塔路599号临金塔公园,121.41672,31.044286
消防文化浮雕,上海市闵行区金塔路599号临金塔公园,121.416237,31.044306
上海交通大学-植物园,上海市闵行区学森路与纬七路交叉口东150米,121.442594,31.034103
古秦淮,上海市闵行区莲花南路华东师范大学闵行永德实验小学南侧约250米,121.451697,31.043884
思源湖,上海市闵行区东川路800号上海交通大学闵行校区,121.435963,31.027356
蔷薇园,上海市闵行区思源北路上海交通大学(闵行校区),121.448495,31.034777
上海交通大学-园林植物标本园(闵行校区),上海市闵行区东川路800号上海交通大学闵行校区(新图书馆后),121.441867,31.034106
华东师大美术馆(闵行校区),上海市闵行区东川路500号华东师范大学闵行校区,121.46033,31.038538
吴泾甘露寺,上海市闵行区曹家塘路100-6号临,121.454363,31.045258
上海交通大学-程及美术馆(闵行校区),上海市闵行区东川路800号,121.435275,31.027408
古秦淮,上海市闵行区莲花南路华东师范大学闵行永德实验小学南侧约250米,121.451697,31.043884
星乐公园,上海市闵行区金家塘路万科花园小城东南侧约70米,121.478732,31.043499
吴泾福音堂,上海市闵行区龙吴路5330号,121.473524,31.054351
蔷薇园,上海市闵行区思源北路上海交通大学(闵行校区),121.448495,31.034777
华东师大美术馆(闵行校区),上海市闵行区东川路500号华东师范大学闵行校区,121.46033,31.038538
兰香湖-望湖石,上海市闵行区兰香湖边,121.479203,31.027699
涟漪湖,上海市闵行区贡山路吴泾公园(氯碱小区东北侧约100米),121.483706,31.052712
荷花池,上海市闵行区贡山路吴泾公园(氯碱小区东北侧约100米),121.483613,31.052117
环碧岛,上海市闵行区贡山路吴泾公园(氯碱小区东北侧约100米),121.483878,31.05244
吴泾甘露寺,上海市闵行区曹家塘路100-6号临,121.454363,31.045258
滨江漫步区,上海市闵行区浦星公路上海浦江郊野公园内,121.492305,31.056002
吴泾公园,上海市闵行区剑川路2号(吴泾渡口西北侧),121.484247,31.052605
情人桥,上海市闵行区浦星公路上海浦江郊野公园内,121.494436,31.038735
星乐公园,上海市闵行区金家塘路万科花园小城东南侧约70米,121.478732,31.043499
红叶桥,上海市闵行区浦星公路上海浦江郊野公园内,121.493896,31.040519
兰香湖-望湖石,上海市闵行区兰香湖边,121.479203,31.027699
吴泾福音堂,上海市闵行区龙吴路5330号,121.473524,31.054351
桂雨桥,上海市闵行区浦星公路上海浦江郊野公园内,121.494235,31.043025
涟漪湖,上海市闵行区贡山路吴泾公园(氯碱小区东北侧约100米),121.483706,31.052712
爱丘山,上海市闵行区贡山路吴泾公园(氯碱小区东北侧约100米),121.484069,31.053194
情人桥,上海市闵行区浦星公路上海浦江郊野公园内,121.494436,31.038735
柳鹭田园区,上海市闵行区浦星公路上海浦江郊野公园内,121.513825,31.055506
儿童游乐场,上海市闵行区新港河路与永颂路交叉口东150米,121.509408,31.03137
水岸营地,上海市闵行区联跃路上海浦江郊野公园,121.516977,31.052102
长寿禅寺,上海市闵行区浦江镇浦锦南路1583号,121.508497,31.05995
园艺体验岛,上海市闵行区浦星公路2578弄8号,121.51212,31.05271
生态湿地,浦星公路2578弄8号(上海浦江郊野公园),121.512272,31.053166
凝,上海市闵行区柳鹭田园区游客驿站北,121.511086,31.055795
林中探险栈道,上海市闵行区浦放路浦江森林公园西北850米,121.512368,31.055751
红叶桥,上海市闵行区浦星公路上海浦江郊野公园内,121.493896,31.040519
浦江森林公园,上海市闵行区浦江镇联跃路100号,121.523947,31.052892
柳鹭田园区,上海市闵行区浦星公路上海浦江郊野公园内,121.513825,31.055506
水岸营地,上海市闵行区联跃路上海浦江郊野公园,121.516977,31.052102
园艺体验岛,上海市闵行区浦星公路2578弄8号,121.51212,31.05271
生态湿地,浦星公路2578弄8号(上海浦江郊野公园),121.512272,31.053166
乐耕桥,上海市闵行区浦星公路上海浦江郊野公园内,121.515208,31.056287
野翁桥,上海市闵行区浦星公路上海浦江郊野公园内,121.515399,31.052461
白鹭柳岸,上海市闵行区浦星公路与浦放路交叉口西南约220米,121.517523,31.055803
上元桥,上海市闵行区浦星公路上海浦江郊野公园内,121.514369,31.053172
施南宅,上海市闵行区三鲁公路浦江镇阳光家园东侧约100米,121.540043,31.038459
浦江玫瑰园站,上海市闵行区先新路新风生态园东南侧约280米,121.562841,31.047489
施南宅,上海市闵行区三鲁公路浦江镇阳光家园东侧约100米,121.540043,31.038459
梓童莲院,上海市浦东新区航头镇长达村汇达396号,121.580028,31.041398
浦东新区法治主题园,上海市浦东新区航头路与航达路交叉路口往北约50米(长达佳苑西北侧约250米),121.579796,31.03659
浦江玫瑰园站,上海市闵行区先新路新风生态园东南侧约280米,121.562841,31.047489
上海中国留学生博物馆,上海市松江区茸梅路1177弄7号,121.251575,31.054889
五龙湖公园,上海市松江区外浜街上海松江凯悦酒店(广富林路店)东南侧约160米,121.254998,31.059866
绿地依翠园,上海市松江区茸凯路300弄,121.261623,31.061922
阳光沙滩,上海市松江区辰花路388号青青旅游世界内,121.258806,31.076073
国家生态水利风景区大邱泾,上海市松江区文翔路1550号上海外国语大学松江校区内,121.234183,31.051964
沉剑阁,上海市松江区辰花路388号青青旅游世界内,121.257535,31.076945
星月湖,上海市松江区辰花路388号青青旅游世界内,121.259967,31.074885
松江青青旅游世界-大草坪,上海市松江区辰花路388号青青旅游世界内,121.260719,31.075551
青青旅游世界-大愚亭,上海市松江区辰花路388号青青旅游世界内,121.260068,31.075285
绿地依翠园,上海市松江区茸凯路300弄,121.261623,31.061922
上海中国留学生博物馆,上海市松江区茸梅路1177弄7号,121.251575,31.054889
五龙湖公园,上海市松江区外浜街上海松江凯悦酒店(广富林路店)东南侧约160米,121.254998,31.059866
松江青青旅游世界,辰花公路388号(辰花公路和沪松公路交汇处),121.26238,31.075727
阳光沙滩,上海市松江区辰花路388号青青旅游世界内,121.258806,31.076073
月季园,上海市松江区华军路一区1号,121.269536,31.052099
青青旅游世界-青青慈云寺,上海市松江区辰花路388号青青旅游世界内,121.258567,31.077546
青青旅游世界-鸟类自然保护区,松江区辰花公路388号青青旅游世界,121.265205,31.077375
玫瑰园,上海市松江区辰花路388号青青旅游世界内,121.260729,31.07812
沉剑阁,上海市松江区辰花路388号青青旅游世界内,121.257535,31.076945
猛将庙,上海市松江区新格路与新腾路交叉口西50米,121.287009,31.060356
新桥美术馆,上海市松江区泗砖南路255弄,121.292661,31.076152
月季园,上海市松江区华军路一区1号,121.269536,31.052099
新桥公园,上海市新桥镇新站路478弄55号101室,121.319694,31.066072
九峰端境,上海市松江区新车公路上海家天下西南门南侧约30米,121.311796,31.059658
溢家景观,上海市松江区新镇街新桥镇新乐小区,121.321263,31.073252
晨星生态绿地,上海市松江区茜蒲路晨星小区-西区东北侧约30米,121.318638,31.054857
陈春路口袋公园,上海市陈春路岩氪广场东北侧,121.321656,31.074645
猛将庙,上海市松江区新格路与新腾路交叉口西50米,121.287009,31.060356
新桥公园,上海市新桥镇新站路478弄55号101室,121.319694,31.066072
新桥人口文化主题公园,上海市松江区新育路500临东北方向130米,121.328726,31.074191
溢家景观,上海市松江区新镇街新桥镇新乐小区,121.321263,31.073252
晨星生态绿地,上海市松江区茜蒲路晨星小区-西区东北侧约30米,121.318638,31.054857
猛将寺,上海市松江区新桥镇陈春公路880号,121.337915,31.077197
陈春路口袋公园,上海市陈春路岩氪广场东北侧,121.321656,31.074645
陈春绿地,上海市松江区陈春路松江区潘家浜小学西侧约40米,121.338175,31.077033
九峰端境,上海市松江区新车公路上海家天下西南门南侧约30米,121.311796,31.059658
艺术长廊,上海市松江区明中路与新育路交叉路口往西南约100米(明中广场),121.326956,31.079394
昆阳湖,上海市闵行区昆阳北路国家检察官学院上海分院南侧约270米,121.364856,31.060931
旗忠公园,光华路2450号,121.356275,31.064139
猛将寺,上海市松江区新桥镇陈春公路880号,121.337915,31.077197
陈春绿地,上海市松江区陈春路松江区潘家浜小学西侧约40米,121.338175,31.077033
昆阳湖,上海市闵行区昆阳北路国家检察官学院上海分院南侧约270米,121.364856,31.060931
旗忠公园,光华路2450号,121.356275,31.064139
白沃净寺,上海市闵行区马桥镇昆阳路3251弄100号,121.373084,31.049465
春申君祠,上海市松江区金都路樱之梦幼儿园西南侧约220米,121.367504,31.073813
颛桥法治主题公园,上海市闵行区颛盛路525号,121.398202,31.067324
白沃净寺,上海市闵行区马桥镇昆阳路3251弄100号,121.373084,31.049465
鑫都路水文化公园,上海市闵行区瓶安路与鑫都路交叉路口往北约60米,121.405333,31.06362
獬豸雕塑,上海市闵行区颛盛路525号颛桥法治主题公园,121.398457,31.067566
鑫都路水文化公园,上海市闵行区瓶安路与鑫都路交叉路口往北约60米,121.405333,31.06362
颛桥法治主题公园,上海市闵行区颛盛路525号,121.398202,31.067324
耶稣堂,上海市闵行区北桥镇北吴路1500号,121.421961,31.051321
獬豸雕塑,上海市闵行区颛盛路525号颛桥法治主题公园,121.398457,31.067566
耶稣堂,上海市闵行区北桥镇北吴路1500号,121.421961,31.051321
梅陇镇法治文化公园,上海市闵行区梅莲路,121.445236,31.074063
吴泾公园,上海市闵行区剑川路2号(吴泾渡口西北侧),121.484247,31.052605
吴泾福音堂,上海市闵行区龙吴路5330号,121.473524,31.054351
爱丘山,上海市闵行区贡山路吴泾公园(氯碱小区东北侧约100米),121.484069,31.053194
涟漪湖,上海市闵行区贡山路吴泾公园(氯碱小区东北侧约100米),121.483706,31.052712
荷花池,上海市闵行区贡山路吴泾公园(氯碱小区东北侧约100米),121.483613,31.052117
吴泾历史人文陈列馆,上海市闵行区龙吴路5347号吴泾体育馆(近放鹤路),121.47213,31.054356
环碧岛,上海市闵行区贡山路吴泾公园(氯碱小区东北侧约100米),121.483878,31.05244
吴泾新家园馆,上海市闵行区龙吴路5347号,121.472131,31.054356
杉林润溪,上海市闵行区郊野公园内,121.49326,31.060423
皎月桥,上海市闵行区浦星公路上海浦江郊野公园内滨江漫步区,121.491311,31.062825
吴泾福音堂,上海市闵行区龙吴路5330号,121.473524,31.054351
吴泾公园,上海市闵行区剑川路2号(吴泾渡口西北侧),121.484247,31.052605
滨江漫步区,上海市闵行区浦星公路上海浦江郊野公园内,121.492305,31.056002
银杏醉秋,上海市闵行区浦星公路上海浦江郊野公园内,121.499377,31.063245
飞絮桥,上海市闵行区浦星公路上海浦江郊野公园内,121.495445,31.066035
夕阳桥,上海市闵行区浦星公路上海浦江郊野公园内,121.490405,31.06594
森林游憩区,上海市闵行区浦星公路上海浦江郊野公园内,121.500489,31.062721
芦花摇曳,上海市闵行区郊野公园内,121.492466,31.066966
长寿禅寺,上海市闵行区浦江镇浦锦南路1583号,121.508497,31.05995
金雀桥,上海市闵行区沈杜公路4300号福乐山庄,121.506812,31.06295
上海浦江郊野公园,上海市闵行区浦星公路2578弄8号,121.515627,31.060675
上海浦江郊野公园-奇迹花园,上海市闵行区浦星公路二五七八弄8号,121.514244,31.060675
梦幻花谷,上海市闵行区张行村沈杜公路地铁站南650米,121.51561,31.062247
活力森林区,上海市闵行区浦锦南路2086弄1~16号,121.511543,31.065315
森林游憩区,上海市闵行区浦星公路上海浦江郊野公园内,121.500489,31.062721
大雄宝殿,上海市闵行区沈杜公路4300号福乐山庄,121.506892,31.063164
浦江森林公园,上海市闵行区浦江镇联跃路100号,121.523947,31.052892
马可波罗儿童探索中心,上海市闵行区浦锦南路1586弄11号,121.510995,31.06127
上海浦江郊野公园,上海市闵行区浦星公路2578弄8号,121.515627,31.060675
浦江森林公园,上海市闵行区浦江镇联跃路100号,121.523947,31.052892
上海浦江郊野公园-奇迹花园,上海市闵行区浦星公路二五七八弄8号,121.514244,31.060675
梦幻花谷,上海市闵行区张行村沈杜公路地铁站南650米,121.51561,31.062247
活力森林区,上海市闵行区浦锦南路2086弄1~16号,121.511543,31.065315
共青园,上海市闵行区浦江镇叶家桥路249号,121.536571,31.070024
长寿禅寺,上海市闵行区浦江镇浦锦南路1583号,121.508497,31.05995
芙罗拉教堂,上海市闵行区浦江镇张行村沈杜公路地铁站西南,121.515674,31.060678
江玮公园,上海市闵行区江玮路269号,121.539731,31.064948
柳鹭田园区,上海市闵行区浦星公路上海浦江郊野公园内,121.513825,31.055506
共青园,上海市闵行区浦江镇叶家桥路249号,121.536571,31.070024
江玮公园,上海市闵行区江玮路269号,121.539731,31.064948
江玮绿地,上海市闵行区江文路与江玮路交叉路口往西南约60米,121.540504,31.066712
召稼楼机云亭,上海市闵行区秦裕伯路召稼楼古镇礼园路4号,121.555739,31.077796
召稼楼桥,上海市闵行区沈杜公路2059号召稼楼古镇内,121.553605,31.079044
顾振烈士纪念馆,上海市闵行区浦江镇沈杜路召稼楼古镇内,121.555107,31.078279
秦裕伯纪念馆,上海市闵行区浦江镇召稼楼古镇礼园,121.555306,31.07827
小召稼楼,上海市闵行区沈杜公路2059号召稼楼古镇内,121.552471,31.079249
召稼楼古镇-礼园,上海市闵行区召楼礼园路1号,121.555198,31.078465
梅月居,上海市闵行区浦江镇革新村内沈杜路(近苏召路)召稼楼附近,121.556672,31.077457
汪家祠堂,上海市浦东新区鹤立西路与沈楼路交叉路口往西北约280米,121.573126,31.061315
浦江玫瑰园站,上海市闵行区先新路新风生态园东南侧约280米,121.562841,31.047489
谈家祠堂,航头镇申嘉湖高速公路谈家祠堂,121.569884,31.078448
梅月居,上海市闵行区浦江镇革新村内沈杜路(近苏召路)召稼楼附近,121.556672,31.077457
奚氏宁俭堂宅院,上海市闵行区梅园路召稼楼,121.558046,31.0775
阳光沙滩,上海市松江区辰花路388号青青旅游世界内,121.258806,31.076073
松江青青旅游世界,辰花公路388号(辰花公路和沪松公路交汇处),121.26238,31.075727
青青旅游世界-青青慈云寺,上海市松江区辰花路388号青青旅游世界内,121.258567,31.077546
外婆桥,上海市松江区辰花路388号青青旅游世界内,121.262592,31.080128
玫瑰园,上海市松江区辰花路388号青青旅游世界内,121.260729,31.07812
沉剑阁,上海市松江区辰花路388号青青旅游世界内,121.257535,31.076945
青青旅游世界-鸟类自然保护区,松江区辰花公路388号青青旅游世界,121.265205,31.077375
星月湖,上海市松江区辰花路388号青青旅游世界内,121.259967,31.074885
松江青青旅游世界-大草坪,上海市松江区辰花路388号青青旅游世界内,121.260719,31.075551
青青旅游世界-大愚亭,上海市松江区辰花路388号青青旅游世界内,121.260068,31.075285
松江青青旅游世界,辰花公路388号(辰花公路和沪松公路交汇处),121.26238,31.075727
外婆桥,上海市松江区辰花路388号青青旅游世界内,121.262592,31.080128
青青旅游世界-青青慈云寺,上海市松江区辰花路388号青青旅游世界内,121.258567,31.077546
阳光沙滩,上海市松江区辰花路388号青青旅游世界内,121.258806,31.076073
青青旅游世界-鸟类自然保护区,松江区辰花公路388号青青旅游世界,121.265205,31.077375
玫瑰园,上海市松江区辰花路388号青青旅游世界内,121.260729,31.07812
沉剑阁,上海市松江区辰花路388号青青旅游世界内,121.257535,31.076945
松江青青旅游世界-大草坪,上海市松江区辰花路388号青青旅游世界内,121.260719,31.075551
星月湖,上海市松江区辰花路388号青青旅游世界内,121.259967,31.074885
青青旅游世界-大愚亭,上海市松江区辰花路388号青青旅游世界内,121.260068,31.075285
新桥美术馆,上海市松江区泗砖南路255弄,121.292661,31.076152
新桥美术馆,上海市松江区泗砖南路255弄,121.292661,31.076152
溢家景观,上海市松江区新镇街新桥镇新乐小区,121.321263,31.073252
陈春路口袋公园,上海市陈春路岩氪广场东北侧,121.321656,31.074645
艺术长廊,上海市松江区明中路与新育路交叉路口往西南约100米(明中广场),121.326956,31.079394
松江区新桥镇仙风园,上海市松江区仙凤路格林豪泰商务酒店(松江漕河泾G60云廊临港科技城九新公路店)西侧约220米,121.318836,31.096627
新桥公园,上海市新桥镇新站路478弄55号101室,121.319694,31.066072
艺术长廊,上海市松江区明中路与新育路交叉路口往西南约100米(明中广场),121.326956,31.079394
新桥人口文化主题公园,上海市松江区新育路500临东北方向130米,121.328726,31.074191
猛将寺,上海市松江区新桥镇陈春公路880号,121.337915,31.077197
陈春路口袋公园,上海市陈春路岩氪广场东北侧,121.321656,31.074645
松江区新桥镇仙风园,上海市松江区仙凤路格林豪泰商务酒店(松江漕河泾G60云廊临港科技城九新公路店)西侧约220米,121.318836,31.096627
陈春绿地,上海市松江区陈春路松江区潘家浜小学西侧约40米,121.338175,31.077033
溢家景观,上海市松江区新镇街新桥镇新乐小区,121.321263,31.073252
猛将寺,上海市松江区新桥镇陈春公路880号,121.337915,31.077197
新桥人口文化主题公园,上海市松江区新育路500临东北方向130米,121.328726,31.074191
陈春绿地,上海市松江区陈春路松江区潘家浜小学西侧约40米,121.338175,31.077033
艺术长廊,上海市松江区明中路与新育路交叉路口往西南约100米(明中广场),121.326956,31.079394
春申君祠,上海市松江区金都路樱之梦幼儿园西南侧约220米,121.367504,31.073813
闵行区烈士陵园,上海市闵行区临春路388号,121.375294,31.097224
颛桥法治主题公园,上海市闵行区颛盛路525号,121.398202,31.067324
田园,上海市闵行区梅州路445号,121.401887,31.092918
獬豸雕塑,上海市闵行区颛盛路525号颛桥法治主题公园,121.398457,31.067566
颛桥法治主题公园,上海市闵行区颛盛路525号,121.398202,31.067324
田园,上海市闵行区梅州路445号,121.401887,31.092918
君莲剪纸公园,上海市闵行区春都路与都庄路交叉口西南约220米,121.422229,31.087253
净土寺,上海市闵行区都园路2949号,121.416887,31.081084
洛克公园(梅州路店),上海市闵行区梅州路56号,121.411069,31.097486
颛桥剪纸文化公园,上海市闵行区春都路与都庄路交叉路口往西南约200米,121.422032,31.087481
REAL PARK KINGSPORTS体育公园,上海市闵行区梅州路56号,121.41118,31.097197
獬豸雕塑,上海市闵行区颛盛路525号颛桥法治主题公园,121.398457,31.067566
君莲剪纸公园,上海市闵行区春都路与都庄路交叉口西南约220米,121.422229,31.087253
时安矿博馆,上海市闵行区颛兴东路1058弄4号,121.429456,31.082879
梅陇国防教育基地公园,上海市闵行区金都路1489号,121.431445,31.094903
梅馨陇韵,上海市闵行区梅陇镇曙东路50号,121.429554,31.098818
净土寺,上海市闵行区都园路2949号,121.416887,31.081084
颛桥剪纸文化公园,上海市闵行区春都路与都庄路交叉路口往西南约200米,121.422032,31.087481
梅陇镇法治文化公园,上海市闵行区梅莲路,121.445236,31.074063
汉实艺术博物馆,梅陇镇虹梅南路双柏路1399号,121.435983,31.092649
梅陇耶稣堂,上海市闵行区景西路42号,121.432408,31.093215
金都水族馆,上海市闵行区金都路1号600弄18号,121.426399,31.095399
梅陇镇法治文化公园,上海市闵行区梅莲路,121.445236,31.074063
省殿禅寺,上海市闵行区景洪路2688号,121.451986,31.091899
汉实艺术博物馆,梅陇镇虹梅南路双柏路1399号,121.435983,31.092649
梅陇耶稣堂,上海市闵行区景西路42号,121.432408,31.093215
时安矿博馆,上海市闵行区颛兴东路1058弄4号,121.429456,31.082879
上海半岛美术馆,上海市闵行区澄建路上海文华消毒药业科技有限公司,121.449344,31.098692
省殿禅寺,上海市闵行区景洪路2688号,121.451986,31.091899
天下商邦酱酒博物馆,上海市闵行区龙吴路4221号,121.464568,31.091772
浦锦绿地,上海市闵行区北江燕路与浦锦路交叉口西北150米,121.504237,31.084893
银鹭桥,上海市闵行区浦星公路上海浦江郊野公园内,121.492514,31.071239
上海天主教浦江天主堂,上海市闵行区浦锦路402号,121.504772,31.083132
飞絮桥,上海市闵行区浦星公路上海浦江郊野公园内,121.495445,31.066035
芦花摇曳,上海市闵行区郊野公园内,121.492466,31.066966
花好月园公园,上海市闵行区陈南路浦江镇第一幼儿园北侧约70米,121.503026,31.092206
夕阳桥,上海市闵行区浦星公路上海浦江郊野公园内,121.490405,31.06594
凌霜桥,上海市闵行区浦星公路上海浦江郊野公园内,121.491816,31.069264
露寒桥,上海市闵行区浦星公路上海浦江郊野公园内滨江漫步区,121.488342,31.066001
锦绣桥,上海市闵行区浦星公路上海浦江郊野公园内滨江漫步区,121.49096,31.070567
浦锦绿地,上海市闵行区北江燕路与浦锦路交叉口西北150米,121.504237,31.084893
上海天主教浦江天主堂,上海市闵行区浦锦路402号,121.504772,31.083132
陈行公园,上海市闵行区浦星公路与陈南路交叉口西南角,121.512946,31.095607
活力森林区,上海市闵行区浦锦南路2086弄1~16号,121.511543,31.065315
福音堂,上海市闵行区竹园西路滨浦新苑-一村北侧约40米,121.512559,31.075901
银鹭桥,上海市闵行区浦星公路上海浦江郊野公园内,121.492514,31.071239
花好月园公园,上海市闵行区陈南路浦江镇第一幼儿园北侧约70米,121.503026,31.092206
长廊,上海市闵行区昌林路上海浦江郊野公园,121.512702,31.066211
佳音堂,上海市闵行区竹园西路滨浦新苑-一村东北侧约40米,121.513263,31.075932
森林传声筒,上海市闵行区浦星公路上海浦江郊野公园内,121.510601,31.066389
陈行公园,上海市闵行区浦星公路与陈南路交叉口西南角,121.512946,31.095607
共青园,上海市闵行区浦江镇叶家桥路249号,121.536571,31.070024
福音堂,上海市闵行区竹园西路滨浦新苑-一村北侧约40米,121.512559,31.075901
今昭会展,上海市闵行区康华路中邺智元里南侧约110米,121.522118,31.072958
佳音堂,上海市闵行区竹园西路滨浦新苑-一村东北侧约40米,121.513263,31.075932
召稼楼桥,上海市闵行区沈杜公路2059号召稼楼古镇内,121.553605,31.079044
共青园,上海市闵行区浦江镇叶家桥路249号,121.536571,31.070024
召稼楼机云亭,上海市闵行区秦裕伯路召稼楼古镇礼园路4号,121.555739,31.077796
奚世瑜住宅,上海市闵行区召楼道南街26号,121.556638,31.079251
礼耕堂,上海市闵行区召楼平西街11号,121.554411,31.07982
秦裕伯纪念馆,上海市闵行区浦江镇召稼楼古镇礼园,121.555306,31.07827
古镇花卉古玩区,上海市闵行区浦江镇小召稼楼路11号,121.552776,31.079521
小召稼楼,上海市闵行区沈杜公路2059号召稼楼古镇内,121.552471,31.079249
东栅,上海市闵行区兴东街召稼楼,121.55615,31.080754
召稼楼古镇,上海市闵行区沈杜公路2059号,121.55568,31.081018
禅光竹房(浦江),上海市闵行区浦江镇沈杜公路1589号革新村黄家宅87号,121.561064,31.086136
奚世瑜住宅,上海市闵行区召楼道南街26号,121.556638,31.079251
召稼楼机云亭,上海市闵行区秦裕伯路召稼楼古镇礼园路4号,121.555739,31.077796
谈家祠堂,航头镇申嘉湖高速公路谈家祠堂,121.569884,31.078448
召稼楼桥,上海市闵行区沈杜公路2059号召稼楼古镇内,121.553605,31.079044
礼耕堂,上海市闵行区召楼平西街11号,121.554411,31.07982
东栅,上海市闵行区兴东街召稼楼,121.55615,31.080754
顾振烈士纪念馆,上海市闵行区浦江镇沈杜路召稼楼古镇内,121.555107,31.078279
召稼楼古镇,上海市闵行区沈杜公路2059号,121.55568,31.081018
召稼楼古镇-礼园,上海市闵行区召楼礼园路1号,121.555198,31.078465
泗滨绿地,上海市松江区泗凤公路与城松路交叉路口南侧(泗泾第三小学东南侧约70米),121.253583,31.11606
云堡未来市,上海市松江区洞泾镇王家厍路885号,121.238394,31.095799
hakuna matata亲子艺术露营,上海市松江区林绿路69号停车场,121.229347,31.101358
泗滨绿地,上海市松江区泗凤公路与城松路交叉路口南侧(泗泾第三小学东南侧约70米),121.253583,31.11606
安方塔,上海市松江区泗泾镇飞龙堂(纹身店)开江中路414号,121.282006,31.116768
福田净寺,上海市松江区泗泾镇文化路25号(近开江中路),121.283873,31.118184
史量才故居,上海市松江区开江东路219号,121.284953,31.118294
明华栖月,上海市松江区开江中路中京苑西北侧约60米,121.282121,31.116844
古镇泗泾,上海市松江区开江中路与开江路交叉口东50米,121.281447,31.116784
马相伯故居,上海市松江区泗泾镇开江中路214号,121.282417,31.117433
泗泾老街,上海市松江区开江中路303号,121.283817,31.117319
松风听音(闻阊文化推广中心),上海市松江区泗泾镇开江中路339号,121.283247,31.117184
福田净寺-客堂,上海市松江区泗泾镇文化路25号,121.283823,31.118455
天王殿(福田净寺),上海市松江区文化路上海市松江区第四中学西南侧约70米,121.283519,31.118173
SNACKMUSEUM零食博物馆,上海市松江区九新公路855号,121.324801,31.10584
河图公园,上海市松江区顺庆路500弄,121.32717,31.104711
吴家浜公园,上海市松江区勤富路503号,121.311295,31.11762
松江区新桥镇仙风园,上海市松江区仙凤路格林豪泰商务酒店(松江漕河泾G60云廊临港科技城九新公路店)西侧约220米,121.318836,31.096627
吴家浜天主堂,上海市松江区长施公路1115号,121.308222,31.112118
SNACKMUSEUM零食博物馆,上海市松江区九新公路855号,121.324801,31.10584
九科绿洲,上海市松江区九亭镇中心路与朱金路交汇口,121.333693,31.114129
九亭镇九亭公园,上海市松江区九亭镇中心路,121.333666,31.115138
凌霄花架,上海市松江区朱金路九科绿洲公园,121.336928,31.116322
河图公园,上海市松江区顺庆路500弄,121.32717,31.104711
松江区新桥镇仙风园,上海市松江区仙凤路格林豪泰商务酒店(松江漕河泾G60云廊临港科技城九新公路店)西侧约220米,121.318836,31.096627
九科绿洲,上海市松江区九亭镇中心路与朱金路交汇口,121.333693,31.114129
九亭镇九亭公园,上海市松江区九亭镇中心路,121.333666,31.115138
凌霄花架,上海市松江区朱金路九科绿洲公园,121.336928,31.116322
河图公园,上海市松江区顺庆路500弄,121.32717,31.104711
莘庄公园,上海市闵行区莘浜路421号,121.379276,31.107551
陆昌庙,上海市闵行区莘松路855弄9临正南方向160米,121.372514,31.101161
闵行区烈士陵园,上海市闵行区临春路388号,121.375294,31.097224
莘庄耶稣堂,上海市闵行区莘庄镇莘浜路551号,121.377142,31.107822
莘野梅园旧址,上海市闵行区莘西路莘庄公园,121.38118,31.108652
馨园,上海市闵行区莘沥路268号,121.378474,31.116851
法制宣传主题公园,上海市闵行区莘谭路与莘西路交叉路口往北约50米,121.378003,31.11412
中经堂-颈肩腰问题解决专家,上海市闵行区莘松路359号(近萃西路),121.37923,31.111138
莘庄公园史图,上海市闵行区莘浜路421号莘庄公园,121.380137,31.108508
荷花池,上海市闵行区莘浜路421号莘庄公园,121.381406,31.10817
莘庄公园,上海市闵行区莘浜路421号,121.379276,31.107551
莘城中央公园,上海市闵行区闵城路180号,121.39327,31.110747
亚马逊公园 萌宠乐园(仲盛世界商城店),上海市闵行区都市路5001号5楼,121.393088,31.113114
闵行区烈士陵园,上海市闵行区临春路388号,121.375294,31.097224
莘庄耶稣堂,上海市闵行区莘庄镇莘浜路551号,121.377142,31.107822
闵行区中心绿地,上海市闵行区莘建东路与莘朱路交叉路口往西北约110米,121.387114,31.115127
田园,上海市闵行区梅州路445号,121.401887,31.092918
莘野梅园旧址,上海市闵行区莘西路莘庄公园,121.38118,31.108652
陆昌庙,上海市闵行区莘松路855弄9临正南方向160米,121.372514,31.101161
母亲林,上海市闵行区沪闵路5369号,121.387083,31.11517
莘城中央公园,上海市闵行区闵城路180号,121.39327,31.110747
百步林,上海市闵行区都园路春申万科城-一期东南侧约80米,121.408736,31.105291
田园,上海市闵行区梅州路445号,121.401887,31.092918
洛克公园(梅州路店),上海市闵行区梅州路56号,121.411069,31.097486
亚马逊公园 萌宠乐园(仲盛世界商城店),上海市闵行区都市路5001号5楼,121.393088,31.113114
REAL PARK KINGSPORTS体育公园,上海市闵行区梅州路56号,121.41118,31.097197
集心路天主堂,上海市闵行区梅陇镇集心路9号,121.419862,31.114202
石林,上海市闵行区闵城路180号临莘城中央公园;珠城路155号临莘城中央公园,121.394544,31.110501
科普长廊,上海市闵行区闵城路180号临莘城中央公园;珠城路155号临莘城中央公园,121.393208,31.110276
长城亭,上海市闵行区闵城路180号莘城中央公园,121.392337,31.111464
梅馨陇韵,上海市闵行区梅陇镇曙东路50号,121.429554,31.098818
梅陇国防教育基地公园,上海市闵行区金都路1489号,121.431445,31.094903
君莲剪纸公园,上海市闵行区春都路与都庄路交叉口西南约220米,121.422229,31.087253
百步林,上海市闵行区都园路春申万科城-一期东南侧约80米,121.408736,31.105291
汉实艺术博物馆,梅陇镇虹梅南路双柏路1399号,121.435983,31.092649
洛克公园(梅州路店),上海市闵行区梅州路56号,121.411069,31.097486
梅陇耶稣堂,上海市闵行区景西路42号,121.432408,31.093215
集心路天主堂,上海市闵行区梅陇镇集心路9号,121.419862,31.114202
颛桥剪纸文化公园,上海市闵行区春都路与都庄路交叉路口往西南约200米,121.422032,31.087481
REAL PARK KINGSPORTS体育公园,上海市闵行区梅州路56号,121.41118,31.097197
梅陇国防教育基地公园,上海市闵行区金都路1489号,121.431445,31.094903
梅馨陇韵,上海市闵行区梅陇镇曙东路50号,121.429554,31.098818
省殿禅寺,上海市闵行区景洪路2688号,121.451986,31.091899
汉实艺术博物馆,梅陇镇虹梅南路双柏路1399号,121.435983,31.092649
梅陇耶稣堂,上海市闵行区景西路42号,121.432408,31.093215
梅陇镇法治口袋公园,上海市闵行区联曹路欣隆大厦西北侧约260米,121.46073,31.104723
上海半岛美术馆,上海市闵行区澄建路上海文华消毒药业科技有限公司,121.449344,31.098692
丁连村民公园,上海市闵行区丁连路与塘浦路交叉口东北400米,121.487448,31.101945
省殿禅寺,上海市闵行区景洪路2688号,121.451986,31.091899
梅陇镇法治口袋公园,上海市闵行区联曹路欣隆大厦西北侧约260米,121.46073,31.104723
天下商邦酱酒博物馆,上海市闵行区龙吴路4221号,121.464568,31.091772
上海半岛美术馆,上海市闵行区澄建路上海文华消毒药业科技有限公司,121.449344,31.098692
丁连村民公园,上海市闵行区丁连路与塘浦路交叉口东北400米,121.487448,31.101945
兴福寺,上海市闵行区浦锦街道浦瑞路2039弄60号,121.488261,31.110003
花好月园公园,上海市闵行区陈南路浦江镇第一幼儿园北侧约70米,121.503026,31.092206
陈行公园,上海市闵行区浦星公路与陈南路交叉口西南角,121.512946,31.095607
漕河泾DP-PARK,上海市闵行区浦星公路797号园区5号楼,121.511175,31.108372
浦康休闲公园,上海市闵行区浦康路华侨城院邸东北侧约240米,121.508145,31.110749
浦锦绿地,上海市闵行区北江燕路与浦锦路交叉口西北150米,121.504237,31.084893
丁连村民公园,上海市闵行区丁连路与塘浦路交叉口东北400米,121.487448,31.101945
花好月园公园,上海市闵行区陈南路浦江镇第一幼儿园北侧约70米,121.503026,31.092206
兴福寺,上海市闵行区浦锦街道浦瑞路2039弄60号,121.488261,31.110003
望湖亭,上海市闵行区陈南路1临陈行公园,121.51295,31.096853
叠水坡,上海市闵行区陈南路1临陈行公园,121.512707,31.097248
临水花廊,上海市闵行区陈南路1临陈行公园,121.512766,31.096555
漕河泾DP-PARK,上海市闵行区浦星公路797号园区5号楼,121.511175,31.108372
陈行公园,上海市闵行区浦星公路与陈南路交叉口西南角,121.512946,31.095607
望湖亭,上海市闵行区陈南路1临陈行公园,121.51295,31.096853
叠水坡,上海市闵行区陈南路1临陈行公园,121.512707,31.097248
梅园,上海市闵行区陈行公路与苏近路交叉路口往南约70米,121.536809,31.117641
临水花廊,上海市闵行区陈南路1临陈行公园,121.512766,31.096555
陈行公园-亲水平台,上海市闵行区陈南路1临陈行公园,121.512551,31.097056
梅园,上海市闵行区陈行公路与苏近路交叉路口往南约70米,121.536809,31.117641
库伯美术馆,上海市浦东新区沈梅路123弄星月智汇湾57号楼,121.582051,31.095248
奇石园,康梧路与年家浜路交叉路口南侧,121.564858,31.11919
禅光竹房(浦江),上海市闵行区浦江镇沈杜公路1589号革新村黄家宅87号,121.561064,31.086136
洗心堂基督教会,上海市浦东新区康梧路1505号,121.565188,31.11999
赵巷体育公园,上海市青浦区嘉松中路与业文路交叉路口往东北约180米,121.234132,31.129896
泗滨绿地,上海市松江区泗凤公路与城松路交叉路口南侧(泗泾第三小学东南侧约70米),121.253583,31.11606
液态熊LiquidBear Light露营地,上海市青浦区大凉山路上海东方佘山索菲特大酒店,121.230438,31.121084
中国玉雕博物馆,上海市松江区泗陈公路3388弄,121.232264,31.120931
泗泾公园,上海市松江区泗泾镇江川路188号,121.281681,31.119755
安方塔,上海市松江区泗泾镇飞龙堂(纹身店)开江中路414号,121.282006,31.116768
基督教泗泾福音堂,上海市松江区鼓浪路金色童年艺术幼儿园(鼓浪路)东侧约90米,121.28613,31.121979
福田净寺,上海市松江区泗泾镇文化路25号(近开江中路),121.283873,31.118184
史量才故居,上海市松江区开江东路219号,121.284953,31.118294
明华栖月,上海市松江区开江中路中京苑西北侧约60米,121.282121,31.116844
古镇泗泾,上海市松江区开江中路与开江路交叉口东50米,121.281447,31.116784
泗泾老街,上海市松江区开江中路303号,121.283817,31.117319
马相伯故居,上海市松江区泗泾镇开江中路214号,121.282417,31.117433
松风听音(闻阊文化推广中心),上海市松江区泗泾镇开江中路339号,121.283247,31.117184
基督教泗泾福音堂,上海市松江区鼓浪路金色童年艺术幼儿园(鼓浪路)东侧约90米,121.28613,31.121979
泗泾公园,上海市松江区泗泾镇江川路188号,121.281681,31.119755
安方塔,上海市松江区泗泾镇飞龙堂(纹身店)开江中路414号,121.282006,31.116768
史量才故居,上海市松江区开江东路219号,121.284953,31.118294
福田净寺,上海市松江区泗泾镇文化路25号(近开江中路),121.283873,31.118184
明华栖月,上海市松江区开江中路中京苑西北侧约60米,121.282121,31.116844
古镇泗泾,上海市松江区开江中路与开江路交叉口东50米,121.281447,31.116784
泗泾老街,上海市松江区开江中路303号,121.283817,31.117319
马相伯故居,上海市松江区泗泾镇开江中路214号,121.282417,31.117433
松风听音(闻阊文化推广中心),上海市松江区泗泾镇开江中路339号,121.283247,31.117184
横塘天主堂,上海市松江区泗泾镇沪松公路2188号,121.299973,31.129832
吴家浜公园,上海市松江区勤富路503号,121.311295,31.11762
基督教泗泾福音堂,上海市松江区鼓浪路金色童年艺术幼儿园(鼓浪路)东侧约90米,121.28613,31.121979
吴家浜天主堂,上海市松江区长施公路1115号,121.308222,31.112118
九科绿洲,上海市松江区九亭镇中心路与朱金路交汇口,121.333693,31.114129
九亭镇九亭公园,上海市松江区九亭镇中心路,121.333666,31.115138
SNACKMUSEUM零食博物馆,上海市松江区九新公路855号,121.324801,31.10584
凌霄花架,上海市松江区朱金路九科绿洲公园,121.336928,31.116322
吴家浜公园,上海市松江区勤富路503号,121.311295,31.11762
河图公园,上海市松江区顺庆路500弄,121.32717,31.104711
健康主题公园,淀浦河路399弄1-201号附近,121.338861,31.133793
九科绿洲,上海市松江区九亭镇中心路与朱金路交汇口,121.333693,31.114129
资庆寺,上海市松江区姚北路33号,121.357781,31.118523
九亭镇九亭公园,上海市松江区九亭镇中心路,121.333666,31.115138
凌霄花架,上海市松江区朱金路九科绿洲公园,121.336928,31.116322
福禄园,上海市闵行区黎安路1615弄58号,121.356353,31.124356
青春生态办公园,上海市闵行区黎安路1615弄58号,121.355326,31.125211
健康主题公园,淀浦河路399弄1-201号附近,121.338861,31.133793
快乐体验服务区,上海市闵行区黎安路与中春路交叉路口往东北约50米,121.36455,31.130318
青春生态办公园,上海市闵行区黎安路1615弄58号,121.355326,31.125211
资庆寺,上海市松江区姚北路33号,121.357781,31.118523
莘庄耶稣堂,上海市闵行区莘庄镇莘浜路551号,121.377142,31.107822
馨园,上海市闵行区莘沥路268号,121.378474,31.116851
海上塔,上海市闵行区闵松公路兴城商务广场南侧约90米,121.379357,31.123935
福禄园,上海市闵行区黎安路1615弄58号,121.356353,31.124356
法制宣传主题公园,上海市闵行区莘谭路与莘西路交叉路口往北约50米,121.378003,31.11412
快乐体验服务区,上海市闵行区黎安路与中春路交叉路口往东北约50米,121.36455,31.130318
中经堂-颈肩腰问题解决专家,上海市闵行区莘松路359号(近萃西路),121.37923,31.111138
莘庄公园史图,上海市闵行区莘浜路421号莘庄公园,121.380137,31.108508
莘庄梅园,上海市闵行区虹莘路688号,121.399497,31.121121
濡清亭,上海市闵行区庙泾路水清一村社区,121.385502,31.120281
莘庄公园,上海市闵行区莘浜路421号,121.379276,31.107551
莘城中央公园,上海市闵行区闵城路180号,121.39327,31.110747
黎安公园,秀文路118号,121.386395,31.135506
闵行区中心绿地,上海市闵行区莘建东路与莘朱路交叉路口往西北约110米,121.387114,31.115127
亚马逊公园 萌宠乐园(仲盛世界商城店),上海市闵行区都市路5001号5楼,121.393088,31.113114
母亲林,上海市闵行区沪闵路5369号,121.387083,31.11517
海上塔,上海市闵行区闵松公路兴城商务广场南侧约90米,121.379357,31.123935
馨园,上海市闵行区莘沥路268号,121.378474,31.116851
得翠园,上海市闵行区莘朱路888号,121.410605,31.122807
运康体育公园,上海市闵行区梅陇镇伟业路855号,121.406849,31.121507
莘庄梅园,上海市闵行区虹莘路688号,121.399497,31.121121
莘城中央公园,上海市闵行区闵城路180号,121.39327,31.110747
嘉和公园,梅陇西路668号,121.409074,31.132164
亚马逊公园 萌宠乐园(仲盛世界商城店),上海市闵行区都市路5001号5楼,121.393088,31.113114
集心公园,"上海市闵行区韩泗泾港以北,莘朱路以南,春潮路以东东南方向170米",121.420465,31.121326
梅陇镇廉政文化主题公园,上海市闵行区上中西路1250号,121.415751,31.136654
百步林,上海市闵行区都园路春申万科城-一期东南侧约80米,121.408736,31.105291
叠翠公园,上海市闵行区梅陇镇莘朱路1012号,121.415756,31.123307
得翠园,上海市闵行区莘朱路888号,121.410605,31.122807
集心公园,"上海市闵行区韩泗泾港以北,莘朱路以南,春潮路以东东南方向170米",121.420465,31.121326
梅陇公园,上海市闵行区上中西路788号,121.422419,31.137725
梅陇镇廉政文化主题公园,上海市闵行区上中西路1250号,121.415751,31.136654
梅陇公共卫生应急科普体验馆,上海市闵行区梅富路春馨苑东北侧约30米,121.421353,31.121145
运康体育公园,上海市闵行区梅陇镇伟业路855号,121.406849,31.121507
集心路天主堂,上海市闵行区梅陇镇集心路9号,121.419862,31.114202
叠翠公园,上海市闵行区梅陇镇莘朱路1012号,121.415756,31.123307
徐汇区华泾公园,上海市徐汇区华泾路190号近龙吴路,121.458906,31.127836
宁国禅寺,上海市徐汇区华泾镇长华苑邻里汇华泾路858号,121.456163,31.126763
邹容之墓,上海市徐汇区华泾路1018号临,121.451938,31.124893
黄道婆纪念馆,上海市徐汇区徐梅路700号,121.454771,31.13051
黄道婆墓,上海市徐汇区徐梅路700号,121.455769,31.130588
刘三故居,上海市徐汇区华泾路868号,121.457159,31.126132
邹容纪念馆,上海市徐汇区华泾路868号,121.457189,31.126095
五观堂,上海市徐汇区长华路徐汇区华泾公园西侧约40米,121.455855,31.12708
天主教上海教区紫阳玫瑰圣母堂,上海市徐汇区龙吴路2573号,121.462156,31.120916
徐汇区华泾公园,上海市徐汇区华泾路190号近龙吴路,121.458906,31.127836
天主教上海教区紫阳玫瑰圣母堂,上海市徐汇区龙吴路2573号,121.462156,31.120916
宁国禅寺,上海市徐汇区华泾镇长华苑邻里汇华泾路858号,121.456163,31.126763
黄道婆纪念馆,上海市徐汇区徐梅路700号,121.454771,31.13051
黄道婆墓,上海市徐汇区徐梅路700号,121.455769,31.130588
邹容之墓,上海市徐汇区华泾路1018号临,121.451938,31.124893
邹容纪念馆,上海市徐汇区华泾路868号,121.457189,31.126095
淀浦河绿地,上海市徐汇区龙吴路上海市徐汇中学(南校区)北侧约110米,121.461364,31.135894
刘三故居,上海市徐汇区华泾路868号,121.457159,31.126132
五观堂,上海市徐汇区长华路徐汇区华泾公园西侧约40米,121.455855,31.12708
观音堂,上海市浦东新区浦江镇罗汉松403号,121.488082,31.132194
兴福寺,上海市闵行区浦锦街道浦瑞路2039弄60号,121.488261,31.110003
三一堂,上海市浦东新区浦星公路290号,121.501182,31.132233
江湖宅,上海市浦东新区红临路上海师范大学附属中学(三林校区)南侧约200米,121.500207,31.126932
漕河泾DP-PARK,上海市闵行区浦星公路797号园区5号楼,121.511175,31.108372
三林烈士陵园,上海市浦东新区三鲁公路6579号,121.508422,31.137209
浦康休闲公园,上海市闵行区浦康路华侨城院邸东北侧约240米,121.508145,31.110749
三一堂,上海市浦东新区浦星公路290号,121.501182,31.132233
江湖宅,上海市浦东新区红临路上海师范大学附属中学(三林校区)南侧约200米,121.500207,31.126932
西昌寺,上海市浦东新区三林镇西林街131弄29号,121.501276,31.139216
上海新四军纪念展馆,上海市浦东新区懿德路287号,121.521916,31.122977
上海新四军纪念展馆,上海市浦东新区懿德路287号,121.521916,31.122977
梅园,上海市闵行区陈行公路与苏近路交叉路口往南约70米,121.536809,31.117641
天花庵村陈家宅,上海市浦东新区林礼路上海喜地农副产品市场西南侧约290米,121.529579,31.128451
博物馆仓库,上海市浦东新区浦三路4666号,121.555833,31.128587
奇石园,康梧路与年家浜路交叉路口南侧,121.564858,31.11919
洗心堂基督教会,上海市浦东新区康梧路1505号,121.565188,31.11999
生物梅里埃上海园区,上海市浦东新区浦三路4633号,121.557192,31.129064
康桥派出所上海博物馆,上海市浦东新区浦三路博物馆仓库,121.556758,31.128801
梅园,上海市闵行区陈行公路与苏近路交叉路口往南约70米,121.536809,31.117641
天花庵村陈家宅,上海市浦东新区林礼路上海喜地农副产品市场西南侧约290米,121.529579,31.128451
奇石园,康梧路与年家浜路交叉路口南侧,121.564858,31.11919
洗心堂基督教会,上海市浦东新区康梧路1505号,121.565188,31.11999
南汇烈士陵园,上海市浦东新区周浦镇康沈路1646弄58号,121.580531,31.122724
博物馆仓库,上海市浦东新区浦三路4666号,121.555833,31.128587
傅雷旧居,上海市浦东新区澧溪路48号,121.586001,31.124359
生物梅里埃上海园区,上海市浦东新区浦三路4633号,121.557192,31.129064
浙宁会馆,上海市浦东新区周浦镇川周公路4482弄1-34号,121.584072,31.125778
康桥派出所上海博物馆,上海市浦东新区浦三路博物馆仓库,121.556758,31.128801
863大健康品牌科技馆,上海市浦东新区年家浜路339弄东方晶华园,121.58358,31.120078
书香门第国学-周浦馆,上海市浦东新区川周公路4354号2楼(自动扶梯口),121.586501,31.126165
赵巷体育公园,上海市青浦区嘉松中路与业文路交叉路口往东北约180米,121.234132,31.129896
刘夏古文化遗址,上海市青浦区赵巷镇方夏村淀浦河与洞泾港交汇处(水泥桥东侧),121.267137,31.140878
小东圩天主堂,上海市青浦区赵巷镇方夏村方东315号,121.24906,31.154638
刘夏古文化遗址,上海市青浦区赵巷镇方夏村淀浦河与洞泾港交汇处(水泥桥东侧),121.267137,31.140878
横塘天主堂,上海市松江区泗泾镇沪松公路2188号,121.299973,31.129832
刘夏古文化遗址,上海市青浦区赵巷镇方夏村淀浦河与洞泾港交汇处(水泥桥东侧),121.267137,31.140878
横塘天主堂,上海市松江区泗泾镇沪松公路2188号,121.299973,31.129832
九里亭公园,上海市松江区沪亭北路上海市松江区九亭第四小学东侧约80米,121.322687,31.151595
基督之家,上海市松江区亭知路727号,121.313014,31.151999
九里亭公园,上海市松江区沪亭北路上海市松江区九亭第四小学东侧约80米,121.322687,31.151595
九亭地铁站店(u天地店),"上海市松江区沪松公路1501号(地铁9号线九亭站3号口出,商品号JT-116)",121.330325,31.145958
基督之家,上海市松江区亭知路727号,121.313014,31.151999
健康主题公园,淀浦河路399弄1-201号附近,121.338861,31.133793
滑板公园,上海市闵行区新龙路1285号,121.344402,31.158462
中国民族乐器博物馆,上海市闵行区七宝镇联明路400号,121.352197,31.150408
悦心园,上海市闵行区七宝镇华茂路悦心园(奔驰别墅旁),121.3558,31.149947
健康主题公园,淀浦河路399弄1-201号附近,121.338861,31.133793
九亭地铁站店(u天地店),"上海市松江区沪松公路1501号(地铁9号线九亭站3号口出,商品号JT-116)",121.330325,31.145958
七宝古镇,上海市闵行区青年路与横沥路交叉口,121.361199,31.158938
七宝耶稣堂,上海市闵行区七莘路1664号,121.370336,31.140263
闵行体育公园,上海市闵行区新镇路456号,121.377542,31.149117
闵行体育公园-五彩滑道,上海市闵行区新镇路245号翡翠山山顶,121.377159,31.151319
翡翠山,上海市闵行区外环高速(闵行体育公园),121.376316,31.151465
锦绣湖,上海市闵行区新镇路闵行体育公园,121.373791,31.150452
七宝天主堂,上海市闵行区七宝南街50号,121.361999,31.156255
斗姆阁,上海市闵行区七莘路2678号上海交通大学七宝校区内,121.363788,31.155482
老行当,上海市闵行区南东塘滩7号,121.36143,31.158212
闵行体育公园-环城公园,上海市闵行区顾戴路闵行体育公园,121.382328,31.143176
母亲林,上海市闵行区新镇路456号闵行体育公园内,121.382571,31.142743
黎安公园,秀文路118号,121.386395,31.135506
闵行体育公园,上海市闵行区新镇路456号,121.377542,31.149117
双拥公园,上海市闵行区龙茗路与平阳路交叉口,121.393883,31.140143
闵行体育公园-环城公园,上海市闵行区顾戴路闵行体育公园,121.382328,31.143176
闵行体育公园-五彩滑道,上海市闵行区新镇路245号翡翠山山顶,121.377159,31.151319
黎安公园儿童乐园,上海市闵行区莘庄镇秀文路118号,121.387152,31.136593
黎安公园-观景木亭,上海市闵行区秀文路118号黎安公园,121.386327,31.137536
翡翠山,上海市闵行区外环高速(闵行体育公园),121.376316,31.151465
锦绣湖,上海市闵行区新镇路闵行体育公园,121.373791,31.150452
锦江乐园,上海市闵行区虹梅路201号,121.415479,31.145542
上海航宇科普中心,上海市闵行区沪闵路7900号,121.412444,31.141859
古美人口文化公园(平南路),上海市闵行区平南路与万源路交叉路口往东约200米,121.401493,31.157568
梅陇公园,上海市闵行区上中西路788号,121.422419,31.137725
嘉和公园,梅陇西路668号,121.409074,31.132164
双拥公园,上海市闵行区龙茗路与平阳路交叉口,121.393883,31.140143
梅陇休闲苑,上海市闵行区镇西路550号,121.415364,31.141916
嘉川路小游园,上海市徐汇区凌云路283号,121.424986,31.140628
沙洲典藏博物馆,上海市闵行区梅陇镇沪闵路7966号,121.413847,31.143199
锦江乐园旅游客运部,上海市闵行区古美路282号,121.413046,31.1448
锦江乐园,上海市闵行区虹梅路201号,121.415479,31.145542
健康主题公园,上海市徐汇区嘉川路小游园,121.426239,31.141304
嘉川路小游园,上海市徐汇区凌云路283号,121.424986,31.140628
梅陇公园,上海市闵行区上中西路788号,121.422419,31.137725
上海航宇科普中心,上海市闵行区沪闵路7900号,121.412444,31.141859
梅陇休闲苑,上海市闵行区镇西路550号,121.415364,31.141916
梅陇镇廉政文化主题公园,上海市闵行区上中西路1250号,121.415751,31.136654
沙洲典藏博物馆,上海市闵行区梅陇镇沪闵路7966号,121.413847,31.143199
锦江乐园旅游客运部,上海市闵行区古美路282号,121.413046,31.1448
双层木马,上海市闵行区虹梅路201号锦江乐园内,121.414954,31.145593
上海植物园,上海市徐汇区龙吴路1111号,121.45099,31.153891
宁国禅寺,上海市徐汇区华泾镇长华苑邻里汇华泾路858号,121.456163,31.126763
徐汇区华泾公园,上海市徐汇区华泾路190号近龙吴路,121.458906,31.127836
桂花园,上海市徐汇区龙吴路1111号(近百色路)上海植物园内,121.447518,31.149968
槭树园,上海市徐汇区龙吴路997号上海植物园,121.445298,31.149632
黄道婆纪念馆,上海市徐汇区徐梅路700号,121.454771,31.13051
银杏林,上海市徐汇区龙吴路1111号(近百色路)上海植物园内,121.446068,31.153207
漕河泾聚鑫园,上海市徐汇区平福路188号,121.45543,31.14383
热带植物馆,上海市徐汇区龙吴路1111号(近百色路)上海植物园内,121.453734,31.15362
上海博物馆文物保护科技中心,上海市徐汇区龙吴路1118号,121.457689,31.151453
前滩休闲公园,前滩大道与园照路交叉口西北100米,121.474496,31.158208
上海植物园,上海市徐汇区龙吴路1111号,121.45099,31.153891
前滩体育公园,上海市浦东新区前滩大道735号,121.470393,31.153059
宁国禅寺,上海市徐汇区华泾镇长华苑邻里汇华泾路858号,121.456163,31.126763
徐汇区华泾公园,上海市徐汇区华泾路190号近龙吴路,121.458906,31.127836
法华学问寺,上海市浦东新区华夏西路399号中环上中路隧道(耀龙路出口),121.474704,31.152408
彩虹桥,上海市徐汇区龙吴路1111号(近百色路)上海植物园内,121.455399,31.154309
漕河泾聚鑫园,上海市徐汇区平福路188号,121.45543,31.14383
黄道婆纪念馆,上海市徐汇区徐梅路700号,121.454771,31.13051
热带植物馆,上海市徐汇区龙吴路1111号(近百色路)上海植物园内,121.453734,31.15362
梅园,上海市浦东新区三航路与新梅路交叉路口往东北约130米,121.487647,31.140099
基督教涌恩堂,上海市浦东新区平家桥路前滩华唐名邸西南侧约30米,121.483791,31.154938
法华学问寺,上海市浦东新区华夏西路399号中环上中路隧道(耀龙路出口),121.474704,31.152408
观音堂,上海市浦东新区浦江镇罗汉松403号,121.488082,31.132194
上海前滩铁狮门,上海市浦东新区钱家滩路晶耀名邸2期东北侧约60米,121.483271,31.158304
前滩体育公园,上海市浦东新区前滩大道735号,121.470393,31.153059
西昌寺,上海市浦东新区三林镇西林街131弄29号,121.501276,31.139216
世继未来体育公园,上海市浦东新区长清路1200号(森宏购物广场地面停车场旁),121.49585,31.154951
三一堂,上海市浦东新区浦星公路290号,121.501182,31.132233
松庐,上海市浦东新区中林街上海市浦东新区三林镇中心小学(三林路)东南侧约60米,121.506488,31.143107
三林塘老街,三林路691号篆远劳务,121.51272,31.144744
松庐,上海市浦东新区中林街上海市浦东新区三林镇中心小学(三林路)东南侧约60米,121.506488,31.143107
三林塘,上海市浦东新区三林塘(三林新村北50米),121.512604,31.144845
三林烈士陵园,上海市浦东新区三鲁公路6579号,121.508422,31.137209
汤氏民宅,上海市浦东新区东林街115号,121.510156,31.144393
西昌寺,上海市浦东新区三林镇西林街131弄29号,121.501276,31.139216
照胆台,上海市浦东新区东林街151号,121.51091,31.144471
崇福道院,上海市浦东新区三林镇杨南路555号,121.504345,31.156357
朱仙镇木版年画博物馆(上海馆),上海市浦东新区三林路与灵岩南路交叉口南侧约180米,121.507193,31.143404
三一堂,上海市浦东新区浦星公路290号,121.501182,31.132233
三林塘老街,三林路691号篆远劳务,121.51272,31.144744
穿越,上海市浦东新区永泰路659号,121.524218,31.145908
三林塘,上海市浦东新区三林塘(三林新村北50米),121.512604,31.144845
东明公园,上海市浦东新区三林路,121.525648,31.152047
三林烈士陵园,上海市浦东新区三鲁公路6579号,121.508422,31.137209
汤氏民宅,上海市浦东新区东林街115号,121.510156,31.144393
照胆台,上海市浦东新区东林街151号,121.51091,31.144471
松庐,上海市浦东新区中林街上海市浦东新区三林镇中心小学(三林路)东南侧约60米,121.506488,31.143107
三林名人廊,上海市浦东新区东林街217号,121.512367,31.144778
中藏宫,上海市浦东新区三林路中房樱桃苑南侧,121.531077,31.153154
浦发公园,上海市浦东新区永泰路浦三路口(浦三路地铁站2号口步行340米),121.547238,31.154815
博物馆仓库,上海市浦东新区浦三路4666号,121.555833,31.128587
康桥生态园-秀南绿地,上海市浦东新区秀康路197号,121.55951,31.145475
生物梅里埃上海园区,上海市浦东新区浦三路4633号,121.557192,31.129064
康桥派出所上海博物馆,上海市浦东新区浦三路博物馆仓库,121.556758,31.128801
中藏宫,上海市浦东新区三林路中房樱桃苑南侧,121.531077,31.153154
康桥生态园-秀南绿地,上海市浦东新区秀康路197号,121.55951,31.145475
一王庙道观,上海市浦东新区军民路2900号临,121.579996,31.144295
博物馆仓库,上海市浦东新区浦三路4666号,121.555833,31.128587
生物梅里埃上海园区,上海市浦东新区浦三路4633号,121.557192,31.129064
中国BOSS名人俱乐部,上海市浦东新区秀康路100号,121.579939,31.149656
康桥派出所上海博物馆,上海市浦东新区浦三路博物馆仓库,121.556758,31.128801
小东圩天主堂,上海市青浦区赵巷镇方夏村方东315号,121.24906,31.154638
小鹰儿童博物馆,上海市青浦区嘉松中路6200号,121.232422,31.156202
主恩堂,上海市青浦区育才路569号,121.275796,31.172819
小东圩天主堂,上海市青浦区赵巷镇方夏村方东315号,121.24906,31.154638
健康主题公园,上海市青浦区振泾路南50米,121.285298,31.173945
主恩堂,上海市青浦区育才路569号,121.275796,31.172819
蔡家湾天主堂,青浦区徐泾镇高经村185号,121.310644,31.163611
九里亭公园,上海市松江区沪亭北路上海市松江区九亭第四小学东侧约80米,121.322687,31.151595
基督之家,上海市松江区亭知路727号,121.313014,31.151999
太阳水族,上海市闵行区涞亭北路705弄九星红木广场东门1号,121.32661,31.165256
华翔绿地,上海市闵行区申昆路291号,121.334892,31.178443
太阳水族,上海市闵行区涞亭北路705弄九星红木广场东门1号,121.32661,31.165256
滑板公园,上海市闵行区新龙路1285号,121.344402,31.158462
九里亭公园,上海市松江区沪亭北路上海市松江区九亭第四小学东侧约80米,121.322687,31.151595
蔡家湾天主堂,青浦区徐泾镇高经村185号,121.310644,31.163611
天鹅湖,上海市闵行区申昆路291号华翔绿地公园,121.335448,31.177476
基督之家,上海市松江区亭知路727号,121.313014,31.151999
九亭地铁站店(u天地店),"上海市松江区沪松公路1501号(地铁9号线九亭站3号口出,商品号JT-116)",121.330325,31.145958
小涞桥天主堂,上海市闵行区沪青平公路1235弄256号,121.326543,31.175695
彩虹桥,上海市闵行区申昆路291号华翔绿地公园(东南角),121.336333,31.177414
七宝古镇,上海市闵行区青年路与横沥路交叉口,121.361199,31.158938
滑板公园,上海市闵行区新龙路1285号,121.344402,31.158462
闵行博物馆,上海市闵行区新镇路1538号,121.365556,31.166596
闵行文化公园,上海市闵行区吴中路2019号,121.362762,31.173791
七宝老街牌楼,上海市闵行区青年路与横沥路交汇路口七宝老街内,121.360032,31.160005
张充仁纪念馆,上海市闵行区北西街75号临,121.360365,31.158236
宝龙美术馆,上海市闵行区漕宝路3055弄,121.364363,31.164081
万佛塔,上海市闵行区新镇路1205号七宝教寺内,121.364668,31.160259
老行当,上海市闵行区南东塘滩7号,121.36143,31.158212
七宝天主堂,上海市闵行区七宝南街50号,121.361999,31.156255
闵行博物馆,上海市闵行区新镇路1538号,121.365556,31.166596
闵行体育公园,上海市闵行区新镇路456号,121.377542,31.149117
闵行文化公园-碉堡遗址,上海市闵行区吴中路2019号,121.367535,31.163738
宝龙美术馆,上海市闵行区漕宝路3055弄,121.364363,31.164081
七宝古镇,上海市闵行区青年路与横沥路交叉口,121.361199,31.158938
闵行文化公园,上海市闵行区吴中路2019号,121.362762,31.173791
七宝老街牌楼,上海市闵行区青年路与横沥路交汇路口七宝老街内,121.360032,31.160005
万佛塔,上海市闵行区新镇路1205号七宝教寺内,121.364668,31.160259
七宝天主堂,上海市闵行区七宝南街50号,121.361999,31.156255
闵行文化公园-儿童乐园,上海市闵行区闵行文化公园内,121.369518,31.165134
闵行体育公园,上海市闵行区新镇路456号,121.377542,31.149117
古美人口文化公园(平南路),上海市闵行区平南路与万源路交叉路口往东约200米,121.401493,31.157568
闵行体育公园-五彩滑道,上海市闵行区新镇路245号翡翠山山顶,121.377159,31.151319
金虹桥公园,上海市闵行区合川路2899号,121.389252,31.175886
翡翠山,上海市闵行区外环高速(闵行体育公园),121.376316,31.151465
闵行文化公园-碉堡遗址,上海市闵行区吴中路2019号,121.367535,31.163738
锦绣湖,上海市闵行区新镇路闵行体育公园,121.373791,31.150452
生命之船,上海市闵行区新镇路456号闵行体育公园内,121.379865,31.148515
百花园,上海市闵行区吴中路2019号闵行文化公园,121.370568,31.167615
上海古美火麒麟三人篮球公园,上海市闵行区万源路599号,121.400868,31.149538
桂林公园,上海市徐汇区桂林路128号近地铁12号线桂林公园站,121.424372,31.171505
世纪林,上海市徐汇区东兰路与中环路交叉路口往北约150米,121.411072,31.165724
上海无线电博物馆,上海市徐汇区田林路200号A5(近宜州路),121.413468,31.175886
四教厅,上海市徐汇区桂林路128号桂林公园内,121.424017,31.171468
古美人口文化公园(平南路),上海市闵行区平南路与万源路交叉路口往东约200米,121.401493,31.157568
牡丹园,上海市徐汇区桂平路218号,121.417566,31.160311
森林公园南园,上海市徐汇区桂林公园(桂林路西100米),121.42436,31.170842
上海古美火麒麟三人篮球公园,上海市闵行区万源路599号,121.400868,31.149538
八仙台,上海市徐汇区桂林路128号桂林公园内,121.424229,31.171114
颐亭,上海市徐汇区桂林路128号桂林公园内,121.423586,31.171745
康健园,上海市徐汇区桂林路91号,121.428325,31.17037
康健社区体育公园,康健新村街道桂林西街168号康健社区体育场内(近浦北路),121.424282,31.158764
桂林公园,上海市徐汇区桂林路128号近地铁12号线桂林公园站,121.424372,31.171505
CBD中央公园,上海市徐汇区万科中心地块内临近上海南站,121.438347,31.163646
牡丹园,上海市徐汇区桂平路218号,121.417566,31.160311
中城绿地公园,上海市徐汇区上海南站东柳州路与南宁路西北交叉处,121.438105,31.16229
森林公园南园,上海市徐汇区桂林公园(桂林路西100米),121.42436,31.170842
中核浦原科技园,上海市徐汇区桂林路396弄,121.423939,31.173994
康健园-游乐场,上海市徐汇区桂林路91号康健园内,121.428456,31.170409
中国慰安妇历史博物馆,上海市徐汇区桂林路100号上海师范大学文苑楼2楼,121.427608,31.168762
上海植物园,上海市徐汇区龙吴路1111号,121.45099,31.153891
CBD中央公园,上海市徐汇区万科中心地块内临近上海南站,121.438347,31.163646
银杏林,上海市徐汇区龙吴路1111号(近百色路)上海植物园内,121.446068,31.153207
康健园,上海市徐汇区桂林路91号,121.428325,31.17037
热带植物馆,上海市徐汇区龙吴路1111号(近百色路)上海植物园内,121.453734,31.15362
中城绿地公园,上海市徐汇区上海南站东柳州路与南宁路西北交叉处,121.438105,31.16229
上海博物馆文物保护科技中心,上海市徐汇区龙吴路1118号,121.457689,31.151453
盆景园,上海市徐汇区龙吴路1111号(近百色路)上海植物园内,121.451434,31.153914
上海植物园-展览温室,上海市徐汇区龙吴路1111号上海植物园,121.453742,31.153632
黄母祠,上海市徐汇区龙吴路1111号(近百色路)上海植物园内,121.454779,31.157633
前滩休闲公园,前滩大道与园照路交叉口西北100米,121.474496,31.158208
上海植物园,上海市徐汇区龙吴路1111号,121.45099,31.153891
前滩友城公园,泳耀路与耀体路交叉口西北,121.478472,31.163146
徐汇跑道公园,上海市徐汇区龙兰路与云锦路交叉路口往北约220米,121.464171,31.174602
前滩体育公园,上海市浦东新区前滩大道735号,121.470393,31.153059
法华学问寺,上海市浦东新区华夏西路399号中环上中路隧道(耀龙路出口),121.474704,31.152408
基督教涌恩堂,上海市浦东新区平家桥路前滩华唐名邸西南侧约30米,121.483791,31.154938
滨江步道,上海市浦东新区泳耀路与耀体路交叉口西北前滩友城公园内,121.477484,31.162467
上海博物馆文物保护科技中心,上海市徐汇区龙吴路1118号,121.457689,31.151453
西岸美术馆,上海市徐汇区龙腾大道2600号,121.470201,31.173712
前滩休闲公园,前滩大道与园照路交叉口西北100米,121.474496,31.158208
前滩友城公园,泳耀路与耀体路交叉口西北,121.478472,31.163146
上海前滩铁狮门,上海市浦东新区钱家滩路晶耀名邸2期东北侧约60米,121.483271,31.158304
滨江步道,上海市浦东新区泳耀路与耀体路交叉口西北前滩友城公园内,121.477484,31.162467
基督教涌恩堂,上海市浦东新区平家桥路前滩华唐名邸西南侧约30米,121.483791,31.154938
中央公园,上海市浦东新区东育路500号,121.488221,31.159526
济阳公园,上海市浦东新区耀华路600号(济阳路口),121.48636,31.174943
长青园,上海市浦东新区杨新路281弄32号,121.497087,31.167165
法华学问寺,上海市浦东新区华夏西路399号中环上中路隧道(耀龙路出口),121.474704,31.152408
崇福道院,上海市浦东新区三林镇杨南路555号,121.504345,31.156357
上南公园,上海市浦东新区德州路198号,121.504888,31.172561
保镖,上海市浦东新区上南路金苹果花园东北侧约60米,121.507828,31.161959
崇福道院,上海市浦东新区三林镇杨南路555号,121.504345,31.156357
三林塘,上海市浦东新区三林塘(三林新村北50米),121.512604,31.144845
长青园,上海市浦东新区杨新路281弄32号,121.497087,31.167165
蔓趣公园,上海市浦东新区洪山路195号,121.507032,31.179963
中汾泾城市绿地,上海市浦东新区板泉路与云台路交叉路口往北约110米,121.515104,31.16863
世继未来体育公园,上海市浦东新区长清路1200号(森宏购物广场地面停车场旁),121.49585,31.154951
恒大纱厂旧址,上海市浦东新区灵岩南路181号,121.501444,31.164902
杨思天主堂,上海市浦东新区云台路731号,121.514505,31.169776
三林庙,上海市浦东新区三民村三林庙队老叶家宅138号,121.52835,31.160275
三林世博主题公园,上海市浦东新区大道站路与东书房路交叉口东北角,121.54468,31.168083
东明公园,上海市浦东新区三林路,121.525648,31.152047
十泽道院,上海市浦东新区浦三路1238号,121.530002,31.178078
甘露庵,上海市浦东新区新浦路与浦三路交叉口西北300米,121.531061,31.176595
中汾泾城市绿地,上海市浦东新区板泉路与云台路交叉路口往北约110米,121.515104,31.16863
上海光明酸奶科技展示馆,上海市浦东新区成山路777号,121.519236,31.178811
杨思天主堂,上海市浦东新区云台路731号,121.514505,31.169776
穿越,上海市浦东新区永泰路659号,121.524218,31.145908
哧寿亭,上海市浦东新区尚博路金橘新苑-南区东北侧,121.531554,31.156374
浦发公园,上海市浦东新区永泰路浦三路口(浦三路地铁站2号口步行340米),121.547238,31.154815
三林世博主题公园,上海市浦东新区大道站路与东书房路交叉口东北角,121.54468,31.168083
三林庙,上海市浦东新区三民村三林庙队老叶家宅138号,121.52835,31.160275
北蔡消防主题公园,上海市浦东新区联勤广场(杨莲路南),121.557552,31.174565
三林世博廉政文化园,上海市浦东新区大道站路三林世博家园-C区东南侧约40米,121.542128,31.165721
南新小区-休闲绿地,上海市浦东新区下南路309弄70号,121.548455,31.177018
致君六艺馆--三林分馆,上海市浦东新区东书房路432号,121.542087,31.169993
中藏宫,上海市浦东新区三林路中房樱桃苑南侧,121.531077,31.153154
哧寿亭,上海市浦东新区尚博路金橘新苑-南区东北侧,121.531554,31.156374
相公殿,上海市浦东新区沪南路与华夏西路交叉路口往东北约60米,121.570139,31.16984
北蔡消防主题公园,上海市浦东新区联勤广场(杨莲路南),121.557552,31.174565
康桥生态园-秀南绿地,上海市浦东新区秀康路197号,121.55951,31.145475
鹏海广场,上海市浦东新区陈春路120号110房,121.562965,31.178211
中国BOSS名人俱乐部,上海市浦东新区秀康路100号,121.579939,31.149656
银杏园(尚茂公园),上海市青浦区乐高路与尚茂路交叉路口往东北约100米,121.247009,31.184672
蟠龙庵,上海市青浦区蟠鼎路123弄8号上海蟠龙天地F1,121.282556,31.19296
健康主题公园,上海市青浦区振泾路南50米,121.285298,31.173945
银杏园(尚茂公园),上海市青浦区乐高路与尚茂路交叉路口往东北约100米,121.247009,31.184672
主恩堂,上海市青浦区育才路569号,121.275796,31.172819
蟠龙庵,上海市青浦区蟠鼎路123弄8号上海蟠龙天地F1,121.282556,31.19296
健康主题公园,上海市青浦区振泾路南50米,121.285298,31.173945
主恩堂,上海市青浦区育才路569号,121.275796,31.172819
乐贝派对,上海市青浦区诸光路930号,121.314706,31.180902
法国进口馆,上海市青浦区诸光路1278号绿地全球商品贸易港2F,121.3087,31.190202
杏花楼,上海市青浦区崧泽大道333号国家会展中心107馆01铺位,121.308641,31.195963
华翔绿地,上海市闵行区申昆路291号,121.334892,31.178443
南虹港观机长廊,上海市闵行区七莘路汉庭优佳上海虹桥火车站酒店西北侧约180米,121.343618,31.179019
天鹅湖,上海市闵行区申昆路291号华翔绿地公园,121.335448,31.177476
乐贝派对,上海市青浦区诸光路930号,121.314706,31.180902
小涞桥天主堂,上海市闵行区沪青平公路1235弄256号,121.326543,31.175695
水榭,上海市闵行区申昆路291号华翔绿地公园,121.333404,31.179557
法国进口馆,上海市青浦区诸光路1278号绿地全球商品贸易港2F,121.3087,31.190202
跌水花园,上海市闵行区申昆路291号华翔绿地公园,121.334441,31.178822
彩虹桥,上海市闵行区申昆路291号华翔绿地公园(东南角),121.336333,31.177414
绿轴景观亭,上海市闵行区申昆路291号华翔绿地公园,121.334946,31.176712
闵行文化公园,上海市闵行区吴中路2019号,121.362762,31.173791
南虹港观机长廊,上海市闵行区七莘路汉庭优佳上海虹桥火车站酒店西北侧约180米,121.343618,31.179019
航华公园,上海市闵行区航新路600号,121.354705,31.180379
华翔绿地,上海市闵行区申昆路291号,121.334892,31.178443
五星体育公园,上海市闵行区航中路体汇闵行文化公园南门,121.362254,31.172664
大众公园(沪青平店),上海市闵行区沪青平公路368号,121.352314,31.183739
天鹅湖,上海市闵行区申昆路291号华翔绿地公园,121.335448,31.177476
雨水花园,上海市闵行区航新路600号航华公园,121.356149,31.181337
宝树共舞,上海市闵行区七莘路3588号,121.349302,31.171329
特色景墙,上海市闵行区航新路600号航华公园,121.352571,31.179968
闵行文化公园,上海市闵行区吴中路2019号,121.362762,31.173791
上海动物园,上海市长宁区虹桥路2381号,121.369284,31.199023
闵行博物馆,上海市闵行区新镇路1538号,121.365556,31.166596
航华公园,上海市闵行区航新路600号,121.354705,31.180379
大象馆,上海市长宁区虹桥路2381号(近虹井路)上海动物园内食草动物区,121.366991,31.19716
食艺公园,上海市闵行区虹井路107号,121.377806,31.178795
长颈鹿馆,上海市长宁区虹桥路2381号(近虹井路)上海动物园内,121.365948,31.198767
五星体育公园,上海市闵行区航中路体汇闵行文化公园南门,121.362254,31.172664
两栖爬行动物馆,上海市长宁区虹桥路2381号(近虹井路)上海动物园内,121.37502,31.197141
闵行区民防科普教育馆,上海市闵行区新镇路1766号地下1层,121.364052,31.169319
井亭绿地,上海市闵行区虹桥镇吴中路1710号,121.383913,31.18083
金虹桥公园,上海市闵行区合川路2899号,121.389252,31.175886
食艺公园,上海市闵行区虹井路107号,121.377806,31.178795
虹桥锦绣绿地,上海市闵行区金汇路与吴中路交叉路口往东南约60米,121.383146,31.179586
虹桥镇法治公园,上海市闵行区万源路2800号,121.395647,31.181407
上海观止矿晶博物馆(阿拉城店),上海市闵行区先锋街66号阿拉城三号楼1-2楼,121.380148,31.18283
韩式教堂,银亭路58-60号附近,121.382255,31.177232
欢乐场,上海市闵行区吴中路1075号,121.393177,31.181796
伊甸园(虹桥路),上海市长宁区虹桥路2310号,121.378039,31.195774
璞园,上海市闵行区虹秀路51号西北方向150米,121.373411,31.171673
生态漕河泾,上海市徐汇区桂箐路91号,121.411453,31.181371
上海无线电博物馆,上海市徐汇区田林路200号A5(近宜州路),121.413468,31.175886
梦公园,上海市徐汇区桂林路907号,121.424593,31.188746
金虹桥公园,上海市闵行区合川路2899号,121.389252,31.175886
聚动力贝岭体育公园,上海市徐汇区宜山路810号,121.413037,31.179411
中核浦原科技园,上海市徐汇区桂林路396弄,121.423939,31.173994
虹桥镇法治公园,上海市闵行区万源路2800号,121.395647,31.181407
世纪林,上海市徐汇区东兰路与中环路交叉路口往北约150米,121.411072,31.165724
颐亭,上海市徐汇区桂林路128号桂林公园内,121.423586,31.171745
红色教育陈列馆,上海市闵行区虹梅路2977号,121.398583,31.186493
梦公园,上海市徐汇区桂林路907号,121.424593,31.188746
田林中心绿地,上海市徐汇区田林东路414弄-26号,121.432187,31.181233
桂林公园,上海市徐汇区桂林路128号近地铁12号线桂林公园站,121.424372,31.171505
老鹰公园,上海市徐汇区田林街道田林三中对面近田林东路,121.436831,31.180002
上海无线电博物馆,上海市徐汇区田林路200号A5(近宜州路),121.413468,31.175886
康健园,上海市徐汇区桂林路91号,121.428325,31.17037
中核浦原科技园,上海市徐汇区桂林路396弄,121.423939,31.173994
土山湾博物馆,上海市徐汇区蒲汇塘路55号,121.441491,31.192968
聚动力贝岭体育公园,上海市徐汇区宜山路810号,121.413037,31.179411
森林公园南园,上海市徐汇区桂林公园(桂林路西100米),121.42436,31.170842
龙华寺,上海市徐汇区龙华镇龙华路2853号,121.458265,31.181637
上海电影博物馆,上海市徐汇区漕溪北路595号,121.44453,31.192519
老鹰公园,上海市徐汇区田林街道田林三中对面近田林东路,121.436831,31.180002
徐家汇源,上海市徐汇区蒲西路166-1号,121.442952,31.197389
东安公园,上海市徐汇区中山南二路811号,121.460767,31.191483
龙华烈士陵园,上海市徐汇区龙华西路180号,121.455712,31.181942
斯马兰魔幻森林,漕溪路126号,121.441042,31.184165
徐家汇圣母院旧址,上海市徐汇区漕溪北路201号,121.445226,31.197752
徐光启墓,上海市徐汇区南丹路17-1号临,121.441192,31.196073
光启公园,上海市徐汇区南丹路17号近汇站路,121.441044,31.195968
龙华寺,上海市徐汇区龙华镇龙华路2853号,121.458265,31.181637
徐汇区光启龙华港湾,上海市徐汇区凯滨路与龙腾大道交叉路口往南约240米,121.468792,31.182871
徐汇跑道公园,上海市徐汇区龙兰路与云锦路交叉路口往北约220米,121.464171,31.174602
海事塔,上海市徐汇区龙华街道龙腾大道3036号,121.46886,31.183655
徐汇滨江绿地,上海市徐汇区东安路与龙腾大道交叉口东,121.470436,31.187552
上海市滨江滑板公园,上海市徐汇区瑞宁路,121.473948,31.191824
龙华烈士陵园,上海市徐汇区龙华西路180号,121.455712,31.181942
后滩公园,上海市浦东新区世博大道2200号,121.479638,31.189907
东安公园,上海市徐汇区中山南二路811号,121.460767,31.191483
西岸美术馆,上海市徐汇区龙腾大道2600号,121.470201,31.173712
世博公园,上海市浦东新区世博大道1750号,121.491182,31.1929
中华艺术宫,上海市浦东新区上南路205号,121.501315,31.190005
国际乒联博物馆中国乒乓球博物馆,上海市黄浦区局门路796号,121.487789,31.198924
上海市滨江滑板公园,上海市徐汇区瑞宁路,121.473948,31.191824
徐汇滨江绿地,上海市徐汇区东安路与龙腾大道交叉口东,121.470436,31.187552
南园滨江绿地,上海市黄浦区龙华东路800号,121.48194,31.198223
救恩堂,上海市浦东新区上钢新村街道耀华路439号,121.48951,31.179223
海事塔,上海市徐汇区龙华街道龙腾大道3036号,121.46886,31.183655
上海美术馆,上海市浦东新区上南路205号,121.500985,31.189781
后滩公园,上海市浦东新区世博大道2200号,121.479638,31.189907
蔓趣公园,上海市浦东新区洪山路195号,121.507032,31.179963
中华艺术宫,上海市浦东新区上南路205号,121.501315,31.190005
花架,上海市浦东新区洪山路195号蔓趣公园,121.506914,31.180234
上南公园,上海市浦东新区德州路198号,121.504888,31.172561
世博公园,上海市浦东新区世博大道1750号,121.491182,31.1929
亩中山水园,上海市浦东新区世博大道1000号近高科西路,121.502245,31.195792
空降成功,上海市浦东新区云台路86号,121.505225,31.187997
上海美术馆,上海市浦东新区上南路205号,121.500985,31.189781
长青公园,上海市浦东新区长清路11号,121.495168,31.179645
临沂公园,上海市浦东新区东方路3683号,121.513574,31.193753
十泽道院,上海市浦东新区浦三路1238号,121.530002,31.178078
浦杨花园,浦三路913号,121.526769,31.186002
锦尊体育公园,上海市浦东新区锦尊路468号,121.537906,31.185794
甘露庵,上海市浦东新区新浦路与浦三路交叉口西北300米,121.531061,31.176595
上海光明酸奶科技展示馆,上海市浦东新区成山路777号,121.519236,31.178811
蔓趣公园,上海市浦东新区洪山路195号,121.507032,31.179963
临沂公园,上海市浦东新区东方路3683号,121.513574,31.193753
由由公园,上海市浦东新区严中路300弄23号301室,121.538322,31.195512
中汾泾城市绿地,上海市浦东新区板泉路与云台路交叉路口往北约110米,121.515104,31.16863
党建公园,上海市浦东新区齐恒路白莲泾休闲绿地,121.526118,31.195872
三林世博主题公园,上海市浦东新区大道站路与东书房路交叉口东北角,121.54468,31.168083
北蔡镇廉政文化一条街,上海市浦东新区锦绣路3088弄-28号,121.546046,31.186316
锦尊体育公园,上海市浦东新区锦尊路468号,121.537906,31.185794
三元宫坤道院,上海市浦东新区高科西路2119号,121.54273,31.194213
十泽道院,上海市浦东新区浦三路1238号,121.530002,31.178078
甘露庵,上海市浦东新区新浦路与浦三路交叉口西北300米,121.531061,31.176595
南新小区-休闲绿地,上海市浦东新区下南路309弄70号,121.548455,31.177018
北蔡消防主题公园,上海市浦东新区联勤广场(杨莲路南),121.557552,31.174565
由由公园,上海市浦东新区严中路300弄23号301室,121.538322,31.195512
浦杨花园,浦三路913号,121.526769,31.186002
北蔡休闲绿地,上海市浦东新区北中路571号,121.571789,31.191498
南黄天主堂,上海市浦东新区北蔡镇五星村13队163号,121.571467,31.183723
鹏海绿地公园,上海市浦东新区五星路与西中路交叉口西北150米,121.574632,31.183493
鹏海广场,上海市浦东新区陈春路120号110房,121.562965,31.178211
北蔡消防主题公园,上海市浦东新区联勤广场(杨莲路南),121.557552,31.174565
相公殿,上海市浦东新区沪南路与华夏西路交叉路口往东北约60米,121.570139,31.16984
崇庆教寺观音禅院,上海市浦东新区中界村道中界村苏家队苏家宅东南侧约60米,121.578548,31.190706
北蔡中界城隍庙,上海市浦东新区北蔡镇中界村中界庙84号,121.578504,31.190677
上海相机摄影博物馆,上海市浦东新区五星路676弄天安万科御河企业公馆39号楼,121.579104,31.180783
南新小区-休闲绿地,上海市浦东新区下南路309弄70号,121.548455,31.177018
观音寺,上海市青浦区华新镇凤溪社区三星街175号,121.234746,31.203573
凤溪公园,上海市青浦区新凤中路1732号,121.234028,31.211869
银杏园(尚茂公园),上海市青浦区乐高路与尚茂路交叉路口往东北约100米,121.247009,31.184672
凤溪宅,上海市青浦区凤强路上海金狮湾酒店南侧约140米,121.238991,31.200392
青浦东乡革命烈士陵园,上海市青浦区华新镇火星村60号,121.25316,31.218157
店吃好音观,上海市青浦区北青公路4606号,121.238342,31.202102
八角车宅,上海市青浦区嘉松中路金凤凰幼儿园(杨家庄中心大道)东北侧约120米,121.228123,31.197
蟠龙庵,上海市青浦区蟠鼎路123弄8号上海蟠龙天地F1,121.282556,31.19296
上海青浦区金夜美术馆,上海市青浦区汇龙路168号,121.279197,31.201391
诸翟公园,上海市闵行区运乐路188号,121.293566,31.214997
蟠龙庵,上海市青浦区蟠鼎路123弄8号上海蟠龙天地F1,121.282556,31.19296
诸翟关帝庙,上海市闵行区诸新路16号-临,121.301575,31.211306
好人亭,上海市闵行区运乐路188号诸翟公园,121.294097,31.214463
莲池,上海市闵行区运乐路188号诸翟公园,121.293217,31.214619
结构亭,上海市闵行区运乐路188号诸翟公园,121.293123,31.214534
组合亭,上海市闵行区运乐路188号诸翟公园,121.293707,31.214928
财神殿,上海市闵行区华漕镇紫苑路126号(东侧),121.301695,31.211258
关帝殿,上海市闵行区紫苑路126号诸翟关帝庙,121.301423,31.211374
上海青浦区金夜美术馆,上海市青浦区汇龙路168号,121.279197,31.201391
诸翟公园,上海市闵行区运乐路188号,121.293566,31.214997
启示望远,闵行区华翔路1979号(近杨虹路),121.310236,31.205415
诸翟关帝庙,上海市闵行区诸新路16号-临,121.301575,31.211306
新虹法治文化主题公园,海市闵行区新虹街道申虹路爱博三村东侧,121.318738,31.216232
杏花楼,上海市青浦区崧泽大道333号国家会展中心107馆01铺位,121.308641,31.195963
法国进口馆,上海市青浦区诸光路1278号绿地全球商品贸易港2F,121.3087,31.190202
财神殿,上海市闵行区华漕镇紫苑路126号(东侧),121.301695,31.211258
关帝殿,上海市闵行区紫苑路126号诸翟关帝庙,121.301423,31.211374
好人亭,上海市闵行区运乐路188号诸翟公园,121.294097,31.214463
组合亭,上海市闵行区运乐路188号诸翟公园,121.293707,31.214928
新虹法治文化主题公园,海市闵行区新虹街道申虹路爱博三村东侧,121.318738,31.216232
启示望远,闵行区华翔路1979号(近杨虹路),121.310236,31.205415
杏花楼,上海市青浦区崧泽大道333号国家会展中心107馆01铺位,121.308641,31.195963
童心飞飞园,上海市闵行区申达一路1号上海虹桥国际机场-T2航站楼三层,121.334327,31.201049
大象馆,上海市长宁区虹桥路2381号(近虹井路)上海动物园内食草动物区,121.366991,31.19716
大熊猫馆,上海市长宁区虹桥路2381号(近虹井路)上海动物园内,121.367205,31.201249
长颈鹿馆,上海市长宁区虹桥路2381号(近虹井路)上海动物园内,121.365948,31.198767
老虎保护站,上海市长宁区虹桥路2381号(近虹井路)上海动物园内,121.36667,31.200684
食草动物区-羊驼,上海市长宁区虹桥路2489号,121.365423,31.199181
骑马场,上海市长宁区虹桥路2381号(近虹井路)上海动物园内,121.365476,31.199505
熊猫岭,上海市长宁区虹桥路2381号(近虹井路)上海动物园内,121.367605,31.201395
东北梅花鹿,上海市长宁区虹桥路2381号(近虹井路)上海动物园内,121.364928,31.19948
犀牛,上海市长宁区虹桥路2381号(近虹井路)上海动物园内,121.367303,31.198744
金庭动物园,上海市长宁区协和路1号,121.362875,31.210253
上海动物园,上海市长宁区虹桥路2381号,121.369284,31.199023
大熊猫馆,上海市长宁区虹桥路2381号(近虹井路)上海动物园内,121.367205,31.201249
熊猫岭,上海市长宁区虹桥路2381号(近虹井路)上海动物园内,121.367605,31.201395
熊的家族,上海市长宁区虹桥路2381号上海动物园内,121.368261,31.200828
老虎保护站,上海市长宁区虹桥路2381号(近虹井路)上海动物园内,121.36667,31.200684
长颈鹿馆,上海市长宁区虹桥路2381号(近虹井路)上海动物园内,121.365948,31.198767
鸟区-斑嘴环企鹅,上海市长宁区虹桥路2381号(近虹井路)上海动物园内,121.370698,31.201658
北极狼馆,上海市长宁区虹桥路2489号,121.367922,31.200462
食肉动物区-大食蚁兽,上海市长宁区虹桥路2381号(近虹井路)上海动物园内食肉动物区,121.367877,31.201286
将军桥(哈密路),上海市长宁区哈密路春花苑西北侧约40米,121.373029,31.202005
上海动物园,上海市长宁区虹桥路2381号,121.369284,31.199023
息焉堂,上海市长宁区可乐路17号,121.373575,31.210573
将军桥(哈密路),上海市长宁区哈密路春花苑西北侧约40米,121.373029,31.202005
法华禅寺,上海市长宁区新泾镇淞虹路916号,121.371768,31.209879
上海油画雕塑院美术馆,上海市长宁区金珠路111号,121.406845,31.204608
水霞公园,上海市长宁区仙霞路505号近水城路,121.396804,31.211927
仙霞公园,上海市长宁区虹古路333号,121.397466,31.210069
延虹绿地,上海市长宁区虹桥路1518号,121.403323,31.205991
大熊猫馆,上海市长宁区虹桥路2381号(近虹井路)上海动物园内,121.367205,31.201249
鸟区-斑嘴环企鹅,上海市长宁区虹桥路2381号(近虹井路)上海动物园内,121.370698,31.201658
上海油画雕塑院美术馆,上海市长宁区金珠路111号,121.406845,31.204608
程十发美术馆,上海市长宁区虹桥路1392号,121.412245,31.203891
新虹桥中心花园,上海市长宁区伊犁路97号,121.411023,31.20618
虹桥公园,上海市长宁区遵义路101号,121.412054,31.212078
上海儿童博物馆,上海市长宁区宋园路61号,121.419405,31.199852
延虹绿地,上海市长宁区虹桥路1518号,121.403323,31.205991
中华人民共和国名誉主席宋庆龄陵园,上海市长宁区宋园路21号(近虹桥路),121.417134,31.201172
宋庆龄纪念馆,上海市长宁区宋园路21号宋庆龄陵园内,121.417027,31.201045
水霞公园,上海市长宁区仙霞路505号近水城路,121.396804,31.211927
仙霞公园,上海市长宁区虹古路333号,121.397466,31.210069
上海儿童博物馆,上海市长宁区宋园路61号,121.419405,31.199852
徐家汇源,上海市徐汇区蒲西路166-1号,121.442952,31.197389
番禺绿地,徐汇区虹桥路637号番禺路口,121.433155,31.20217
宋庆龄纪念馆,上海市长宁区宋园路21号宋庆龄陵园内,121.417027,31.201045
上海电影博物馆,上海市徐汇区漕溪北路595号,121.44453,31.192519
新虹桥中心花园,上海市长宁区伊犁路97号,121.411023,31.20618
宋庆龄故居,上海市徐汇区淮海中路1843号,121.445316,31.210363
刘海粟美术馆,上海市长宁区延安西路1609号,121.426009,31.215754
天山公园,上海市长宁区延安西路1731号,121.422442,31.216232
程十发美术馆,上海市长宁区虹桥路1392号,121.412245,31.203891
徐家汇公园,上海市徐汇区肇嘉浜路889号,121.448858,31.203746
武康路历史文化名街,上海市徐汇区武康路288附近,121.446344,31.213621
大中华橡胶厂旧址,上海市徐汇区衡山路与天平路交叉路口往西约60米,121.446021,31.202729
徐家汇源,上海市徐汇区蒲西路166-1号,121.442952,31.197389
宋庆龄故居,上海市徐汇区淮海中路1843号,121.445316,31.210363
上海电影博物馆,上海市徐汇区漕溪北路595号,121.44453,31.192519
上海昆虫博物馆,上海市徐汇区枫林路300号(近斜土路),121.461708,31.199921
纪念烟囱,上海市徐汇区肇嘉浜路986号临,121.447886,31.202204
儿童游乐场,上海市徐汇区肇嘉浜路986号徐家汇公园内,121.449115,31.20364
汇金湖,上海市徐汇区肇嘉浜路889号(天平路宛平路间)徐家汇公园内,121.447953,31.202602
日晖绿地,上海市徐汇区小木桥路与斜土路交叉路口往东约130米,121.466393,31.203129
徐汇滨江绿地,上海市徐汇区东安路与龙腾大道交叉口东,121.470436,31.187552
上海昆虫博物馆,上海市徐汇区枫林路300号(近斜土路),121.461708,31.199921
上海市滨江滑板公园,上海市徐汇区瑞宁路,121.473948,31.191824
东安公园,上海市徐汇区中山南二路811号,121.460767,31.191483
上海公安博物馆,上海市徐汇区瑞金南路518号(近打浦桥),121.474896,31.20445
徐家汇公园,上海市徐汇区肇嘉浜路889号,121.448858,31.203746
茶陵绿地,徐汇区零陵北路7弄1～5号西北方向50米,121.471872,31.20393
上海旧法租界,上海市黄浦区建国中路22号,121.475785,31.215907
上海市工艺美术博物馆,上海市徐汇区汾阳路79号,121.460803,31.216576
世博会博物馆,上海市黄浦区蒙自路818号,121.488517,31.200168
teamLab无界美术馆,上海市黄浦区花园港路100号C2馆,121.504102,31.207456
世博园,上海市黄浦区龙华东路522号,121.487061,31.201321
国际乒联博物馆中国乒乓球博物馆,上海市黄浦区局门路796号,121.487789,31.198924
南园滨江绿地,上海市黄浦区龙华东路800号,121.48194,31.198223
丽园公园,上海市黄浦区丽园路565号,121.485346,31.213177
中华艺术宫,上海市浦东新区上南路205号,121.501315,31.190005
上海公安博物馆,上海市徐汇区瑞金南路518号(近打浦桥),121.474896,31.20445
田子坊中部旅游区,上海市黄浦区泰康路210弄1-23号田子坊内,121.475321,31.213969
上海美术馆,上海市浦东新区上南路205号,121.500985,31.189781
上海当代艺术博物馆,上海市黄浦区苗江路678号,121.505082,31.206746
teamLab无界美术馆,上海市黄浦区花园港路100号C2馆,121.504102,31.207456
白莲泾桥,上海市浦东新区白莲泾与浦东滨江交汇处;上海市浦东新区一号运动中心向东约100米处,121.507913,31.200889
亩中山水园,上海市浦东新区世博大道1000号近高科西路,121.502245,31.195792
琴键春园,上海市黄浦区苗江路200号,121.502829,31.202405
中华艺术宫,上海市浦东新区上南路205号,121.501315,31.190005
三山会馆,上海市黄浦区中山南路1551号(近半淞园路),121.502151,31.211014
蓬莱公园,上海市黄浦区南车站路350号,121.498147,31.211802
世博公园,上海市浦东新区世博大道1750号,121.491182,31.1929
锦和越界世博园,上海市黄浦区半淞园路388号,121.503163,31.207021
南浦广场公园,上海市浦东新区浦东南路2277号,121.521782,31.208882
飞梦足球公园(南码头店),上海市浦东新区浦明路1888号,121.516641,31.209912
极境悬浮体育公园,上海市浦东新区杨高南路1998号开伦聿缘4号楼5楼,121.529507,31.197557
三元宫坤道院,上海市浦东新区高科西路2119号,121.54273,31.194213
临沂公园,上海市浦东新区东方路3683号,121.513574,31.193753
世界古钱币长廊,上海市浦东新区北园路上海交通大学医学院附属仁济医院东院南侧约170米,121.529335,31.21032
党建公园,上海市浦东新区齐恒路白莲泾休闲绿地,121.526118,31.195872
由由公园,上海市浦东新区严中路300弄23号301室,121.538322,31.195512
白莲泾休闲绿地,上海市浦东新区齐恒路19号,121.525838,31.195937
东岸绿道,上海市浦东新区东岸绿道中国远洋海运大厦西侧约50米,121.516224,31.214386
三元宫坤道院,上海市浦东新区高科西路2119号,121.54273,31.194213
花木公园,上海市浦东新区杜鹃路332号(白杨路口),121.560484,31.210161
培花公园,上海市浦东新区芳草路206~208号,121.560936,31.199851
锦绣文化公园,上海市浦东新区花木街道高科西路2599号,121.551858,31.197058
由由公园,上海市浦东新区严中路300弄23号301室,121.538322,31.195512
世界古钱币长廊,上海市浦东新区北园路上海交通大学医学院附属仁济医院东院南侧约170米,121.529335,31.21032
花木兰亭,上海市浦东新区浦建路1399弄,121.55333,31.209435
极境悬浮体育公园,上海市浦东新区杨高南路1998号开伦聿缘4号楼5楼,121.529507,31.197557
蒙恩堂,上海市浦东新区严镇路9号,121.533662,31.19677
花木公园-儿童游乐场,上海市浦东新区杜鹃路332号花木公园,121.56122,31.210514
喜玛拉雅美术馆,上海市浦东新区樱花路869号证大喜玛拉雅中心F4,121.568386,31.215181
培花公园,上海市浦东新区芳草路206~208号,121.560936,31.199851
花木公园,上海市浦东新区杜鹃路332号(白杨路口),121.560484,31.210161
北蔡休闲绿地,上海市浦东新区北中路571号,121.571789,31.191498
崇庆教寺观音禅院,上海市浦东新区中界村道中界村苏家队苏家宅东南侧约60米,121.578548,31.190706
锦绣文化公园,上海市浦东新区花木街道高科西路2599号,121.551858,31.197058
花木公园-儿童游乐场,上海市浦东新区杜鹃路332号花木公园,121.56122,31.210514
北蔡中界城隍庙,上海市浦东新区北蔡镇中界村中界庙84号,121.578504,31.190677
安流桥,上海市浦东新区花木路世纪公园,121.562902,31.219385
花木兰亭,上海市浦东新区浦建路1399弄,121.55333,31.209435
凤溪公园,上海市青浦区新凤中路1732号,121.234028,31.211869
华隆公园,上海市青浦区华隆路恒文·星尚湾南侧约130米,121.236637,31.226175
青浦东乡革命烈士陵园,上海市青浦区华新镇火星村60号,121.25316,31.218157
红莲寺,华漕镇电台路与纪秀路交叉路口南50米,121.266056,31.233717
青浦东乡革命烈士陵园,上海市青浦区华新镇火星村60号,121.25316,31.218157
诸翟公园,上海市闵行区运乐路188号,121.293566,31.214997
诸翟关帝庙,上海市闵行区诸新路16号-临,121.301575,31.211306
组合亭,上海市闵行区运乐路188号诸翟公园,121.293707,31.214928
莲池,上海市闵行区运乐路188号诸翟公园,121.293217,31.214619
结构亭,上海市闵行区运乐路188号诸翟公园,121.293123,31.214534
好人亭,上海市闵行区运乐路188号诸翟公园,121.294097,31.214463
财神殿,上海市闵行区华漕镇紫苑路126号(东侧),121.301695,31.211258
关帝殿,上海市闵行区紫苑路126号诸翟关帝庙,121.301423,31.211374
诸翟公园,上海市闵行区运乐路188号,121.293566,31.214997
诸翟关帝庙,上海市闵行区诸新路16号-临,121.301575,31.211306
中闵虹桥美术馆,上海市闵行区申长北路156号,121.316314,31.226162
新虹法治文化主题公园,海市闵行区新虹街道申虹路爱博三村东侧,121.318738,31.216232
三丫叉侵华日军杀人塘,上海市闵行区北翟路3711号,121.316486,31.22377
启示望远,闵行区华翔路1979号(近杨虹路),121.310236,31.205415
财神殿,上海市闵行区华漕镇紫苑路126号(东侧),121.301695,31.211258
关帝殿,上海市闵行区紫苑路126号诸翟关帝庙,121.301423,31.211374
组合亭,上海市闵行区运乐路188号诸翟公园,121.293707,31.214928
好人亭,上海市闵行区运乐路188号诸翟公园,121.294097,31.214463
华漕公园,上海市闵行区华漕镇东华美路5号,121.339532,31.226002
上海徽府,上海市闵行区北翟路南华街66号,121.326088,31.231428
新虹法治文化主题公园,海市闵行区新虹街道申虹路爱博三村东侧,121.318738,31.216232
滨江爱特公园,上海市嘉定区江桥艾法薇尔幼儿园西南(石粉厂路),121.321384,31.236635
华漕抗日战争纪念馆,上海市闵行区华漕镇北街新村8号,121.332731,31.230787
中闵虹桥美术馆,上海市闵行区申长北路156号,121.316314,31.226162
三丫叉侵华日军杀人塘,上海市闵行区北翟路3711号,121.316486,31.22377
唐祖寺,上海市闵行区南潘路与潘松路交叉路口往北约260米,121.328852,31.234663
中心湖畔,上海市闵行区华漕镇东华美路5号华漕公园,121.339944,31.225945
花架亭,上海市闵行区华漕镇东华美路5号华漕公园,121.34019,31.226259
华漕公园,上海市闵行区华漕镇东华美路5号,121.339532,31.226002
虹桥体育公园,上海市长宁区绥宁路820号,121.350852,31.227252
许浦公园,上海市闵行区北翟路1444弄-122支弄-38号,121.345505,31.234708
华漕抗日战争纪念馆,上海市闵行区华漕镇北街新村8号,121.332731,31.230787
中心湖畔,上海市闵行区华漕镇东华美路5号华漕公园,121.339944,31.225945
花架亭,上海市闵行区华漕镇东华美路5号华漕公园,121.34019,31.226259
中关村·虹桥创新中心北2座,上海市长宁区临虹路365号,121.356683,31.235797
SUNYOUNG PARK,上海市长宁区天山西路799号4楼,121.360095,31.224242
新泾公园,上海市长宁区天山西路455号(近淞虹路),121.36865,31.222881
风铃绿地,上海市长宁区北翟路456号,121.377331,31.227787
息焉堂,上海市长宁区可乐路17号,121.373575,31.210573
哈密公园,上海市新渔路路口,121.380733,31.21996
苏州河十八湾,上海市普陀区丹巴路3号附近,121.385977,31.225858
法华禅寺,上海市长宁区新泾镇淞虹路916号,121.371768,31.209879
上海市基督教新泾礼拜堂,上海市长宁区哈密路77号,121.383817,31.223697
上海动物园繁殖场,上海市长宁区可乐路77号,121.372074,31.21092
虹桥体育公园,上海市长宁区绥宁路820号,121.350852,31.227252
中新泾公园,上海市长宁区哈密路1233号,121.372442,31.208113
苏州河十八湾,上海市普陀区丹巴路3号附近,121.385977,31.225858
长风公园,上海市普陀区大渡河路189号,121.403703,31.230279
上海市基督教新泾礼拜堂,上海市长宁区哈密路77号,121.383817,31.223697
哈密公园,上海市新渔路路口,121.380733,31.21996
风铃绿地,上海市长宁区北翟路456号,121.377331,31.227787
上海长风海洋世界,上海市普陀区大渡河路451号,121.40356,31.23061
一号绿地,上海市普陀区大渡河路251号,121.405199,31.225788
息焉堂,上海市长宁区可乐路17号,121.373575,31.210573
苏州河景观步廊,上海市长宁区长宁路与芙蓉江路交口西,121.399448,31.223619
新泾公园,上海市长宁区天山西路455号(近淞虹路),121.36865,31.222881
长风公园,上海市普陀区大渡河路189号,121.403703,31.230279
虹桥河滨公园,上海市长宁区长宁路2080号(锦屏路口),121.407185,31.225404
上海长风海洋世界,上海市普陀区大渡河路451号,121.40356,31.23061
虹桥公园,上海市长宁区遵义路101号,121.412054,31.212078
上海基督教沪西礼拜堂,上海市长宁区周家桥街道长宁路1465号(近遵义路),121.416095,31.222734
中山公园,上海市长宁区长宁路780号,121.425343,31.228269
一号绿地,上海市普陀区大渡河路251号,121.405199,31.225788
苏州河景观步廊,上海市长宁区长宁路与芙蓉江路交口西,121.399448,31.223619
荣毅仁故居,上海市长宁区万航渡路2526号,121.412158,31.22553
上海消防博物馆,上海市长宁区中山西路229号,121.417659,31.224257
刘海粟美术馆,上海市长宁区延安西路1609号,121.426009,31.215754
元培楼,上海市长宁区长宁路865号,121.426498,31.224496
中山公园,上海市长宁区长宁路780号,121.425343,31.228269
天山公园,上海市长宁区延安西路1731号,121.422442,31.216232
哥伦比亚公园,上海市延安西路1262号,121.433423,31.216059
三泾庙,上海市长宁区长宁路三泾北宅244号(安化路凯旋路),121.423247,31.220701
上海消防博物馆,上海市长宁区中山西路229号,121.417659,31.224257
钱学森旧居,上海市长宁区愚园路一〇三二弄111号,121.435598,31.226383
愚园路历史名人墙,上海市长宁区江苏路街道愚园路1065号,121.435468,31.224916
上海凝聚力工程博物馆,上海市长宁区长宁路878号,121.425773,31.226569
武康路历史文化名街,上海市徐汇区武康路288附近,121.446344,31.213621
荣德生旧居,上海市静安区长乐路1242号,121.446761,31.221304
上海静安寺,上海市静安区南京西路1686号,121.451754,31.22985
上海戏剧博物馆,上海市静安区静安寺街道延安西路200号3号楼,121.447544,31.224118
静安公园,上海市静安区南京西路1649号,121.453099,31.228471
张乐平故居,上海市徐汇区五原路288弄3号,121.449749,31.218925
宋庆龄故居,上海市徐汇区淮海中路1843号,121.445316,31.210363
圆明讲堂,上海市静安区延安西路458号(近镇宁路),121.444344,31.224369
1920年毛泽东寓所旧址,上海市静安区安义路63号(安义路常德路),121.456218,31.22978
蔡元培故居陈列馆,上海市静安区华山路303弄16号(昆仑酒店斜对面),121.453535,31.225253
襄阳公园,上海市徐汇区淮海中路1008号(近襄阳北路),121.463193,31.223319
上海静安寺,上海市静安区南京西路1686号,121.451754,31.22985
徐悲鸿旧居,上海市黄浦区瑞金二路街道淮海中路927弄99号(陕西南路地铁站4号口步行260米),121.467265,31.222231
上海市工艺美术博物馆,上海市徐汇区汾阳路79号,121.460803,31.216576
上海市历史博物馆,上海市黄浦区南京西路325号,121.477372,31.236644
上海孙中山故居纪念馆,上海市黄浦区香山路7号,121.474366,31.222134
张学良公馆,上海市黄浦区皋兰路1号(近复兴公园),121.473963,31.223372
中国社会主义青年团中央机关旧址纪念馆,上海市黄浦区淮海中路567弄1-6号,121.474708,31.226537
霞飞坊旧址,上海市黄浦区瑞金二路街道淮海中路927弄1-146号,121.466195,31.222802
上海博物馆,上海市黄浦区人民大道201号,121.482126,31.23419
太平桥公园,自忠路170号,121.483818,31.225334
上海城隍庙,上海市黄浦区方浜中路249号,121.499034,31.231471
法藏讲寺,上海市黄浦区吉安路271号,121.487864,31.223778
上海银行博物馆,上海市黄浦区复兴中路301号,121.482883,31.222338
延中绿地,上海市黄浦区黄陂南路700号7层705室,121.480345,31.231678
豫园,上海市黄浦区福佑路168号,121.498732,31.232741
上海市历史博物馆,上海市黄浦区南京西路325号,121.477372,31.236644
上海大世界(西藏南路店),西藏南路1号,121.485834,31.234153
上海博物馆,上海市黄浦区人民大道201号,121.482126,31.23419
田子坊中部旅游区,上海市黄浦区泰康路210弄1-23号田子坊内,121.475321,31.213969
上海城隍庙,上海市黄浦区方浜中路249号,121.499034,31.231471
豫园,上海市黄浦区福佑路168号,121.498732,31.232741
董家渡天主堂,上海市黄浦区董家渡路185号,121.511135,31.220193
古城公园,上海市黄浦区人民路333号,121.500454,31.234126
石库门老街,上海市黄浦区中山南路505号老码头内,121.512639,31.224818
上海当代艺术博物馆,上海市黄浦区苗江路678号,121.505082,31.206746
梓园遗址,上海市黄浦区乔家路113号,121.503319,31.223036
上海之巅观光厅(上海中心大厦店),上海市浦东新区银城中路501号上海中心大厦118层,121.512342,31.239205
上海文庙,上海市黄浦区老西门街道文庙路215号(近学前街),121.494489,31.223736
清心堂,上海市黄浦区跨龙路与陆家浜路交叉路口往西北约50米,121.50192,31.218995
上海艺仓美术馆,上海市浦东新区滨江大道4777号,121.518997,31.222187
东方之光,上海市浦东新区丰和路1号,121.545161,31.228305
塘桥公园,上海市浦东新区塘桥街道东方路1260号(近峨山路),121.534761,31.222916
石库门老街,上海市黄浦区中山南路505号老码头内,121.512639,31.224818
船长号游船,上海市浦东新区滨江大道4298号船长游船码头(近张杨路),121.516748,31.22732
老白渡滨江绿地,张杨路滨江大道到浦明路塘桥新路(近杨家渡渡口),121.518115,31.224424
南浦广场公园,上海市浦东新区浦东南路2277号,121.521782,31.208882
竹园绿地,上海市浦东新区浦电路407号,121.538514,31.226791
东岸绿道,上海市浦东新区东岸绿道中国远洋海运大厦西侧约50米,121.516224,31.214386
福音堂,上海市浦东新区潍坊新村街道浦电路449号,121.541063,31.228268
东方之光,上海市浦东新区丰和路1号,121.545161,31.228305
世纪公园,上海市浦东新区锦绣路1001号,121.558979,31.222046
福音堂,上海市浦东新区潍坊新村街道浦电路449号,121.541063,31.228268
豆香园,上海市浦东新区灵山路412号(桃林路口),121.546674,31.232883
世纪公园-游乐园,上海市浦东新区锦绣路703弄2号,121.558623,31.22481
世纪公园-卵石沙滩,上海市浦东新区锦绣路1001号世纪公园内,121.554765,31.219626
塘桥公园,上海市浦东新区塘桥街道东方路1260号(近峨山路),121.534761,31.222916
竹园绿地,上海市浦东新区浦电路407号,121.538514,31.226791
机器人世界,上海市浦东新区世纪大道2000号上海科技馆2层,121.54801,31.224303
世纪花钟,上海市浦东新区锦绣路1001号,121.554107,31.223244
世纪公园,上海市浦东新区锦绣路1001号,121.558979,31.222046
世纪公园跑步驿站,上海市浦东新区锦绣路1001号世纪公园,121.567178,31.222551
奥尔梅加头像,上海市浦东新区锦绣路1001号世纪公园内,121.566193,31.221316
世纪公园-游乐园,上海市浦东新区锦绣路703弄2号,121.558623,31.22481
喜玛拉雅美术馆,上海市浦东新区樱花路869号证大喜玛拉雅中心F4,121.568386,31.215181
风荷桥,上海市浦东新区世纪公园,121.561567,31.222057
上海蒙特利尔园,上海市浦东新区锦绣路1001号世纪公园内,121.562819,31.222438
世纪春沁园,上海市浦东新区锦绣路1001号世纪公园内,121.56477,31.226339
梦湖桥,上海市浦东新区世纪公园,121.562885,31.223103
世纪公园-卵石沙滩,上海市浦东新区锦绣路1001号世纪公园内,121.554765,31.219626
华新人民公园,上海市青浦区华新镇华富街666号,121.234872,31.248162
百植园,上海市青浦区华新镇新凤中路333号E区19栋1层,121.235386,31.237746
纪王公园,上海市闵行区纪高路600号,121.275752,31.243868
大圆通寺,上海市闵行区华漕镇纪翟路2779号,121.276682,31.24833
上海漆艺博物馆,上海市闵行区华漕镇纪翟路1688号,121.279919,31.241298
赏景池,上海市闵行区纪高路600号纪王公园,121.275927,31.243612
红莲寺,华漕镇电台路与纪秀路交叉路口南50米,121.266056,31.233717
丛桂轩,上海市闵行区纪高路600号纪王公园,121.276341,31.243901
寅春庙桥,上海市闵行区纪高路600号纪王公园,121.276289,31.243796
梅园,上海市闵行区纪高路与纪前路交叉路口往东北约170米,121.284073,31.247728
上海漆艺博物馆,上海市闵行区华漕镇纪翟路1688号,121.279919,31.241298
纪王公园,上海市闵行区纪高路600号,121.275752,31.243868
大圆通寺,上海市闵行区华漕镇纪翟路2779号,121.276682,31.24833
赏景池,上海市闵行区纪高路600号纪王公园,121.275927,31.243612
梅园,上海市闵行区纪高路与纪前路交叉路口往东北约170米,121.284073,31.247728
丛桂轩,上海市闵行区纪高路600号纪王公园,121.276341,31.243901
寅春庙桥,上海市闵行区纪高路600号纪王公园,121.276289,31.243796
金鹤公园,上海市嘉定区金沙江西路2048号旁,121.32001,31.248225
滨江爱特公园,上海市嘉定区江桥艾法薇尔幼儿园西南(石粉厂路),121.321384,31.236635
中闵虹桥美术馆,上海市闵行区申长北路156号,121.316314,31.226162
上海徽府,上海市闵行区北翟路南华街66号,121.326088,31.231428
金鹤公园,上海市嘉定区金沙江西路2048号旁,121.32001,31.248225
滨江爱特公园,上海市嘉定区江桥艾法薇尔幼儿园西南(石粉厂路),121.321384,31.236635
华漕抗日战争纪念馆,上海市闵行区华漕镇北街新村8号,121.332731,31.230787
雅丹园东方美食,上海市嘉定区江桥镇高潮路257号,121.340899,31.246857
许浦公园,上海市闵行区北翟路1444弄-122支弄-38号,121.345505,31.234708
唐祖寺,上海市闵行区南潘路与潘松路交叉路口往北约260米,121.328852,31.234663
万佛讲寺,上海市嘉定区江桥镇金沙江西路200号,121.350665,31.250177
金沙绿地公园,丰庄路69号(近清峪路),121.365907,31.248825
华漕公园,上海市闵行区华漕镇东华美路5号,121.339532,31.226002
许浦公园,上海市闵行区北翟路1444弄-122支弄-38号,121.345505,31.234708
入三摩地,上海市嘉定区江桥金沙江西路万佛讲寺,121.351036,31.248959
雅丹园东方美食,上海市嘉定区江桥镇高潮路257号,121.340899,31.246857
华漕抗日战争纪念馆,上海市闵行区华漕镇北街新村8号,121.332731,31.230787
双桥公园,上海市嘉定区华江公路338号,121.343204,31.257274
金沙公园-儿童游乐健身场地,上海市嘉定区金沙江路2892号宁泰连锁酒店金沙江路店,121.365056,31.248637
建德花园小公园,上海市普陀区香樟路与泾阳路交叉路口往西北约100米,121.364734,31.242274
建德花园小公园,上海市普陀区香樟路与泾阳路交叉路口往西北约100米,121.364734,31.242274
金沙绿地公园,丰庄路69号(近清峪路),121.365907,31.248825
威尼斯小镇,上海市普陀区金沙江路1685号118广场F1,121.384226,31.236542
万佛讲寺,上海市嘉定区江桥镇金沙江西路200号,121.350665,31.250177
金沙公园-儿童游乐健身场地,上海市嘉定区金沙江路2892号宁泰连锁酒店金沙江路店,121.365056,31.248637
祥和公园,上海市普陀区真光路1121号甲近梅川路,121.386273,31.247817
风铃绿地,上海市长宁区北翟路456号,121.377331,31.227787
花漾苏河海螺公园滨水绿道,上海市普陀区同普路与香樟路交叉路口往西约200米,121.364157,31.238508
入三摩地,上海市嘉定区江桥金沙江西路万佛讲寺,121.351036,31.248959
昆澄阁,上海市嘉定区梅川路家旺新苑东北侧,121.381923,31.252328
威尼斯小镇,上海市普陀区金沙江路1685号118广场F1,121.384226,31.236542
祥和公园,上海市普陀区真光路1121号甲近梅川路,121.386273,31.247817
苏州河十八湾,上海市普陀区丹巴路3号附近,121.385977,31.225858
梅川梅花主题公园,上海市普陀区长征镇武宁路2361号(沪宁高速公路武宁路),121.399348,31.251011
长风7C社区公共绿地,上海市普陀区丹巴路699号,121.39086,31.237256
风铃绿地,上海市长宁区北翟路456号,121.377331,31.227787
海棠公园,上海市普陀区武宁路2520号(北横通道管理中心),121.396723,31.253144
洛克公园(梅川路店),上海市普陀区梅川路1318号,121.389042,31.250213
荷花池,上海市普陀区大渡河路451号长风公园内,121.404867,31.232876
昆澄阁,上海市嘉定区梅川路家旺新苑东北侧,121.381923,31.252328
长风公园,上海市普陀区大渡河路189号,121.403703,31.230279
曹杨公园,上海市普陀区枫桥路50号(近梅岭北路),121.415344,31.245903
真如寺,上海市普陀区兰溪路399号,121.407942,31.255561
防灾减灾科普体验馆(常高公寓北),梅岭南路382号,121.416529,31.242697
上海长风海洋世界,上海市普陀区大渡河路451号,121.40356,31.23061
真如古镇,上海市普陀区真如镇街道南石二路135号,121.409343,31.252403
铁臂山,上海市普陀区枣阳路525号,121.406735,31.233104
上海普陀科技馆,上海市普陀区曹杨路500号,121.425201,31.243645
梅川梅花主题公园,上海市普陀区长征镇武宁路2361号(沪宁高速公路武宁路),121.399348,31.251011
兰溪青年公园,上海市普陀区兰溪路152号(近桂巷路),121.411357,31.246777
曹杨公园,上海市普陀区枫桥路50号(近梅岭北路),121.415344,31.245903
中山公园,上海市长宁区长宁路780号,121.425343,31.228269
普陀公园,上海市普陀区光复西路255号门卫,121.434122,31.25105
天主教上海教区曹家渡圣弥额尔天神堂,上海市长宁区华阳路街道万航渡路1066号,121.432673,31.235407
圣约翰大学旧址,上海市长宁区长宁路1188弄8号,121.425058,31.230063
百禧公园,上海市普陀区兰溪路与白兰路交叉口西南约140米,121.418113,31.247279
上海普陀科技馆,上海市普陀区曹杨路500号,121.425201,31.243645
沪西清真寺,上海市普陀区常德路1328弄3号,121.441109,31.249109
上海凝聚力工程博物馆,上海市长宁区长宁路878号,121.425773,31.226569
华东师范大学-毛主席像,上海市普陀区华夏路华东师范大学(中北校区),121.411012,31.232626
玉佛禅寺,安远路170号,121.451536,31.247802
上海静安寺,上海市静安区南京西路1686号,121.451754,31.22985
长寿公园,上海市普陀区长寿路260号,121.445865,31.249779
苏州河梦清园环保主题公园,上海市普陀区宜昌路130号,121.446868,31.257273
静安公园,上海市静安区南京西路1649号,121.453099,31.228471
石库门房子,上海市静安区昌安远路294号,121.448633,31.245721
蔡元培故居陈列馆,上海市静安区华山路303弄16号(昆仑酒店斜对面),121.453535,31.225253
上海纺织博物馆,上海市普陀区澳门路128~150号纺博大厦3层,121.452389,31.253111
上海佛教居士林,上海市静安区常德路418号,121.45349,31.234546
1920年毛泽东寓所旧址,上海市静安区安义路63号(安义路常德路),121.456218,31.22978
静安雕塑公园,上海市静安区石门二路128号(近北京西路),121.47046,31.240967
上海静安寺,上海市静安区南京西路1686号,121.451754,31.22985
上海自然博物馆,上海市静安区北京西路510号(静安雕塑公园内),121.469147,31.241162
上海市历史博物馆,上海市黄浦区南京西路325号,121.477372,31.236644
蝴蝶湾,上海市静安区康定东路50号,121.462854,31.243978
九子公园,上海市黄浦区成都北路1018号,121.470563,31.246646
上海市禁毒科普教育馆,上海市静安区汉中路188号4楼,121.463828,31.248074
上海四行仓库抗战纪念馆,上海市静安区北站街道光复路21号,121.478014,31.246317
上海杜莎夫人蜡像馆展览(新世界城店),上海市黄浦区南京西路2-68号新世界城F10号,121.47988,31.240463
西王花园弄堂博物馆,上海市静安区奉贤路与石门二路交叉口西50米,121.467875,31.238026
虹庙,上海市黄浦区南京东路496号,121.486623,31.242668
外滩,上海市黄浦区中山东一路北至外白渡桥、南至十六铺码头,121.497204,31.243453
申报馆旧址,上海市黄浦区汉口路309-1号,121.490842,31.241189
人民公园,上海市黄浦区南京西路231号,121.479656,31.238252
东方明珠广播电视塔,上海市浦东新区世纪大道1号,121.506379,31.245414
上海城隍庙,上海市黄浦区方浜中路249号,121.499034,31.231471
静安雕塑公园,上海市静安区石门二路128号(近北京西路),121.47046,31.240967
豫园,上海市黄浦区福佑路168号,121.498732,31.232741
上海大世界(西藏南路店),西藏南路1号,121.485834,31.234153
上海四行仓库抗战纪念馆,上海市静安区北站街道光复路21号,121.478014,31.246317
东方明珠广播电视塔,上海市浦东新区世纪大道1号,121.506379,31.245414
外滩,上海市黄浦区中山东一路北至外白渡桥、南至十六铺码头,121.497204,31.243453
震旦博物馆-中国古玉形纹设计特展,上海市浦东新区富城路99号震旦博物馆,121.5062,31.240572
震旦博物馆,上海市浦东新区富城路99号震旦国际大楼1层,121.506116,31.240502
上海大自然野生昆虫馆,上海市浦东新区丰和路1号,121.50431,31.246062
陆家嘴中心绿地,上海市浦东新区陆家嘴环路717号,121.512991,31.243648
上海城隍庙,上海市黄浦区方浜中路249号,121.499034,31.231471
上海大洋海底世界(上海),上海市浦东新区陆家嘴环路1388号陆家嘴水族馆内(近东方明珠),121.5085,31.246055
高空VR过山车,东方明珠广播电视塔95米处,121.5066,31.245157
豫园,上海市黄浦区福佑路168号,121.498732,31.232741
上海有恒博物馆,上海市浦东新区浦东大道288号1楼,121.523147,31.24479
东方明珠广播电视塔,上海市浦东新区世纪大道1号,121.506379,31.245414
活力102体育休闲公园,上海市浦东新区陆家嘴街道乳山路102号,121.527112,31.240617
陆家嘴中心绿地,上海市浦东新区陆家嘴环路717号,121.512991,31.243648
上海钦赐仰殿,上海市浦东新区源深路476号,121.539368,31.239883
上海之巅观光厅(上海中心大厦店),上海市浦东新区银城中路501号上海中心大厦118层,121.512342,31.239205
观复博物馆,上海市浦东新区陆家嘴环路479号上海中心大厦第37楼,121.512317,31.239252
上海浦东清真寺,上海市浦东新区源深路375号,121.539458,31.241787
上海大洋海底世界(上海),上海市浦东新区陆家嘴环路1388号陆家嘴水族馆内(近东方明珠),121.5085,31.246055
震旦博物馆,上海市浦东新区富城路99号震旦国际大楼1层,121.506116,31.240502
上海钦赐仰殿,上海市浦东新区源深路476号,121.539368,31.239883
泾南公园,上海市浦东新区羽山路850号,121.560038,31.242027
太清宫,上海市浦东新区陆家嘴街道源深路476号,121.539546,31.239702
王狮美术馆,上海市浦东新区潍坊路328号,121.541808,31.234512
东方之光,上海市浦东新区丰和路1号,121.545161,31.228305
上海浦东清真寺,上海市浦东新区源深路375号,121.539458,31.241787
梅园公园,上海市浦东新区乳山路180号,121.533084,31.242314
福音堂,上海市浦东新区潍坊新村街道浦电路449号,121.541063,31.228268
东方渔人码头,上海市杨浦区杨树浦路1088号,121.538842,31.257801
鼓楼,上海市浦东新区源深路476号,121.539439,31.239652
泾南公园,上海市浦东新区羽山路850号,121.560038,31.242027
新益汇公益园,上海市浦东新区南洋泾路正大生活馆东北侧约230米,121.563134,31.239797
李氏民宅,上海市浦东新区泾南路34号,121.561072,31.247388
泾东公园,上海市浦东新区罗山路286号,121.562193,31.253727
MoMo花园萌宠互动亲子乐园(芳甸店),上海市浦东新区洋泾街道杨高中路2108号FOR天物空间A座5层A526室,121.563831,31.238245
天主教上海教区大金家巷圣母无原罪堂,上海市浦东新区紫槐路80号,121.567549,31.233958
泾西绿地,上海市浦东新区沈家弄路870弄2-11号,121.551964,31.244783
大英博物馆(LCM置汇旭辉广场店),上海市浦东新区LCM置汇旭辉广场一楼中庭,121.561675,31.249082
世纪春沁园,上海市浦东新区锦绣路1001号世纪公园内,121.56477,31.226339
馨园,上海市浦东新区栖山路100弄50～63号,121.551247,31.247501
华新人民公园,上海市青浦区华新镇华富街666号,121.234872,31.248162
圣堂庙,上海市嘉定区博园路与联西路交叉口西北方向100米,121.257891,31.268184
上海杨林寺,上海市青浦区华益村132号306室,121.253926,31.26195
封林浜天主堂,上海市青浦区华新镇华益村178号,121.252537,31.262984
听场,上海市青浦区华益路青浦区华益民办小学东南侧约160米,121.2405,31.261023
大圆通寺,上海市闵行区华漕镇纪翟路2779号,121.276682,31.24833
上海杨林寺,上海市青浦区华益村132号306室,121.253926,31.26195
封林浜天主堂,上海市青浦区华新镇华益村178号,121.252537,31.262984
圣堂庙,上海市嘉定区博园路与联西路交叉口西北方向100米,121.257891,31.268184
天主堂,上海市嘉定区联星村154号,121.273124,31.272525
大圆通寺,上海市闵行区华漕镇纪翟路2779号,121.276682,31.24833
中国股票博物馆,上海市嘉定区曹安公路3916号,121.281622,31.277052
天主堂,上海市嘉定区联星村154号,121.273124,31.272525
梅园,上海市闵行区纪高路与纪前路交叉路口往东北约170米,121.284073,31.247728
金鹤公园,上海市嘉定区金沙江西路2048号旁,121.32001,31.248225
梧桐美术馆,上海市嘉定区江桥镇金园四路258号,121.321173,31.266068
沈家祠堂,"上海市嘉定区金园八路55号(一席江南,近金园一路)",121.321454,31.261309
灵岩山房,上海市嘉定区江桥镇金园八路55号,121.321288,31.261268
梧桐美术馆,上海市嘉定区江桥镇金园四路258号,121.321173,31.266068
沈家祠堂,"上海市嘉定区金园八路55号(一席江南,近金园一路)",121.321454,31.261309
金鹤公园,上海市嘉定区金沙江西路2048号旁,121.32001,31.248225
灵岩山房,上海市嘉定区江桥镇金园八路55号,121.321288,31.261268
双桥公园,上海市嘉定区华江公路338号,121.343204,31.257274
嘉定历代山水画艺术陈列馆,上海市嘉定区海蓝路中星海兰苑东南侧约30米,121.344372,31.269544
上海秦古美术馆,上海市嘉定区曹安公路2888号,121.326696,31.271855
嘉定区文联山水画创作交流中心,上海市嘉定区海蓝路619号,121.34422,31.269473
百佛园,上海市嘉定区曹安路1978号,121.363831,31.262086
海波公园,上海市嘉定区海波路,121.348408,31.272013
万佛讲寺,上海市嘉定区江桥镇金沙江西路200号,121.350665,31.250177
双桥公园,上海市嘉定区华江公路338号,121.343204,31.257274
江桥镇生命堂,上海市嘉定区虞姬墩路32弄32号,121.35369,31.257463
雅丹园东方美食,上海市嘉定区江桥镇高潮路257号,121.340899,31.246857
嘉洲公园,上海市嘉定区陇南路华江中学西北侧约100米,121.34816,31.276602
四海壶具博物馆(曹安路分馆),上海市嘉定区曹安公路百佛园,121.363745,31.262167
吴觉农纪念馆,上海市嘉定区曹安公路1978号,121.363322,31.26191
入三摩地,上海市嘉定区江桥金沙江西路万佛讲寺,121.351036,31.248959
百佛园,上海市嘉定区曹安路1978号,121.363831,31.262086
未来岛公园,上海市普陀区绥德路603号,121.381498,31.271404
四海壶具博物馆(曹安路分馆),上海市嘉定区曹安公路百佛园,121.363745,31.262167
金沙绿地公园,丰庄路69号(近清峪路),121.365907,31.248825
吴觉农纪念馆,上海市嘉定区曹安公路1978号,121.363322,31.26191
中国茶圣博物馆,上海市嘉定区曹安公路1978号百佛园内,121.363755,31.262228
双河绿地,上海市嘉定区双河路388号,121.38563,31.262951
金沙公园-儿童游乐健身场地,上海市嘉定区金沙江路2892号宁泰连锁酒店金沙江路店,121.365056,31.248637
江桥镇生命堂,上海市嘉定区虞姬墩路32弄32号,121.35369,31.257463
嘉美绿地,祁连山南路与金鼎路交叉口东南150米,121.382734,31.263076
双河绿地,上海市嘉定区双河路388号,121.38563,31.262951
清涧公园,上海市普陀区金鼎路650号(近万镇路),121.388511,31.26417
未来岛公园,上海市普陀区绥德路603号,121.381498,31.271404
真光公园,上海市普陀区真光路1865号(近铜川路),121.39168,31.259674
真如公园,上海市普陀区真如镇街道大渡河路1894号(近铜川路),121.405774,31.259231
嘉美绿地,祁连山南路与金鼎路交叉口东南150米,121.382734,31.263076
祥和公园,上海市普陀区真光路1121号甲近梅川路,121.386273,31.247817
梅川梅花主题公园,上海市普陀区长征镇武宁路2361号(沪宁高速公路武宁路),121.399348,31.251011
海棠公园,上海市普陀区武宁路2520号(北横通道管理中心),121.396723,31.253144
杨家桥滨河绿地,上海市普陀区交通路4227-4229号,121.402904,31.270614
淞沪抗战十九路军军部遗址,上海市普陀区桃浦路127号(车站新村内),121.407512,31.266253
真如公园,上海市普陀区真如镇街道大渡河路1894号(近铜川路),121.405774,31.259231
真如古镇,上海市普陀区真如镇街道南石二路135号,121.409343,31.252403
真如寺,上海市普陀区兰溪路399号,121.407942,31.255561
万里城中央绿地,上海市普陀区万里名轩西北,121.41441,31.27366
曹杨公园,上海市普陀区枫桥路50号(近梅岭北路),121.415344,31.245903
梅川梅花主题公园,上海市普陀区长征镇武宁路2361号(沪宁高速公路武宁路),121.399348,31.251011
真光公园,上海市普陀区真光路1865号(近铜川路),121.39168,31.259674
兰溪青年公园,上海市普陀区兰溪路152号(近桂巷路),121.411357,31.246777
万里公园,上海市普陀区富平路与真华路交叉路口往西南约240米,121.414368,31.270943
普陀公园,上海市普陀区光复西路255号门卫,121.434122,31.25105
管弄公园,上海市普陀区管弄路29号(近华池路),121.434027,31.264067
苏州河梦清园环保主题公园,上海市普陀区宜昌路130号,121.446868,31.257273
真如寺,上海市普陀区兰溪路399号,121.407942,31.255561
甘泉公园,上海市普陀区西乡路100号,121.434896,31.273388
上海市基督教普安堂,上海市普陀区镇坪路152号,121.435996,31.256073
真如古镇,上海市普陀区真如镇街道南石二路135号,121.409343,31.252403
淞沪抗战十九路军军部遗址,上海市普陀区桃浦路127号(车站新村内),121.407512,31.266253
宜川公园,上海市普陀区宜川路99号(近洛川路),121.447124,31.266578
元代水闸遗址博物馆,上海市普陀区延长西路619号,121.436745,31.265938
苏州河梦清园环保主题公园,上海市普陀区宜昌路130号,121.446868,31.257273
玉佛禅寺,安远路170号,121.451536,31.247802
建民绿地公园,上海市普陀区交通路79号靠近中潭路地铁站,121.445682,31.261823
大鱼岛,上海市普陀区清水湾路苏州河梦清园环保主题公园,121.446592,31.257811
宜川公园,上海市普陀区宜川路99号(近洛川路),121.447124,31.266578
长寿公园,上海市普陀区长寿路260号,121.445865,31.249779
上海造币博物馆,上海市普陀区宜川路街道光复西路17号,121.442988,31.25525
甘泉公园,上海市普陀区西乡路100号,121.434896,31.273388
建民绿地公园-入口广场,上海市普陀区中山北路香溢花城东侧约70米,121.444823,31.261792
苏州河水上游览,上海市普陀区绿洲湾路中远两湾城-四期东南侧约70米,121.454939,31.256282
芷江绿地,上海市静安区共和新路与南北高架路交叉路口往西约50米,121.469632,31.262018
闸北公园,上海市静安区共和新路1555号,121.466369,31.276754
崇明森林旅游园区,上海市静安区芷江西路270弄8号,121.467599,31.263105
闸北天主堂,上海市静安区育婴堂路289号,121.473714,31.259638
苏州河梦清园环保主题公园,上海市普陀区宜昌路130号,121.446868,31.257273
上海铁路博物馆,上海市静安区北站街道天目东路200号,121.482822,31.255904
上海梅尔尼科夫美术馆,上海市静安区西藏北路1351号,121.471235,31.27052
顾正红纪念馆,上海市普陀区澳门路300号,121.448945,31.253441
湖州会馆,上海市静安区中兴路828号,121.477102,31.259642
Littletooth,上海市静安区中山北路北美公寓北侧约130米,121.46308,31.266393
四川北路公园,上海市虹口区四川北路1468号,121.491375,31.260594
上海铁路博物馆,上海市静安区北站街道天目东路200号,121.482822,31.255904
上海音乐谷,上海市虹口区溧阳路649号,121.497043,31.261951
上海邮政博物馆,上海市虹口区天潼路395号2楼(近四川北路),121.491381,31.25014
1933老场坊,上海市虹口区溧阳路611号,121.49833,31.260148
上海多伦现代美术馆,上海市虹口区多伦路27号,121.489636,31.267642
鲁迅公园,上海市虹口区四川北路2288号,121.490155,31.277476
上海四行仓库抗战纪念馆,上海市静安区北站街道光复路21号,121.478014,31.246317
瞿秋白故居,上海市虹口区山阴路一三三弄12号,121.491437,31.27185
上海报纸博物馆,上海市虹口区多伦路179号,121.488198,31.269115
北外滩滨江绿地,上海市虹口区东大名路558-678,121.507602,31.253507
东方明珠广播电视塔,上海市浦东新区世纪大道1号,121.506379,31.245414
历史保护建筑群,上海市虹口区高阳路243号,121.508259,31.258094
下海庙,上海市虹口区昆明路73号,121.513174,31.261159
1933老场坊,上海市虹口区溧阳路611号,121.49833,31.260148
上海犹太难民纪念馆,上海市虹口区长阳路62号,121.515776,31.259707
北外滩国客中心,上海市虹口区东大名路500号,121.507258,31.253268
上海音乐谷,上海市虹口区溧阳路649号,121.497043,31.261951
四川北路公园,上海市虹口区四川北路1468号,121.491375,31.260594
上海大洋海底世界(上海),上海市浦东新区陆家嘴环路1388号陆家嘴水族馆内(近东方明珠),121.5085,31.246055
惠民公园,上海市杨浦区惠民路724号,121.528622,31.264408
东方渔人码头,上海市杨浦区杨树浦路1088号,121.538842,31.257801
和平之后圣母堂(天主教上海教区),上海市杨浦区惠民路692号,121.527475,31.263869
下海庙,上海市虹口区昆明路73号,121.513174,31.261159
上海犹太难民纪念馆,上海市虹口区长阳路62号,121.515776,31.259707
第一难民中心旧址,上海市虹口区长阳路138弄4～18号,121.516632,31.260639
江浦公园,上海市杨浦区长阳路1111号明珠公寓,121.530635,31.271843
中国烟草博物馆,上海市杨浦区长阳路728号(近通北路),121.525044,31.267252
国歌纪念广场,上海市杨浦区荆州路151号,121.521088,31.263725
霍山公园,上海市虹口区霍山路118号(近舟山路),121.517695,31.259124
日商上海纺织株式会社旧址,上海市杨浦区杨树浦路2086-2号,121.552311,31.269288
世界技能博物馆,上海市杨浦区杨树浦路1578号,121.547888,31.261884
东方渔人码头,上海市杨浦区杨树浦路1088号,121.538842,31.257801
杨浦滨江,上海市杨浦区杨树浦路2086号,121.552402,31.269178
江浦公园,上海市杨浦区长阳路1111号明珠公寓,121.530635,31.271843
太平报恩寺,上海市杨浦区丹阳路169号,121.539548,31.262725
公共租界杨树浦救火会旧址,上海市杨浦区杨树浦路1307号,121.541714,31.260306
北外滩艺术区,上海市杨浦区杨树浦路2361弄,121.555636,31.272541
平凉公园,上海市杨浦区平凉路1738号,121.549105,31.272878
泾东公园,上海市浦东新区罗山路286号,121.562193,31.253727
阶梯的历史,上海市杨浦区定海路上海国际时尚中心,121.56561,31.275528
上海国际时尚中心,上海市杨浦区杨树浦路2866号,121.564765,31.276993
日商上海纺织株式会社旧址,上海市杨浦区杨树浦路2086-2号,121.552311,31.269288
杨浦滨江,上海市杨浦区杨树浦路2086号,121.552402,31.269178
北外滩艺术区,上海市杨浦区杨树浦路2361弄,121.555636,31.272541
李氏民宅,上海市浦东新区泾南路34号,121.561072,31.247388
金杨花园,上海市浦东新区金杨路311号(金口路口),121.583956,31.254424
泾东公园,上海市浦东新区罗山路286号,121.562193,31.253727
中国极地研究中心-极地科普馆,上海市浦东新区沪东新村街道金桥路451号,121.580557,31.269412
帆港公园,上海市浦东新区浦东大道2293号,121.560098,31.259724
福音堂,上海市嘉定区黄沈村284号,121.227002,31.28305
圣堂庙,上海市嘉定区博园路与联西路交叉口西北方向100米,121.257891,31.268184
协通博物馆,上海市曹安公路4671号,121.226086,31.280975
中国股票博物馆,上海市嘉定区曹安公路3916号,121.281622,31.277052
天主堂,上海市嘉定区联星村154号,121.273124,31.272525
西来庵,上海市嘉定区宝园二路与宝园七路交叉路口往东约220米,121.266218,31.292812
圣堂庙,上海市嘉定区博园路与联西路交叉口西北方向100米,121.257891,31.268184
中国股票博物馆,上海市嘉定区曹安公路3916号,121.281622,31.277052
天主堂,上海市嘉定区联星村154号,121.273124,31.272525
檀园,上海市嘉定区解放街230号,121.314494,31.29767
南翔老街,上海市嘉定区南翔镇解放街206号,121.314868,31.296946
南翔古镇,上海市嘉定区解放街206号,121.314913,31.296924
云翔寺,上海市嘉定区人民街100号,121.313506,31.297635
黄家花园,上海市嘉定区星火村民之家对面,121.323646,31.280196
鼓楼,上海市嘉定区人民街100号,121.313448,31.297249
基督教南翔真理堂,上海市嘉定区翔乐路58号,121.306903,31.297367
大势宝殿,上海市嘉定区人民街100号云翔寺内,121.313437,31.297099
陈君起纪念馆,上海市嘉定区和平街255号,121.316427,31.297847
南翔寺山门遗迹,上海市嘉定区南翔镇人民街48号南翔古镇,121.314395,31.29728
黄家花园,上海市嘉定区星火村民之家对面,121.323646,31.280196
银翔湖公园,上海市嘉定区南翔镇金迈路,121.333255,31.289248
古猗园,上海市嘉定区南翔镇沪宜公路218号,121.3229,31.297989
南翔古镇,上海市嘉定区解放街206号,121.314913,31.296924
梧桐美术馆,上海市嘉定区江桥镇金园四路258号,121.321173,31.266068
槎浦公园,上海市普陀区金迈路300号,121.336966,31.29348
松鹤园,上海市嘉定区南翔镇沪宜路218号古猗园内,121.322839,31.298533
青清园,上海市嘉定区南翔镇沪宜路218号古猗园内,121.32404,31.298046
个园,上海市嘉定区南翔镇沪宜路218号古猗园内,121.324644,31.298678
龟山湖,上海市嘉定区沪宜公路古猗园,121.323771,31.298446
普陀区体育公园,上海市普陀区金通路158号,121.349645,31.289568
银翔湖公园,上海市嘉定区南翔镇金迈路,121.333255,31.289248
崇真堂,上海市普陀区桃浦镇武威路1209号,121.352875,31.286922
海波公园,上海市嘉定区海波路,121.348408,31.272013
嘉洲公园,上海市嘉定区陇南路华江中学西北侧约100米,121.34816,31.276602
槎浦公园,上海市普陀区金迈路300号,121.336966,31.29348
桃浦堂,上海市普陀区绿杨路253号,121.35997,31.291201
槎浦公园-南区,上海市普陀区金迈路303号,121.337154,31.293211
槎浦公园(西区),上海市普陀区金迈路300号,121.336746,31.295122
槎浦公园(北区),上海市普陀区金迈路300号,121.336957,31.294272
普陀区体育公园,上海市普陀区金通路158号,121.349645,31.289568
桃浦中央绿地,上海市普陀区常和路288-3号楼附近,121.378941,31.287259
未来岛公园,上海市普陀区绥德路603号,121.381498,31.271404
崇真堂,上海市普陀区桃浦镇武威路1209号,121.352875,31.286922
韩塔园,上海市普陀区敦煌路683号,121.378052,31.289724
桃浦中央绿地-B区,上海市普陀区常和路288-3号楼附近桃浦中央绿地内,121.379874,31.288836
缘园,上海市普陀区桃浦九州通大酒店南(山丹路东),121.368631,31.289932
桃浦堂,上海市普陀区绿杨路253号,121.35997,31.291201
木桩乐园,上海市普陀区常和路288-3号楼附近桃浦中央绿地内,121.381332,31.289217
垂柳岛,上海市普陀区常和路288-3号楼附近桃浦中央绿地内,121.380583,31.28889
桃浦中央绿地,上海市普陀区常和路288-3号楼附近,121.378941,31.287259
未来岛公园,上海市普陀区绥德路603号,121.381498,31.271404
桃浦公园,上海市普陀区桃浦西路1018号,121.398636,31.286361
桃浦中央绿地-B区,上海市普陀区常和路288-3号楼附近桃浦中央绿地内,121.379874,31.288836
韩塔园,上海市普陀区敦煌路683号,121.378052,31.289724
木桩乐园,上海市普陀区常和路288-3号楼附近桃浦中央绿地内,121.381332,31.289217
上海市基督教普安堂李子园聚会点,上海市普陀区真南路822弄521支弄70号101-102室,121.391022,31.286198
杨家桥滨河绿地,上海市普陀区交通路4227-4229号,121.402904,31.270614
沈寿昌墓址纪念碑,上海市普陀区真南路500号同济大学内,121.39569,31.278743
垂柳岛,上海市普陀区常和路288-3号楼附近桃浦中央绿地内,121.380583,31.28889
大华行知公园,上海市宝山区真华路1105号,121.416677,31.283997
淞沪抗战十九路军军部遗址,上海市普陀区桃浦路127号(车站新村内),121.407512,31.266253
万里城中央绿地,上海市普陀区万里名轩西北,121.41441,31.27366
桃浦公园,上海市普陀区桃浦西路1018号,121.398636,31.286361
陶行知纪念馆,上海市宝山区大华三路与真华路交叉路口往西约170米,121.416073,31.282788
波比一号丛林探险儿童乐园(上海奥特莱店),上海市宝山区大华二路268号奥特莱折扣工厂店3楼(电梯到处),121.419437,31.278637
万里公园,上海市普陀区富平路与真华路交叉路口往西南约240米,121.414368,31.270943
杨家桥滨河绿地,上海市普陀区交通路4227-4229号,121.402904,31.270614
国立暨南大学旧址,上海市普陀区富平路中央绿地(南区),121.414432,31.271892
沈寿昌墓址纪念碑,上海市普陀区真南路500号同济大学内,121.39569,31.278743
华灵公园,上海市宝山区华灵路780号,121.429202,31.284296
大华梦公园,上海市宝山区华灵路大华,121.42899,31.283209
甘泉公园,上海市普陀区西乡路100号,121.434896,31.273388
大华行知公园,上海市宝山区真华路1105号,121.416677,31.283997
万里城中央绿地,上海市普陀区万里名轩西北,121.41441,31.27366
波比一号丛林探险儿童乐园(上海奥特莱店),上海市宝山区大华二路268号奥特莱折扣工厂店3楼(电梯到处),121.419437,31.278637
陶行知纪念馆,上海市宝山区大华三路与真华路交叉路口往西约170米,121.416073,31.282788
大宁公园罗马广场,上海市静安区广中西路288号,121.44704,31.280352
沪太公园,上海市普陀区新村路37号(近沪太路),121.445402,31.27404
永和公园,上海市静安区原平路702号临,121.438938,31.296573
大宁公园罗马广场,上海市静安区广中西路288号,121.44704,31.280352
闸北公园,上海市静安区共和新路1555号,121.466369,31.276754
大宁郁金香公园-主峰观景,上海市静安区广中西路288号,121.448382,31.282747
湿地,上海市静安区广中西路288号大宁灵石公园内,121.449666,31.281721
EVA初号机,上海市静安区万荣路1056号,121.448241,31.296937
甘泉公园,上海市普陀区西乡路100号,121.434896,31.273388
飞瀑帘洞,上海市静安区广中西路288号,121.444446,31.281434
白沙滩,上海市静安区广中西路288号大宁灵石公园内,121.452567,31.28418
大宁公园广场,上海市静安区广中西路,121.44308,31.280903
星期五火车模型,上海市静安区万荣路406号,121.450342,31.279499
闸北公园,上海市静安区共和新路1555号,121.466369,31.276754
广粤运动公园,广粤路51-1号,121.471386,31.287247
上海梅尔尼科夫美术馆,上海市静安区西藏北路1351号,121.471235,31.27052
铜雀台,上海市静安区灵石路巨丰商务广场,121.453193,31.289688
白沙滩,上海市静安区广中西路288号大宁灵石公园内,121.452567,31.28418
大宁公园罗马广场,上海市静安区广中西路288号,121.44704,31.280352
济世湖,上海市虹口区同心路977号,121.47725,31.280401
湿地,上海市静安区广中西路288号大宁灵石公园内,121.449666,31.281721
闸北公园-钱氏宗祠,上海市静安区共和新路1555号闸北公园内,121.466661,31.276874
星期五火车模型,上海市静安区万荣路406号,121.450342,31.279499
鲁迅公园,上海市虹口区四川北路2288号,121.490155,31.277476
清净斋,广灵一路3号,121.483036,31.283689
鲁迅纪念馆,上海市虹口区甜爱路200号,121.490442,31.275505
瞿秋白故居,上海市虹口区山阴路一三三弄12号,121.491437,31.27185
曲阳公园,上海市虹口区中山北一路880号,121.492883,31.2929
上海报纸博物馆,上海市虹口区多伦路179号,121.488198,31.269115
鲁迅墓,上海市虹口区四川北路2288号鲁迅公园内,121.489253,31.27791
上海多伦现代美术馆,上海市虹口区多伦路27号,121.489636,31.267642
广粤运动公园,广粤路51-1号,121.471386,31.287247
上海梅尔尼科夫美术馆,上海市静安区西藏北路1351号,121.471235,31.27052
和平公园,上海市虹口区天宝路891号,121.509619,31.2764
鲁迅公园,上海市虹口区四川北路2288号,121.490155,31.277476
松鹤公园,上海市杨浦区抚顺路240号,121.520964,31.285975
四平科技公园,上海市杨浦区四平路1777号近中山北二路,121.512791,31.293276
深海探索馆,上海市杨浦区四平路1230号,121.514253,31.285672
鲁迅墓,上海市虹口区四川北路2288号鲁迅公园内,121.489253,31.27791
鲁迅纪念馆,上海市虹口区甜爱路200号,121.490442,31.275505
法善庵,上海市杨浦区政本路338号国科路政本路,121.52179,31.291283
瞿秋白故居,上海市虹口区山阴路一三三弄12号,121.491437,31.27185
曲阳公园,上海市虹口区中山北一路880号,121.492883,31.2929
松鹤公园,上海市杨浦区抚顺路240号,121.520964,31.285975
和平公园,上海市虹口区天宝路891号,121.509619,31.2764
江浦公园,上海市杨浦区长阳路1111号明珠公寓,121.530635,31.271843
杨浦公园,上海市杨浦区双阳路399号,121.542675,31.286465
法善庵,上海市杨浦区政本路338号国科路政本路,121.52179,31.291283
深海探索馆,上海市杨浦区四平路1230号,121.514253,31.285672
中国烟草博物馆,上海市杨浦区长阳路728号(近通北路),121.525044,31.267252
鸿美术馆,上海市杨浦区黄兴路1818号海上财智商务中心办公楼南座11层,121.526633,31.297984
四平科技公园,上海市杨浦区四平路1777号近中山北二路,121.512791,31.293276
机器人公园,上海市杨浦区江浦路1536号临,121.52435,31.282757
杨浦公园,上海市杨浦区双阳路399号,121.542675,31.286465
上海国际时尚中心,上海市杨浦区杨树浦路2866号,121.564765,31.276993
中国近现代新闻出版博物馆,上海市杨浦区周家嘴路3678号,121.549762,31.284746
上海印刷博物馆,上海市杨浦区水丰路100号,121.549743,31.288501
江浦公园,上海市杨浦区长阳路1111号明珠公寓,121.530635,31.271843
杨浦公园游乐场,上海市杨浦区隆昌路681号杨浦公园内,121.544634,31.286608
日商上海纺织株式会社旧址,上海市杨浦区杨树浦路2086-2号,121.552311,31.269288
北外滩艺术区,上海市杨浦区杨树浦路2361弄,121.555636,31.272541
内江公园,上海市杨浦区控江路261号,121.551421,31.29315
杨浦公园-豪华转马,上海市杨浦区双阳路369号杨浦公园内,121.544567,31.285957
复兴岛公园,上海市杨浦区共青路386号,121.568112,31.292898
上海国际时尚中心,上海市杨浦区杨树浦路2866号,121.564765,31.276993
北外滩艺术区,上海市杨浦区杨树浦路2361弄,121.555636,31.272541
阶梯的历史,上海市杨浦区定海路上海国际时尚中心,121.56561,31.275528
密丰绒线厂旧址,上海市杨浦区波阳路400号,121.560515,31.280488
波阳公园,上海市杨浦区波阳路200号,121.558037,31.278617
内江公园,上海市杨浦区控江路261号,121.551421,31.29315
平凉公园,上海市杨浦区平凉路1738号,121.549105,31.272878
裕丰纺织株式会社旧址,上海市杨浦区杨树浦路2836号,121.563089,31.277129
杨浦滨江,上海市杨浦区杨树浦路2086号,121.552402,31.269178
颂恩堂,上海市嘉定区安亭镇陆家巷众百南路605号,121.253074,31.30486
颂恩堂,上海市嘉定区安亭镇陆家巷众百南路605号,121.253074,31.30486
西来庵,上海市嘉定区宝园二路与宝园七路交叉路口往东约220米,121.266218,31.292812
基督教南翔真理堂,上海市嘉定区翔乐路58号,121.306903,31.297367
泰山体育产业集团上海博物馆,上海市嘉定区惠平路与嘉美路交叉路口往东南约100米,121.289161,31.30837
檀园,上海市嘉定区解放街230号,121.314494,31.29767
南翔老街,上海市嘉定区南翔镇解放街206号,121.314868,31.296946
南翔古镇,上海市嘉定区解放街206号,121.314913,31.296924
云翔寺,上海市嘉定区人民街100号,121.313506,31.297635
鼓楼,上海市嘉定区人民街100号,121.313448,31.297249
释凡美术馆,上海市嘉定区沪宜公路1188弄3号楼,121.308698,31.303664
古猗园,上海市嘉定区南翔镇沪宜公路218号,121.3229,31.297989
基督教南翔真理堂,上海市嘉定区翔乐路58号,121.306903,31.297367
新材料博物馆,上海市嘉定区沪宜公路1082号艺谷文化创意产业园9号楼,121.311071,31.300887
天主教上海教区南翔露德圣母堂,上海市嘉定区真南路5215号,121.310188,31.305764
古猗园,上海市嘉定区南翔镇沪宜公路218号,121.3229,31.297989
南翔老街,上海市嘉定区南翔镇解放街206号,121.314868,31.296946
石韵馆,上海市嘉定区南翔镇沪宜路218号古猗园内,121.324874,31.299515
檀园,上海市嘉定区解放街230号,121.314494,31.29767
南翔古镇,上海市嘉定区解放街206号,121.314913,31.296924
云翔寺,上海市嘉定区人民街100号,121.313506,31.297635
人口文化公园,上海市嘉定区瑞林路柯玛仕庄园东侧约40米,121.326748,31.306343
金地百亩公园,上海市嘉定区南翔镇卢尔公寓,121.327936,31.306028
古猗庄园,上海市嘉定区真南路3911号,121.336686,31.300252
松鹤园,上海市嘉定区南翔镇沪宜路218号古猗园内,121.322839,31.298533
普陀区体育公园,上海市普陀区金通路158号,121.349645,31.289568
古猗庄园,上海市嘉定区真南路3911号,121.336686,31.300252
银翔湖公园,上海市嘉定区南翔镇金迈路,121.333255,31.289248
崇真堂,上海市普陀区桃浦镇武威路1209号,121.352875,31.286922
外环林带普陀区新杨养护段,上海市普陀区红柳路518号,121.362609,31.305133
金地百亩公园,上海市嘉定区南翔镇卢尔公寓,121.327936,31.306028
槎浦公园,上海市普陀区金迈路300号,121.336966,31.29348
华棣和盛科技园,上海市普陀区柳华路55号2楼B16号,121.35916,31.304944
桃浦堂,上海市普陀区绿杨路253号,121.35997,31.291201
槎浦公园-南区,上海市普陀区金迈路303号,121.337154,31.293211
外环林带普陀区新杨养护段,上海市普陀区红柳路518号,121.362609,31.305133
华棣和盛科技园,上海市普陀区柳华路55号2楼B16号,121.35916,31.304944
韩塔园,上海市普陀区敦煌路683号,121.378052,31.289724
桃浦中央绿地-B区,上海市普陀区常和路288-3号楼附近桃浦中央绿地内,121.379874,31.288836
桃浦堂,上海市普陀区绿杨路253号,121.35997,31.291201
缘园,上海市普陀区桃浦九州通大酒店南(山丹路东),121.368631,31.289932
木桩乐园,上海市普陀区常和路288-3号楼附近桃浦中央绿地内,121.381332,31.289217
垂柳岛,上海市普陀区常和路288-3号楼附近桃浦中央绿地内,121.380583,31.28889
山顶瞭望台,上海市普陀区常和路288-3号楼附近桃浦中央绿地内,121.380359,31.29004
瞭望塔,上海市普陀区常和路288-3号楼附近桃浦中央绿地内,121.380819,31.291389
桃浦中央绿地,上海市普陀区常和路288-3号楼附近,121.378941,31.287259
桃浦中央绿地-B区,上海市普陀区常和路288-3号楼附近桃浦中央绿地内,121.379874,31.288836
韩塔园,上海市普陀区敦煌路683号,121.378052,31.289724
祁连花园,上海市宝山区祁连山路2478号,121.386175,31.315714
梧桐树影视露营亲子庄园(大华店),上海市宝山区环镇南路858弄东门岗188号,121.406427,31.302376
木桩乐园,上海市普陀区常和路288-3号楼附近桃浦中央绿地内,121.381332,31.289217
垂柳岛,上海市普陀区常和路288-3号楼附近桃浦中央绿地内,121.380583,31.28889
山顶瞭望台,上海市普陀区常和路288-3号楼附近桃浦中央绿地内,121.380359,31.29004
瞭望塔,上海市普陀区常和路288-3号楼附近桃浦中央绿地内,121.380819,31.291389
上海市基督教普安堂李子园聚会点,上海市普陀区真南路822弄521支弄70号101-102室,121.391022,31.286198
梧桐树影视露营亲子庄园(大华店),上海市宝山区环镇南路858弄东门岗188号,121.406427,31.302376
上海木文化博物馆,上海市宝山区沪太路2751号,121.418427,31.316102
桃浦公园,上海市普陀区桃浦西路1018号,121.398636,31.286361
基督教大场堂,上海市宝山区大场镇沪太支路1225号,121.426532,31.306423
基督教堂,上海市宝山区真北路3777弄337号,121.408337,31.292494
旭日东升,上海市宝山区上大阳光乾宁园东南(上大路南),121.411256,31.31634
上海青少年动漫科普馆,上海市宝山区汶水路1718号1楼,121.422337,31.293505
阳进,上海市宝山区环镇北路上大阳光乾恩园南侧约30米,121.41096,31.313928
上海艺术馆博物馆联盟,上海市宝山区沪太路上海木文化博物馆,121.418482,31.315868
中国乳业博物馆,上海市静安区江场西路1550号彭浦镇科技园内,121.427954,31.301052
宝华寺,上海市静安区高平路1000号(近江场西路),121.434655,31.303419
上海木文化博物馆,上海市宝山区沪太路2751号,121.418427,31.316102
基督教大场堂,上海市宝山区大场镇沪太支路1225号,121.426532,31.306423
永和公园,上海市静安区原平路702号临,121.438938,31.296573
华灵公园,上海市宝山区华灵路780号,121.429202,31.284296
梧桐树影视露营亲子庄园(大华店),上海市宝山区环镇南路858弄东门岗188号,121.406427,31.302376
上海少年村旧址,上海市少年村路500号,121.43569,31.307186
上海青少年动漫科普馆,上海市宝山区汶水路1718号1楼,121.422337,31.293505
建筑模型博物馆,上海市静安区江场三路191号风语筑设计大楼9楼,121.44508,31.299959
EVA初号机,上海市静安区万荣路1056号,121.448241,31.296937
建筑模型博物馆,上海市静安区江场三路191号风语筑设计大楼9楼,121.44508,31.299959
宝华寺,上海市静安区高平路1000号(近江场西路),121.434655,31.303419
永和公园,上海市静安区原平路702号临,121.438938,31.296573
彭浦公园,上海市静安区场中路2150号(近共和新路),121.453846,31.310884
铜雀台,上海市静安区灵石路巨丰商务广场,121.453193,31.289688
彭浦四季公园,上海市静安区临汾路1568号,121.442701,31.316969
遇见博物馆(上海静安馆),上海市静安区汶水路210号静安新业坊3幢,121.451692,31.297582
静安中环公园,上海市静安区共和新路3050号,121.455765,31.29956
中国乳业博物馆,上海市静安区江场西路1550号彭浦镇科技园内,121.427954,31.301052
EVA初号机,上海市静安区万荣路1056号,121.448241,31.296937
市北绿地,上海市静安区奎照路1242号(寿阳路与江场路交叉口),121.463453,31.305419
广粤运动公园,广粤路51-1号,121.471386,31.287247
凉城公园,上海市虹口区凉城路800号,121.478386,31.30401
蟠曲舫,上海市虹口区万安路景瑞花园西南侧,121.484202,31.306406
彭浦公园,上海市静安区场中路2150号(近共和新路),121.453846,31.310884
铜雀台,上海市静安区灵石路巨丰商务广场,121.453193,31.289688
上海金属玩具博物馆,上海市虹口区凉城路1315号,121.477468,31.311279
静安中环公园,上海市静安区共和新路3050号,121.455765,31.29956
江湾基督教堂,上海市虹口区水电路1717号,121.48304,31.310669
蟠曲舫,上海市虹口区万安路景瑞花园西南侧,121.484202,31.306406
奎星阁,上海市虹口区万安路文新小区南侧约200米,121.48646,31.306332
曲阳公园,上海市虹口区中山北一路880号,121.492883,31.2929
江湾源,上海市虹口区万安路新市南路口(近丰镇路),121.488015,31.306921
江湾公园,上海市虹口区新市北路1505号,121.48847,31.311632
凉城公园,上海市虹口区凉城路800号,121.478386,31.30401
淞沪铁路江湾站旧址,上海市广纪路567号(近汶水路),121.4899,31.297747
拜太岁,上海市虹口区万安路381-1号临,121.489667,31.307697
燕园,上海市杨浦区邯郸路220号复旦大学邯郸校区(南四门)附近,121.507464,31.301837
上海金属玩具博物馆,上海市虹口区凉城路1315号,121.477468,31.311279
燕园,上海市杨浦区邯郸路220号复旦大学邯郸校区(南四门)附近,121.507464,31.301837
复旦大学-校史馆(邯郸校区),上海市杨浦区邯郸路220号,121.506896,31.301962
复旦大学-博物馆,上海市杨浦区邯郸路220号复旦大学(邯郸校区)登辉环路200号楼文博系楼2楼(近国权路),121.506054,31.302361
华东人民革命大学旧址,上海市杨浦区邯郸路220号复旦大学(邯郸校区)内,121.507156,31.301935
复旦大学(邯郸校区)-主席像,上海市杨浦区邯郸路220号复旦大学(邯郸校区)内,121.510125,31.303207
曲阳公园,上海市虹口区中山北一路880号,121.492883,31.2929
同济大学附属上海市肺科医院-叶家花园,上海市杨浦区政民路507号同济大学附属上海市肺科医院叶家花园,121.508826,31.310023
复旦大学(邯郸校区)-蔡冠深人文馆,上海市杨浦区邯郸路220号,121.505809,31.302732
鸿美术馆,上海市杨浦区黄兴路1818号海上财智商务中心办公楼南座11层,121.526633,31.297984
四平科技公园,上海市杨浦区四平路1777号近中山北二路,121.512791,31.293276
黄兴公园,上海市杨浦区营口路639号,121.536425,31.299442
黄兴铜像,上海市杨浦区国顺东路369号黄兴公园内,121.536154,31.301226
鸿美术馆,上海市杨浦区黄兴路1818号海上财智商务中心办公楼南座11层,121.526633,31.297984
法善庵,上海市杨浦区政本路338号国科路政本路,121.52179,31.291283
上海基督教沪东堂,上海市杨浦区国和路350号,121.525464,31.314038
松鹤公园,上海市杨浦区抚顺路240号,121.520964,31.285975
四平科技公园,上海市杨浦区四平路1777号近中山北二路,121.512791,31.293276
同济大学附属上海市肺科医院-叶家花园,上海市杨浦区政民路507号同济大学附属上海市肺科医院叶家花园,121.508826,31.310023
燕园,上海市杨浦区邯郸路220号复旦大学邯郸校区(南四门)附近,121.507464,31.301837
转动地球仪,上海市杨浦区营口路699号黄兴公园内,121.534486,31.299709
黄兴公园,上海市杨浦区营口路639号,121.536425,31.299442
上海海洋大学-博物馆,上海市杨浦区军工路318号,121.563074,31.292621
黄兴铜像,上海市杨浦区国顺东路369号黄兴公园内,121.536154,31.301226
鸿美术馆,上海市杨浦区黄兴路1818号海上财智商务中心办公楼南座11层,121.526633,31.297984
内江公园,上海市杨浦区控江路261号,121.551421,31.29315
上海印刷博物馆,上海市杨浦区水丰路100号,121.549743,31.288501
杨浦公园,上海市杨浦区双阳路399号,121.542675,31.286465
森林火车,上海市杨浦区国顺东路369号黄兴公园内,121.538389,31.301202
延春公园,上海市杨浦区营口路20号(近靖宇东路),121.542239,31.294323
黄兴公园站,上海市杨浦区营口路延吉幼儿园(营口路)西南侧约30米,121.540048,31.301621
复兴岛公园,上海市杨浦区共青路386号,121.568112,31.292898
思裴堂,上海市杨浦区军工路516号上海理工大学三宿舍,121.563208,31.300146
毛主席像,上海市杨浦区湛恩大道上海理工大学,121.562784,31.298796
内江公园,上海市杨浦区控江路261号,121.551421,31.29315
上海海洋大学-博物馆,上海市杨浦区军工路318号,121.563074,31.292621
上海理工大学校史博物馆,上海市杨浦区军工路470号,121.560345,31.301488
东沟公园,上海市浦东新区浦东北路1200弄,121.584115,31.302506
馥赉堂,上海市杨浦区湛恩大道上海理工大学,121.563934,31.298762
基督教沪东堂长白聚会点,上海市杨浦区长白路127号,121.550967,31.295102
杏雅亭,上海市杨浦区控江路261号内江公园,121.551613,31.292979
古树公园,上海市嘉定区安亭镇光明村泰海路230号,121.25151,31.32131
千年古银杏,上海市嘉定区安辰路与泰云支路交叉路口往南约120米,121.252117,31.321509
舒海浴场,上海市嘉定区方陆路151号,121.233606,31.321726
泰裕坊,上海市嘉定区安亭镇星明村泰富路方泰小学东南,121.226778,31.323762
古树公园,上海市嘉定区安亭镇光明村泰海路230号,121.25151,31.32131
千年古银杏,上海市嘉定区安辰路与泰云支路交叉路口往南约120米,121.252117,31.321509
鹏新嘉定海洋世界,上海市嘉定区马陆镇阿克苏路66弄6号,121.280216,31.334406
游乐世界,上海市嘉定区马陆镇宝安公路3548号,121.28099,31.333228
泰迪熊主题成长乐园,上海市嘉定区阿克苏路63弄3号楼1~2层,121.278693,31.334029
核心价值观,上海市嘉定区崇文西路骏丰玲珑坊西苑西南侧,121.279008,31.324174
亭,上海市嘉定区宝安公路深城投十一街区,121.280658,31.33412
马陆公园,上海市嘉定区马陆镇育英街455号近沪宜公路,121.285382,31.331964
鹏新嘉定海洋世界,上海市嘉定区马陆镇阿克苏路66弄6号,121.280216,31.334406
核心价值观,上海市嘉定区崇文西路骏丰玲珑坊西苑西南侧,121.279008,31.324174
游乐世界,上海市嘉定区马陆镇宝安公路3548号,121.28099,31.333228
亭,上海市嘉定区宝安公路深城投十一街区,121.280658,31.33412
泰迪熊主题成长乐园,上海市嘉定区阿克苏路63弄3号楼1~2层,121.278693,31.334029
泰山体育产业集团上海博物馆,上海市嘉定区惠平路与嘉美路交叉路口往东南约100米,121.289161,31.30837
南翔留云湖法治文化公园,上海市嘉定区芳林路浩翔路路口,121.316356,31.319453
留云湖,上海市嘉定区芳林路菁英湖风情公园,121.315584,31.318648
高尔夫公馆,上海市嘉定区栖林路265弄2号楼601,121.32543,31.314095
天主教上海教区南翔露德圣母堂,上海市嘉定区真南路5215号,121.310188,31.305764
白金果岭,芳林路888号栖林路255弄,121.323613,31.313954
高尔夫公馆,上海市嘉定区栖林路265弄2号楼601,121.32543,31.314095
桃园池,上海市嘉定区静唐路阳光苑-二区北侧约80米,121.329889,31.321072
留云湖,上海市嘉定区芳林路菁英湖风情公园,121.315584,31.318648
南翔留云湖法治文化公园,上海市嘉定区芳林路浩翔路路口,121.316356,31.319453
金地百亩公园,上海市嘉定区南翔镇卢尔公寓,121.327936,31.306028
连飞生态园,上海市嘉定区浏翔公路1618号,121.328657,31.330144
人口文化公园,上海市嘉定区瑞林路柯玛仕庄园东侧约40米,121.326748,31.306343
红十字博爱公园,上海市嘉定区芳林路555弄,121.326986,31.306366
白金果岭,芳林路888号栖林路255弄,121.323613,31.313954
南翔水生态公园,上海市嘉定区南翔镇顺丰路168号,121.341042,31.336497
连飞生态园,上海市嘉定区浏翔公路1618号,121.328657,31.330144
基督教葑塘堂,上海市宝山区大场镇锦秋路2320号,121.367842,31.32178
桃园池,上海市嘉定区静唐路阳光苑-二区北侧约80米,121.329889,31.321072
上海嘉定水环境科普馆,上海市嘉定区顺丰路,121.342831,31.335672
基督教葑塘堂,上海市宝山区大场镇锦秋路2320号,121.367842,31.32178
上海金皇讲寺,上海市宝山区丰宝路350号,121.377675,31.320477
外环林带普陀区新杨养护段,上海市普陀区红柳路518号,121.362609,31.305133
祁连花园,上海市宝山区祁连山路2478号,121.386175,31.315714
孔雀东南飞-看台,上海市宝山区顾村镇沪太路4788号顾村公园内,121.366768,31.339968
东方鸟世界-白冠长尾雉,上海市宝山区顾村镇沪太路4788号顾村公园内,121.368541,31.34
游禽综合园,上海市宝山区顾村镇沪太路4788号顾村公园内,121.367649,31.339903
东方鸟世界-白鹇,上海市宝山区顾村镇沪太路4788号顾村公园三号门内东方鸟世界,121.368643,31.339944
东方鸟世界-孔雀东南飞,上海市宝山区沪太路4788号,121.36682,31.339876
祁连花园,上海市宝山区祁连山路2478号,121.386175,31.315714
永福庵,上海市宝山区南陈路351弄2号环镇北路南陈路,121.404611,31.323603
上海金皇讲寺,上海市宝山区丰宝路350号,121.377675,31.320477
祁连公园,上海市宝山区华秋路东150米,121.386472,31.333348
梅园,上海市宝山区泮池北路上海大学(宝山校区),121.397546,31.323284
基督教葑塘堂,上海市宝山区大场镇锦秋路2320号,121.367842,31.32178
南无观世音菩萨,上海市宝山区南陈路上海大学宝山校区东侧,121.404341,31.323145
钱伟长纪念馆,上海市宝山区南陈路333号上海大学东区钱伟长图书馆3F,121.40618,31.320157
永福庵,上海市宝山区南陈路351弄2号环镇北路南陈路,121.404611,31.323603
钱伟长纪念馆,上海市宝山区南陈路333号上海大学东区钱伟长图书馆3F,121.40618,31.320157
上海木文化博物馆,上海市宝山区沪太路2751号,121.418427,31.316102
南无观世音菩萨,上海市宝山区南陈路上海大学宝山校区东侧,121.404341,31.323145
中华手杖博物馆,上海市宝山区大场镇沪太路2999号国家文化产业基地7号楼,121.417074,31.321821
梅园,上海市宝山区泮池北路上海大学(宝山校区),121.397546,31.323284
中国木文化博览园,上海市宝山区沪太路2751号,121.417254,31.319212
旭日东升,上海市宝山区上大阳光乾宁园东南(上大路南),121.411256,31.31634
中国景泰蓝博物馆,上海市宝山区沪太路2999弄7号,121.415547,31.3218
尊木汇上海木文化博览园徽州古宅,上海市尊木汇国际艺术广场,121.417611,31.319581
上海木文化博物馆,上海市宝山区沪太路2751号,121.418427,31.316102
庙行公园,上海市宝山区刘场路611号,121.435528,31.331711
彭浦四季公园,上海市静安区临汾路1568号,121.442701,31.316969
共和公园,上海市宝山区场北路408号,121.435928,31.33475
中华手杖博物馆,上海市宝山区大场镇沪太路2999号国家文化产业基地7号楼,121.417074,31.321821
灵泉堂,上海市静安区临汾路1555号,121.444951,31.316422
中国木文化博览园,上海市宝山区沪太路2751号,121.417254,31.319212
基督教大场堂,上海市宝山区大场镇沪太支路1225号,121.426532,31.306423
尊木汇上海木文化博览园徽州古宅,上海市尊木汇国际艺术广场,121.417611,31.319581
中国景泰蓝博物馆,上海市宝山区沪太路2999弄7号,121.415547,31.3218
三泉公园,上海市彭浦新村街道保德路1238弄18号6层601室,121.453594,31.321766
彭浦四季公园,上海市静安区临汾路1568号,121.442701,31.316969
岭南公园,上海市静安区汾西路600号,121.462931,31.320787
灵泉堂,上海市静安区临汾路1555号,121.444951,31.316422
彭浦公园,上海市静安区场中路2150号(近共和新路),121.453846,31.310884
庙行公园,上海市宝山区刘场路611号,121.435528,31.331711
共和公园,上海市宝山区场北路408号,121.435928,31.33475
太仓恒大文化旅游城,上海市宝山区一二八纪念路万达广场(上海宝山店),121.452436,31.330136
晓游园,通河路326-328号附近,121.454619,31.337453
东茭泾公园,上海市静安区临汾路1565弄小区西北侧约30米,121.442625,31.31647
岭南公园,上海市静安区汾西路600号,121.462931,31.320787
三泉公园,上海市彭浦新村街道保德路1238弄18号6层601室,121.453594,31.321766
彩虹湾公园,上海市虹口区安汾路610号,121.483711,31.320905
阳泉公园,上海市宝山区阳泉路1401号,121.471227,31.332825
彭浦公园,上海市静安区场中路2150号(近共和新路),121.453846,31.310884
上海金属玩具博物馆,上海市虹口区凉城路1315号,121.477468,31.311279
孟家宅天主堂,上海市宝山区阳泉路1295号,121.471512,31.331602
江湾基督教堂,上海市虹口区水电路1717号,121.48304,31.310669
太仓恒大文化旅游城,上海市宝山区一二八纪念路万达广场(上海宝山店),121.452436,31.330136
大华公园(城市丽景街),上海市静安区汾西路88弄,121.473317,31.319915
彩虹湾公园,上海市虹口区安汾路610号,121.483711,31.320905
江湾公园,上海市虹口区新市北路1505号,121.48847,31.311632
高境庙,上海市宝山区殷高西路高境纪念广场,121.49104,31.326586
蟠曲舫,上海市虹口区万安路景瑞花园西南侧,121.484202,31.306406
江湾源,上海市虹口区万安路新市南路口(近丰镇路),121.488015,31.306921
阳泉公园,上海市宝山区阳泉路1401号,121.471227,31.332825
上海金属玩具博物馆,上海市虹口区凉城路1315号,121.477468,31.311279
江湾基督教堂,上海市虹口区水电路1717号,121.48304,31.310669
启程之旅火车模型主题馆,上海市宝山区三门路561号复旦软件园3C01室,121.494832,31.318511
拜太岁,上海市虹口区万安路381-1号临,121.489667,31.307697
安徒生童话乐园,新江湾城国泓路200号,121.517837,31.329548
同济大学附属上海市肺科医院-叶家花园,上海市杨浦区政民路507号同济大学附属上海市肺科医院叶家花园,121.508826,31.310023
上海江湾清真寺,上海市杨浦区政府路86号,121.522338,31.31512
上海基督教沪东堂,上海市杨浦区国和路350号,121.525464,31.314038
复旦校友俱乐部,上海市杨浦区闸殷路830号,121.523935,31.326468
高境庙,上海市宝山区殷高西路高境纪念广场,121.49104,31.326586
安徒生博物馆,上海市杨浦区国泓路安徒生童话乐园内,121.519598,31.329321
上海商学博物馆,上海市杨浦区国定路777号上海财经大学内,121.508879,31.311559
金锁桥,上海市杨浦区政民路507号同济大学附属上海市肺科医院叶家花园,121.509189,31.31036
沙漠历险,上海市杨浦区新江湾城国泓路200号安徒生童话乐园内,121.519858,31.329898
安徒生童话乐园,新江湾城国泓路200号,121.517837,31.329548
复旦校友俱乐部,上海市杨浦区闸殷路830号,121.523935,31.326468
旧上海特别市政府,上海市杨浦区长海路399号上海体育学院内,121.532081,31.319017
民星公园,上海市杨浦区嫩江路1111号(近中原路),121.541134,31.320106
上海江湾清真寺,上海市杨浦区政府路86号,121.522338,31.31512
中国武术博物馆,上海市杨浦区长海路399号上海体育学院综合馆内,121.534415,31.320091
上海基督教沪东堂,上海市杨浦区国和路350号,121.525464,31.314038
工农公园,上海市杨浦区包头路929号,121.544216,31.331939
黑山绿地,上海市杨浦区黑山路幼儿园南侧,121.5295,31.312513
安徒生博物馆,上海市杨浦区国泓路安徒生童话乐园内,121.519598,31.329321
共青国家森林公园,上海市杨浦区军工路2000号,121.55837,31.325265
硕园,上海市杨浦区市光一村68甲,121.541962,31.322351
中国武术博物馆,上海市杨浦区长海路399号上海体育学院综合馆内,121.534415,31.320091
旧上海特别市政府,上海市杨浦区长海路399号上海体育学院内,121.532081,31.319017
民星公园,上海市杨浦区嫩江路1111号(近中原路),121.541134,31.320106
过山车,上海市杨浦区军工路2000号共青森林公园内,121.553285,31.325383
晴岚桥,上海市杨浦区军工路2000号共青森林公园内,121.556618,31.324603
勇敢者道路,上海市杨浦区军工路2000号共青森林公园内,121.552819,31.324793
森林小火车,上海市杨浦区军工路2000号共青森林公园内,121.553337,31.326284
电动船,上海市杨浦区军工路2000号共青森林公园内,121.55969,31.328962
共青国家森林公园,上海市杨浦区军工路2000号,121.55837,31.325265
浦江揽胜,上海市杨浦区军工路2000号共青国家森林公园,121.564141,31.323497
竹溪桥,上海市杨浦区嫩江路105号万竹园,121.562532,31.321596
风雨桥,上海市杨浦区军工路2000号共青森林公园内,121.562477,31.324309
万竹园,上海市杨浦区嫩江路105号,121.562436,31.321076
丝竹镇,上海市杨浦区嫩江路105号万竹园内,121.563222,31.321705
电动船,上海市杨浦区军工路2000号共青森林公园内,121.55969,31.328962
晴岚桥,上海市杨浦区军工路2000号共青森林公园内,121.556618,31.324603
观鸟长廊,上海市杨浦区嫩江路共青国家森林公园,121.561043,31.322334
过山车,上海市杨浦区军工路2000号共青森林公园内,121.553285,31.325383
紫气东来公园,上海市嘉定区天祝路紫气东来体育公园内正北方向100米,121.253254,31.348433
越野公园,上海市嘉定区伊宁路2000号,121.231992,31.339986
嘉定新城荷花基地,上海市嘉定区温泉路嘉宝梦之星华庭西侧约100米,121.240946,31.35602
冠军花园,上海市嘉定区伊宁路2000号上海国际赛车场内,121.23611,31.339253
紫气东来公园,上海市嘉定区天祝路紫气东来体育公园内正北方向100米,121.253254,31.348433
石冈门塘休闲公园,上海市嘉定区希望路358弄与伊宁路交叉路口往西约140米,121.273213,31.35018
儿童拓展公园,上海市嘉定区裕民南路与伊宁路路口,121.273211,31.350208
世界酒博物馆,上海市嘉定区白银路288弄77号台北风情街506室,121.268503,31.359504
鹏新嘉定海洋世界,上海市嘉定区马陆镇阿克苏路66弄6号,121.280216,31.334406
泰迪熊主题成长乐园,上海市嘉定区阿克苏路63弄3号楼1~2层,121.278693,31.334029
齐聚文化科技公馆,上海市嘉定区白银路333弄58号,121.267015,31.356789
游乐世界,上海市嘉定区马陆镇宝安公路3548号,121.28099,31.333228
泰迪熊森林主题乐园,上海市嘉定区马陆镇台北风情街白银路288弄台北风情街2楼217铺,121.267552,31.359295
天鹅舞雕像,上海市嘉定区阿克苏路大卫国际大厦东北侧约60米,121.267168,31.354247
马陆公园,上海市嘉定区马陆镇育英街455号近沪宜公路,121.285382,31.331964
鹏新嘉定海洋世界,上海市嘉定区马陆镇阿克苏路66弄6号,121.280216,31.334406
石冈门塘休闲公园,上海市嘉定区希望路358弄与伊宁路交叉路口往西约140米,121.273213,31.35018
儿童拓展公园,上海市嘉定区裕民南路与伊宁路路口,121.273211,31.350208
泰迪熊主题成长乐园,上海市嘉定区阿克苏路63弄3号楼1~2层,121.278693,31.334029
游乐世界,上海市嘉定区马陆镇宝安公路3548号,121.28099,31.333228
上海台楚,上海市嘉定区马陆镇宝安公路2940号,121.302431,31.341892
亭,上海市嘉定区宝安公路深城投十一街区,121.280658,31.33412
上海台楚,上海市嘉定区马陆镇宝安公路2940号,121.302431,31.341892
嘉定区基督教马陆聚会所,上海市嘉定区马陆镇浏翔公路2068号,121.322721,31.349504
宁波慈溪,上海市嘉定区博学南路盛元达物流园,121.319586,31.344377
廖家礽烈士墓,上海市嘉定区沈石路与育绿路交叉路口往南约90米,121.310986,31.351423
嘉定新城(马陆镇)烈士纪念展馆,上海市嘉定区沈石路与育绿路交叉路口往南约90米,121.310928,31.351431
北管村休闲公园,上海市嘉定区北陈路与思义路交叉路口往东约120米,121.329114,31.343301
马陆法治主题公园,上海市嘉定区马陆镇思义路746号,121.329095,31.343349
嘉定区基督教马陆聚会所,上海市嘉定区马陆镇浏翔公路2068号,121.322721,31.349504
南翔水生态公园,上海市嘉定区南翔镇顺丰路168号,121.341042,31.336497
连飞生态园,上海市嘉定区浏翔公路1618号,121.328657,31.330144
宁波慈溪,上海市嘉定区博学南路盛元达物流园,121.319586,31.344377
上海嘉定水环境科普馆,上海市嘉定区顺丰路,121.342831,31.335672
廖家礽烈士墓,上海市嘉定区沈石路与育绿路交叉路口往南约90米,121.310986,31.351423
传松开单室,上海市嘉定区美建路与育绿东路交叉口附近,121.323755,31.358137
草庵庙,上海市嘉定区科福路398号,121.344228,31.343105
草庵庙,上海市嘉定区科福路398号,121.344228,31.343105
南翔水生态公园,上海市嘉定区南翔镇顺丰路168号,121.341042,31.336497
北管村休闲公园,上海市嘉定区北陈路与思义路交叉路口往东约120米,121.329114,31.343301
广福寺,上海市宝山区宝满路18号,121.348461,31.356152
悦林湖,上海市宝山区顾村镇沪太路4788号顾村公园内,121.364909,31.34313
上海嘉定水环境科普馆,上海市嘉定区顺丰路,121.342831,31.335672
马陆法治主题公园,上海市嘉定区马陆镇思义路746号,121.329095,31.343349
孔雀东南飞-看台,上海市宝山区顾村镇沪太路4788号顾村公园内,121.366768,31.339968
樱花品种园,上海市宝山区顾村镇沪太路4788号顾村公园内,121.364931,31.344004
盛开的'花'雕塑,上海市宝山区顾村镇沪太路4788号顾村公园,121.363827,31.343156
顾村公园,上海市宝山区顾村镇沪太路4788号,121.376489,31.34461
望湖林,上海市宝山区顾村镇沪太路4788号顾村公园,121.367812,31.341967
悦林湖,上海市宝山区顾村镇沪太路4788号顾村公园内,121.364909,31.34313
鹦鹉世界,上海市宝山区顾村镇沪太路4788号顾村公园内,121.368852,31.340942
东方鸟世界,上海市宝山区顾村镇沪太路4788号顾村公园三号门内,121.369476,31.341216
自然谷恐龙园,上海市宝山区沪太路4788号(地铁7号线顾村公园站),121.377566,31.34668
顾村水上运动基地,上海市宝山区沪太路4788号,121.36795,31.342738
悦林小院,上海市宝山区顾村镇沪太路4788号顾村公园,121.368125,31.342398
鸬鹚湾,上海市宝山区顾村镇沪太路4788号顾村公园三号门内东方鸟世界,121.367724,31.341191
月季园,上海市宝山区顾村镇沪太路4788号顾村公园内,121.36844,31.342562
顾村公园,上海市宝山区顾村镇沪太路4788号,121.376489,31.34461
青龙桥,上海市宝山区顾村镇沪太路4788号顾村公园内,121.384916,31.345274
郊野森林园,上海市宝山区顾村镇沪太路4788号顾村公园内,121.387035,31.349694
东方鸟世界,上海市宝山区顾村镇沪太路4788号顾村公园三号门内,121.369476,31.341216
祁连公园,上海市宝山区华秋路东150米,121.386472,31.333348
上海宝山国际民间艺术博览馆,上海市宝山区沪太路4788号,121.395604,31.35046
自然谷恐龙园,上海市宝山区沪太路4788号(地铁7号线顾村公园站),121.377566,31.34668
顾村公园国际射箭中心,上海市宝山区顾村公园2号门内(顾村公园2号门悦林大道右转200米),121.38019,31.349154
恐龙世界,上海市宝山区沪太路4788号,121.380268,31.348972
儿童嘉年华赏樱区,上海市宝山区陆翔路顾村公园,121.380021,31.346034
荷花淀,上海市宝山区顾村镇沪太路4788号顾村公园内,121.389439,31.350151
拉美厅,上海市宝山区沪太路4788号上海宝山国际民间艺术博览馆(近顾村公园一号门),121.395207,31.350518
上海宝山国际民间艺术博览馆,上海市宝山区沪太路4788号,121.395604,31.35046
萧泾寺传说,上海市宝山区沪太路4788号上海宝山国际民间艺术博览馆(近顾村公园一号门),121.395482,31.35043
欧美厅,上海市宝山区沪太路4788号上海宝山国际民间艺术博览馆(近顾村公园一号门),121.395119,31.350297
江南水乡模型,上海市宝山区沪太路4788号上海宝山国际民间艺术博览馆(近顾村公园一号门),121.395692,31.35015
紫藤阁,上海市宝山区顾村镇沪太路4788号顾村公园内,121.38911,31.348273
宝山说唱,上海市宝山区沪太路4788号上海宝山国际民间艺术博览馆(近顾村公园一号门),121.395584,31.350123
广福桥,上海市宝山区顾村镇沪太路4788号顾村公园内,121.388418,31.349722
建工林,上海市宝山区外环高速顾村公园,121.388743,31.347191
智力公园,呼兰西路3号(近长临路(智力产业园旁)),121.440069,31.346729
共和公园,上海市宝山区场北路408号,121.435928,31.33475
庙行公园,上海市宝山区刘场路611号,121.435528,31.331711
中国3D打印文化博物馆,上海市宝山区蕰川路6号智慧湾科创园内,121.441368,31.350643
3D打印混凝土步行桥,上海市宝山区蕰川路6号智慧湾科创园内,121.440469,31.349369
蕰藻浜滨水步道,上海市宝山区共和新路智力公园东北侧,121.44108,31.347952
FUNTOGETHER体育公园,上海市宝山区蕴川路6号,121.442156,31.35012
共和公园碉堡,上海市宝山区场北路408临,121.435471,31.338133
庙行公园-碉堡,上海市宝山区刘场路647号,121.435156,31.331676
智力公园,呼兰西路3号(近长临路(智力产业园旁)),121.440069,31.346729
泗塘公园,上海市宝山区爱晖路710号,121.45654,31.344763
中国3D打印文化博物馆,上海市宝山区蕰川路6号智慧湾科创园内,121.441368,31.350643
虎林园,上海市宝山区呼兰路700号,121.461396,31.350485
共和公园,上海市宝山区场北路408号,121.435928,31.33475
晓游园,通河路326-328号附近,121.454619,31.337453
庙行公园,上海市宝山区刘场路611号,121.435528,31.331711
蕰藻浜滨水步道,上海市宝山区共和新路智力公园东北侧,121.44108,31.347952
3D打印混凝土步行桥,上海市宝山区蕰川路6号智慧湾科创园内,121.440469,31.349369
太仓恒大文化旅游城,上海市宝山区一二八纪念路万达广场(上海宝山店),121.452436,31.330136
上海玻璃博物馆,宝山区长江西路685号(近钢四路),121.478617,31.349808
基督教施恩堂,上海市宝山区张庙街道泗塘一村7号,121.462745,31.34476
泗塘公园,上海市宝山区爱晖路710号,121.45654,31.344763
虎林园,上海市宝山区呼兰路700号,121.461396,31.350485
阳泉公园,上海市宝山区阳泉路1401号,121.471227,31.332825
后工业生态景观公园,上海市宝山区长江西路101号,121.483003,31.351687
晓游园,通河路326-328号附近,121.454619,31.337453
孟家宅天主堂,上海市宝山区阳泉路1295号,121.471512,31.331602
太仓恒大文化旅游城,上海市宝山区一二八纪念路万达广场(上海宝山店),121.452436,31.330136
上海玻璃博物馆·展览厅,长江西路685号,121.478162,31.349245
上海玻璃博物馆,宝山区长江西路685号(近钢四路),121.478617,31.349808
淞南公园,上海市宝山区淞良路300号,121.49338,31.346714
后工业生态景观公园,上海市宝山区长江西路101号,121.483003,31.351687
中国工业设计博物馆,上海市宝山区逸仙路3000号3号楼2层,121.503405,31.345952
阳泉公园,上海市宝山区阳泉路1401号,121.471227,31.332825
上海钢雕公园,上海市宝山区长江西路101号,121.486622,31.352069
淞南寺,上海市宝山区淞南路四五九弄27临,121.498498,31.352607
高境庙,上海市宝山区殷高西路高境纪念广场,121.49104,31.326586
孟家宅天主堂,上海市宝山区阳泉路1295号,121.471512,31.331602
上海玻璃博物馆·展览厅,长江西路685号,121.478162,31.349245
安徒生童话乐园,新江湾城国泓路200号,121.517837,31.329548
中国工业设计博物馆,上海市宝山区逸仙路3000号3号楼2层,121.503405,31.345952
新江湾城公园,上海市杨浦区政和路与国秀路交叉口北200米,121.519887,31.339149
淞南公园,上海市宝山区淞良路300号,121.49338,31.346714
成美术馆,上海市宝山区长江路258号,121.502587,31.355439
淞南寺,上海市宝山区淞南路四五九弄27临,121.498498,31.352607
复旦明溪植物园,上海市杨浦区淞沪路2005号(近国帆路)复旦大学(江湾新校区)内,121.517635,31.343395
安徒生博物馆,上海市杨浦区国泓路安徒生童话乐园内,121.519598,31.329321
沙漠历险,上海市杨浦区新江湾城国泓路200号安徒生童话乐园内,121.519858,31.329898
逸仙公园,上海市宝山区淞军路与淞湾路交叉路口往西北约120米,121.518386,31.352069
安徒生童话乐园,新江湾城国泓路200号,121.517837,31.329548
新江湾城公园,上海市杨浦区政和路与国秀路交叉口北200米,121.519887,31.339149
复旦明溪植物园,上海市杨浦区淞沪路2005号(近国帆路)复旦大学(江湾新校区)内,121.517635,31.343395
复旦校友俱乐部,上海市杨浦区闸殷路830号,121.523935,31.326468
湖心岛,上海市杨浦区政和路与国秀路交叉口北200米新江湾城公园,121.519896,31.340245
安徒生博物馆,上海市杨浦区国泓路安徒生童话乐园内,121.519598,31.329321
沙漠历险,上海市杨浦区新江湾城国泓路200号安徒生童话乐园内,121.519858,31.329898
国立音乐专科学校旧址,上海市杨浦区民京路918号,121.530164,31.32887
逸仙公园,上海市宝山区淞军路与淞湾路交叉路口往西北约120米,121.518386,31.352069
弗雷的秋千,上海市杨浦区新江湾城国泓路200号安徒生童话乐园内,121.519526,31.329868
电动船,上海市杨浦区军工路2000号共青森林公园内,121.55969,31.328962
工农公园,上海市杨浦区包头路929号,121.544216,31.331939
过山车,上海市杨浦区军工路2000号共青森林公园内,121.553285,31.325383
森林小火车,上海市杨浦区军工路2000号共青森林公园内,121.553337,31.326284
海盗船,上海市杨浦区军工路2000号共青森林公园内,121.554469,31.328836
松涛瀑布,上海市杨浦区军工路2000号共青森林公园内,121.561169,31.33027
水森林湿地,上海市杨浦区军工路2000号共青国家森林公园,121.554147,31.326279
电动滑道,上海市杨浦区军工路2000号共青森林公园内,121.553599,31.326091
海战船,上海市杨浦区军工路2000号共青森林公园内,121.558145,31.328731
秋林爱晚,上海市杨浦区军工路2000号共青森林公园内,121.558935,31.328513
高桥公园,上海市浦东新区花山路482号,121.578915,31.352079
电动船,上海市杨浦区军工路2000号共青森林公园内,121.55969,31.328962
高桥新城荷兰风情小镇,上海市浦东新区莱阳路4288号,121.584787,31.34426
海盗船,上海市杨浦区军工路2000号共青森林公园内,121.554469,31.328836
松涛瀑布,上海市杨浦区军工路2000号共青森林公园内,121.561169,31.33027
高桥公园-游乐场,上海市浦东新区张杨北路5655号,121.579673,31.351244
秋林爱晚,上海市杨浦区军工路2000号共青森林公园内,121.558935,31.328513
松涛幽谷,上海市杨浦区军工路2000号共青森林公园内,121.56105,31.329539
海战船,上海市杨浦区军工路2000号共青森林公园内,121.558145,31.328731
太平天国烈士墓,上海市浦东新区草高支路1000号,121.571264,31.356927
