name,address,lng,lat
X017,上海市松江区,121.296805,31.011612
闵塔路,上海市松江区,121.217138,30.986032
闵塔公路,上海市松江区,121.271657,30.985228
松金公路,上海市,121.244288,30.961093
利丰河桥,上海市松江区,121.244979,30.979394
联民中心路,上海市松江区,121.250852,30.991637
盐平公路,上海市松江区,121.236087,30.981137
玉阳路,上海市松江区,121.234064,30.993461
富永路,上海市松江区,121.229279,31.002907
富强路,上海市松江区,121.239589,30.999354
洞泾港桥,上海市松江区,121.266298,30.984753
松卫北路,上海市,121.271204,30.997083
闵塔公路,上海市松江区,121.271657,30.985228
松浦三桥,上海市松江区,121.271573,30.962582
南乐路,上海市松江区,121.271956,30.987602
欣浪路,上海市松江区,121.283991,31.001629
福卫路,上海市松江区,121.273632,30.975006
官联公路,上海市松江区,121.265813,30.989432
闵塔路,上海市松江区,121.217138,30.986032
联梅路,上海市松江区,121.274742,30.996865
欣浪路,上海市松江区,121.283991,31.001629
华泖路,上海市松江区,121.287555,30.99038
松卫北路,上海市,121.271204,30.997083
南乐路,上海市松江区,121.271956,30.987602
车阳路,上海市松江区,121.27065,30.992367
松浦三桥,上海市松江区,121.271573,30.962582
华泖公路,上海市松江区,121.286666,30.98947
福卫路,上海市松江区,121.273632,30.975006
长福公路,上海市松江区,121.275478,30.968736
泾车路,上海市松江区,121.301322,30.997311
旺盛路,上海市松江区,121.308893,30.986721
松浦大桥,上海市松江区,121.32143,30.971355
车阳路,上海市松江区,121.27065,30.992367
薛亭路,上海市松江区,121.299328,30.985204
引水路,上海市松江区,121.313714,30.98297
西堆场路,上海市松江区,121.316018,30.979689
旺市路,上海市松江区,121.308304,30.988124
泾车路,上海市松江区,121.301322,30.997311
车水公路,上海市松江区,121.322434,30.969369
兴茂路,上海市松江区,121.309532,30.987745
引水公路,上海市松江区,121.327896,30.985859
松浦大桥,上海市松江区,121.316325,30.979622
引水路,上海市松江区,121.318747,30.983544
江川路,上海市闵行区,121.383156,31.001051
东兴公路,上海市松江区,121.338548,30.97065
车水公路,上海市松江区,121.323384,30.967315
新桥公路,上海市松江区,121.328337,30.964846
求城路,上海市松江区,121.328596,30.974189
大桥公路,上海市松江区,121.319348,30.967035
西堆场路,上海市松江区,121.305846,30.974919
江川路,上海市闵行区,121.376621,30.999176
东兴公路,上海市松江区,121.337481,30.9827
东勤公路,上海市松江区,121.363095,30.977206
西畴路,上海市闵行区,121.360742,30.989075
引水公路,上海市松江区,121.328984,30.986868
陆家桥,上海市松江区,121.34961,30.975252
荷巷桥路,上海市闵行区,121.356547,30.997761
费家桥,上海市松江区,121.34992,30.972896
广场路,上海市闵行区,121.342877,30.998544
江川路2199弄,上海市闵行区,121.354158,30.991732
千步泾防汛通道桥,上海市奉贤区,121.366033,30.981851
西畴路,上海市闵行区,121.360742,30.989075
祥云路,上海市闵行区,121.374316,30.991321
闵江路,上海市闵行区,121.368169,30.993356
荷巷桥路,上海市闵行区,121.356547,30.997761
新张路,上海市奉贤区,121.37781,30.971052
金泾港桥,上海市奉贤区,121.377038,30.976214
东杨路,上海市松江区,121.355367,30.970475
江川路2199弄,上海市闵行区,121.354158,30.991732
彭江路,上海市闵行区,121.36555,30.99196
浦卫公路辅路,上海市奉贤区,121.38973,30.977371
闵浦三桥,上海市,121.382762,30.988162
祥云路,上海市闵行区,121.374316,30.991321
江薛路,上海市闵行区,121.378356,30.997757
北环路,上海市奉贤区,121.384308,30.964838
巨潮港桥,上海市奉贤区,121.382782,30.983116
北耀路,上海市奉贤区,121.392328,30.968114
庄胡路,上海市奉贤区,121.391159,30.983949
邬桥友谊路,上海市奉贤区,121.395147,30.971854
新张路,上海市奉贤区,121.37781,30.971052
浦耀路,上海市奉贤区,121.407046,30.977727
南沙港桥,上海市奉贤区,121.403103,30.982967
浦秀中心路,上海市奉贤区,121.415601,30.973823
渔汇路,上海市奉贤区,121.400302,30.979974
安邬路,上海市奉贤区,121.404767,30.96597
安东路,上海市奉贤区,121.409162,30.968811
光辉河桥,上海市奉贤区,121.41123,30.987923
北环路,上海市奉贤区,121.384308,30.964838
灯北路,上海市奉贤区,121.431246,30.977087
北横路,上海市奉贤区,121.405211,30.986898
灯北路,上海市奉贤区,121.431246,30.977087
灯塔中心路,上海市奉贤区,121.425915,30.979683
展发路,上海市奉贤区,121.438699,30.975884
闵浦二桥,上海市,121.436709,31.000606
兴中路,上海市奉贤区,121.434911,30.993163
袁家宅路,上海市奉贤区,121.445565,30.979841
肖塘路,上海市奉贤区,121.441839,30.96827
鸿程路,上海市奉贤区,121.430805,30.992768
马家宅路,上海市奉贤区,121.438218,30.973344
展发二支路,上海市奉贤区,121.441608,30.976648
郭家村桥,上海市奉贤区,121.4447,30.981877
港和路,上海市奉贤区,121.448791,30.982822
闵浦二桥,上海市,121.436709,31.000606
美宝路,上海市奉贤区,121.459368,30.991793
扶港路,上海市奉贤区,121.454117,30.983873
肖玻路,上海市奉贤区,121.449396,30.97619
展发二支路,上海市奉贤区,121.441608,30.976648
袁家宅路,上海市奉贤区,121.445565,30.979841
奉金路,上海市奉贤区,121.44859,30.978586
沪杭公路辅路,上海市奉贤区,121.438154,30.997225
肖梅路,上海市奉贤区,121.467879,30.983329
美宝路,上海市奉贤区,121.457258,30.991155
奉金路,上海市奉贤区,121.44748,30.978172
叶梅路,上海市奉贤区,121.472725,30.980377
亿松路,上海市奉贤区,121.457272,30.986486
金大路,上海市奉贤区,121.4623,30.985715
扶港路,上海市奉贤区,121.456092,30.978002
汇丰北路,上海市奉贤区,121.482683,30.976755
华松路,上海市奉贤区,121.460304,30.990372
益民中心路,上海市奉贤区,121.490812,30.989258
宏伟河桥,上海市奉贤区,121.487482,30.981988
新民港路,上海市奉贤区,121.479877,30.99217
岚丰路,上海市奉贤区,121.489877,30.973192
嘉园路,上海市奉贤区,121.499798,30.97371
北横河桥,上海市奉贤区,121.482204,30.981825
汇丰北路,上海市奉贤区,121.474949,30.975769
博丰路,上海市奉贤区,121.500536,30.969417
丽丰路,上海市奉贤区,121.476124,30.978014
新民路,上海市奉贤区,121.491623,30.987072
庆园路,上海市奉贤区,121.496121,30.964819
金碧路,上海市,121.514135,30.973011
金汇港桥,上海市奉贤区,121.503328,30.982806
嘉园路,上海市奉贤区,121.499798,30.97371
金汇中街,上海市奉贤区,121.50772,30.993978
金汇工业路,上海市奉贤区,121.513053,30.996952
贤浦路,上海市奉贤区,121.516845,30.979429
北行路,上海市奉贤区,121.52492,30.976404
博丰路,上海市奉贤区,121.500536,30.969417
庵港桥,上海市奉贤区,121.522352,30.985298
汇二路,上海市奉贤区,121.52198,30.978888
新强路,上海市奉贤区,121.532799,30.976167
北行路,上海市奉贤区,121.52492,30.976404
金碧路,上海市,121.514135,30.973011
贤浦路,上海市奉贤区,121.516845,30.979429
汇二路,上海市奉贤区,121.52198,30.978888
南行港路,上海市奉贤区,121.497802,30.971936
金建路,上海市奉贤区,121.517083,30.982228
汇中路,上海市奉贤区,121.507221,30.994324
新强港桥,上海市奉贤区,121.53266,30.981811
南行路,上海市奉贤区,121.514686,30.969244
沿浦公路,上海市,121.544447,30.997501
泰西路,上海市奉贤区,121.560185,30.980669
新强路,上海市奉贤区,121.532799,30.976167
汇中路,上海市奉贤区,121.507221,30.994324
西星港路,上海市奉贤区,121.55432,30.982345
大叶公路与日新路交叉口,上海市奉贤区,121.545224,30.982835
明星路,上海市奉贤区,121.549023,30.991227
陆厍二组排河桥,上海市奉贤区,121.555193,30.968978
西新港桥,上海市奉贤区,121.554228,30.983948
康强路,上海市奉贤区,121.554789,30.973967
泰叶路,上海市奉贤区,121.567669,30.98491
泰青公路,上海市奉贤区,121.575964,30.959326
振泰路,上海市奉贤区,121.569423,30.987012
泰西路,上海市奉贤区,121.560185,30.980669
大昌路,上海市奉贤区,121.569467,30.986753
大昌南路,上海市奉贤区,121.569611,30.985764
沿浦公路,上海市,121.544447,30.997501
明星路,上海市奉贤区,121.549023,30.991227
新建路,上海市奉贤区,121.569889,30.989241
汇泰路,上海市奉贤区,121.604855,30.992619
大涨泾桥,上海市松江区,121.245149,30.985355
普照路,上海市松江区,121.246644,31.00807
金玉路,上海市松江区,121.218954,31.000628
松汇中路,上海市松江区,121.236046,31.009925
谷阳南路,上海市松江区,121.243625,31.00889
袜子弄,上海市松江区,121.248152,31.017027
中山中路,上海市松江区,121.235541,31.012664
富强路,上海市松江区,121.239589,30.999354
梅园路,上海市松江区,121.243251,31.002957
松江环城路,上海市松江区,121.262122,31.013141
申牛路,上海市松江区,121.265671,31.007634
联梅路,上海市松江区,121.274742,30.996865
香亭路,上海市松江区,121.280347,31.004295
南乐路,上海市松江区,121.271956,30.987602
松江环城路,上海市松江区,121.262122,31.013141
荣福路,上海市松江区,121.276968,30.998966
环城路,上海市松江区,121.258236,31.016498
中山东路,上海市松江区,121.272282,31.017731
松汇东路,上海市松江区,121.253608,31.008355
官联公路,上海市松江区,121.265813,30.989432
泖泾港桥,上海市松江区,121.286581,31.001553
北松公路,上海市,121.266601,31.00799
香泖路,上海市松江区,121.288413,31.003143
泖亭路,上海市松江区,121.295476,31.001779
南乐路,上海市松江区,121.271956,30.987602
香泾路,上海市松江区,121.295629,30.99513
香闵路,上海市松江区,121.300062,31.000662
荣福路,上海市松江区,121.276968,30.998966
车阳路,上海市松江区,121.27065,30.992367
欣浪路,上海市松江区,121.283991,31.001629
车亭公路,上海市,121.311675,30.995888
北闵路,上海市松江区,121.306202,31.008875
香车路,上海市松江区,121.29893,31.007178
北松公路,上海市,121.266601,31.00799
香闵路,上海市松江区,121.300062,31.000662
车阳路,上海市松江区,121.27065,30.992367
车业路,上海市松江区,121.308978,31.009471
车峰路,上海市松江区,121.326476,31.019446
泖亭路,上海市松江区,121.295476,31.001779
香泾路,上海市松江区,121.295629,30.99513
车峰路,上海市松江区,121.325641,31.010942
车亭公路,上海市,121.311643,31.003474
江川路,上海市闵行区,121.383156,31.001051
影佳路,上海市松江区,121.314636,31.013919
汇北支路,上海市松江区,121.323781,31.003106
车峰公路三二五弄,上海市松江区,121.327142,31.01421
影视路,上海市松江区,121.322493,31.019612
西小浜桥,上海市松江区,121.328879,31.005879
引水公路,上海市松江区,121.327896,30.985859
高桥村俞塘,上海市松江区,121.317298,31.00835
王家里路,上海市闵行区,121.346229,30.999131
江川路,上海市闵行区,121.376621,30.999176
广场路,上海市闵行区,121.342877,30.998544
汇江路,上海市闵行区,121.349088,31.009826
民仙路,上海市闵行区,121.347376,30.999168
西畴路,上海市闵行区,121.360742,30.989075
吴家里路,上海市闵行区,121.347342,30.998699
荷巷桥路,上海市闵行区,121.356547,30.997761
紫东路,上海市闵行区,121.36512,31.020924
民高路,上海市闵行区,121.34151,30.998048
绥江路,上海市闵行区,121.367923,31.003985
高田路,上海市闵行区,121.378955,31.002944
天宁路,上海市闵行区,121.371167,31.011286
碧溪路,上海市闵行区,121.36834,31.008722
祥云路,上海市闵行区,121.372804,30.995216
西畴路,上海市闵行区,121.359906,30.99337
江城路,上海市闵行区,121.371971,31.009162
天星路,上海市闵行区,121.377555,31.004868
昆阳路,上海市闵行区,121.37095,31.02909
江薛路,上海市闵行区,121.37812,30.998422
丽江路,上海市闵行区,121.387062,31.001556
高田路,上海市闵行区,121.378955,31.002944
南谷路,上海市闵行区,121.385186,31.005146
南雅路,上海市闵行区,121.390985,31.008476
南沙路,上海市闵行区,121.392341,31.004803
大姚路,上海市闵行区,121.391913,31.000429
大关路,上海市闵行区,121.392451,31.002063
文井路,上海市闵行区,121.388607,31.007962
江薛路,上海市闵行区,121.378356,30.997757
兰村路,上海市闵行区,121.390194,31.008278
华宁南路,上海市闵行区,121.406135,31.003794
宾川路,上海市闵行区,121.41977,31.010343
瑞丽路,上海市闵行区,121.414984,31.01305
菱川路,上海市闵行区,121.400907,31.002923
鹤庆路,上海市闵行区,121.4209,31.014049
碧江路,上海市闵行区,121.408951,31.013417
景谷路,上海市闵行区,121.415965,31.021343
临沧支路,上海市闵行区,121.400527,31.000727
临沧路,上海市闵行区,121.394685,31.007292
碧藤路,上海市闵行区,121.408203,31.011598
建设路,上海市闵行区,121.43,31.004952
兰坪路,上海市闵行区,121.424204,31.013259
华坪路,上海市闵行区,121.427286,31.00629
沿浦路,上海市奉贤区,121.431842,30.997237
鹤庆路,上海市闵行区,121.4209,31.014049
浦江路,上海市闵行区,121.431001,31.003667
瑞丽路,上海市闵行区,121.414984,31.01305
宾川路,上海市闵行区,121.41977,31.010343
新闵路,上海市闵行区,121.435809,31.010003
沿江路,上海市奉贤区,121.438731,31.002582
西闸公路,上海市奉贤区,121.431647,30.990529
美宝路,上海市奉贤区,121.459368,30.991793
浦南路,上海市奉贤区,121.448436,31.005959
西闸支路,上海市奉贤区,121.448698,30.999636
沿江路,上海市奉贤区,121.438731,31.002582
X421,上海市,121.473,31.007728
闸园路,上海市奉贤区,121.439214,30.998962
扶兰路,上海市奉贤区,121.443445,30.998334
扶兰支路,上海市奉贤区,121.447292,30.996373
兰坪路,上海市闵行区,121.424204,31.013259
白庙港路,上海市奉贤区,121.47078,31.003629
西闸公路,上海市奉贤区,121.431647,30.990529
美宝路,上海市奉贤区,121.459368,30.991793
虹梅南路隧道,上海市,121.481056,31.006779
潘家堂路,上海市奉贤区,121.47602,31.00339
华松路,上海市奉贤区,121.449098,30.986016
亿松路,上海市奉贤区,121.459309,30.987104
南渡村路,上海市奉贤区,121.464261,31.006221
刘大路,上海市奉贤区,121.462002,30.990003
叶梅路,上海市奉贤区,121.471761,30.983826
中心河桥,上海市奉贤区,121.489603,31.004449
虹梅南路隧道,上海市,121.481056,31.006779
五宅路,上海市奉贤区,121.489874,31.004889
益北路,上海市奉贤区,121.494466,30.987872
金庄公路,上海市奉贤区,121.484482,30.995614
Y668,上海市奉贤区,121.482986,31.000608
新民港路,上海市奉贤区,121.479877,30.99217
金庄公路辅路,上海市奉贤区,121.48483,30.995847
金海公路辅路,上海市奉贤区,121.483551,30.997904
西闸公路桥,上海市奉贤区,121.498631,31.010083
汇北河桥,上海市奉贤区,121.505727,31.00286
金闸公路,上海市奉贤区,121.510077,30.98434
金汇工业路,上海市奉贤区,121.522476,30.997517
金发路,上海市奉贤区,121.514486,30.99969
迎金路,上海市奉贤区,121.518674,31.003084
金汇中街,上海市奉贤区,121.509182,30.994075
锦日路,上海市奉贤区,121.513413,30.998694
金汇西街,上海市奉贤区,121.505617,30.993822
金汇东街,上海市奉贤区,121.511309,30.994222
辉煌路,上海市奉贤区,121.513247,31.005856
金聚路,上海市奉贤区,121.524893,31.00397
江艇路,上海市奉贤区,121.525753,31.002981
辉煌路,上海市奉贤区,121.507601,31.004216
金斗路,上海市奉贤区,121.529205,31.001225
金闸公路,上海市奉贤区,121.510541,30.995505
汇中路,上海市奉贤区,121.507221,30.994324
永南路,上海市,121.522796,31.011271
鼎金路,上海市奉贤区,121.520945,31.007218
迎金路,上海市奉贤区,121.520707,31.003351
金汇工业路,上海市奉贤区,121.513053,30.996952
金斗路,上海市奉贤区,121.529205,31.001225
贤农路,上海市闵行区,121.5554,30.99992
沿浦公路,上海市,121.544447,30.997501
汇中路,上海市奉贤区,121.507221,30.994324
泰西路,上海市奉贤区,121.560185,30.980669
金聚路,上海市奉贤区,121.524893,31.00397
明星路,上海市奉贤区,121.549023,30.991227
继光路,上海市奉贤区,121.535824,30.997296
汇中路二号桥,上海市奉贤区,121.539852,30.996977
文君路,上海市闵行区,121.544766,31.014465
Y009,上海市闵行区,121.565614,31.003778
泰青公路,上海市奉贤区,121.575964,30.959326
中南河桥,上海市闵行区,121.569718,31.004852
泰梅路,上海市奉贤区,121.596725,30.99998
明星路,上海市奉贤区,121.549023,30.991227
泰西路,上海市奉贤区,121.560185,30.980669
贤农路,上海市闵行区,121.5554,30.99992
振泰路,上海市奉贤区,121.569423,30.987012
泰叶路,上海市奉贤区,121.567669,30.98491
耀辉路,上海市奉贤区,121.567937,30.992626
联海桥,上海市松江区,121.249216,31.022836
北门街,上海市松江区,121.248464,31.019758
袜子弄,上海市松江区,121.248152,31.017027
方塔北路,上海市松江区,121.253062,31.030825
沪松路七弄,上海市松江区北门街与沪松路交叉口西北方向30米,121.24951,31.020563
松乐路,上海市松江区,121.246642,31.015886
沪松路,上海市松江区,121.250379,31.020678
松东路,上海市松江区,121.259949,31.028534
乐都路,上海市松江区,121.230516,31.019517
环城路,上海市松江区,121.258236,31.016498
荣乐东路,上海市松江区,121.269735,31.023127
松东路,上海市松江区,121.259949,31.028534
宝荣路,上海市松江区,121.269773,31.029444
洞泾路,上海市松江区,121.265112,31.029209
环城路,上海市松江区,121.258236,31.016498
宝益路,上海市松江区,121.269858,31.028664
俞塘路,上海市松江区,121.258445,31.026384
中山东路,上海市松江区,121.272282,31.017731
方塔北路,上海市松江区,121.253062,31.030825
宝胜路,上海市松江区,121.277758,31.023979
华加路,上海市松江区,121.282266,31.023696
北松公路,上海市,121.266601,31.00799
宝胜路,上海市松江区,121.277758,31.023979
西泖泾路,上海市松江区,121.29266,31.027221
宝荣路,上海市松江区,121.269773,31.029444
东兴路,上海市松江区,121.273647,31.03536
华扩路,上海市松江区,121.283116,31.016133
南乐路1276弄,上海市松江区,121.286924,31.027
东泖泾路,上海市松江区,121.291884,31.022345
三浜路,上海市松江区,121.3104,31.035467
华德路,上海市松江区,121.311404,31.022936
三庄路,上海市松江区,121.309286,31.023643
车亭公路,上海市,121.311675,30.995888
茸腾路,上海市松江区,121.308162,31.02575
虬长路,上海市松江区,121.316826,31.02147
茸华路,上海市松江区,121.308855,31.037846
车嘉路,上海市松江区,121.310542,31.018181
茸翔路,上海市松江区,121.304264,31.02354
影佳路,上海市松江区,121.320161,31.014015
振兴路,上海市松江区,121.315981,31.020568
俞塘桥,上海市松江区,121.326641,31.02133
影视路,上海市松江区,121.323923,31.019563
影维路,上海市松江区,121.322715,31.015294
车峰北路,上海市松江区,121.326641,31.02133
新飞路,上海市松江区,121.324295,31.03463
李高路,上海市松江区,121.32247,31.029541
南姚路,上海市松江区,121.313452,31.024988
车亭公路,上海市,121.311675,30.995888
杨家浜桥,上海市松江区,121.324961,31.020913
虬长路,上海市松江区,121.316826,31.02147
陪昆路,上海市闵行区,121.357891,31.023776
新飞路,上海市松江区,121.324295,31.03463
汇北路,上海市松江区,121.340208,31.016121
女儿泾桥,上海市松江区,121.349285,31.020967
紫东路,上海市闵行区,121.36512,31.020924
书崖路,上海市松江区,121.337421,31.031216
中青路,上海市闵行区,121.363541,31.027445
中辉路,上海市闵行区,121.360886,31.021079
中康路,上海市闵行区,121.356785,31.022004
紫旭路,上海市闵行区,121.36456,31.023261
中韵路,上海市闵行区,121.36863,31.021819
紫旭路,上海市闵行区,121.36456,31.023261
天星路,上海市闵行区,121.375681,31.009592
中辉路,上海市闵行区,121.360886,31.021079
中青路,上海市闵行区,121.363541,31.027445
紫东路,上海市闵行区,121.36512,31.020924
昆阳路,上海市闵行区,121.374283,31.020879
富国路,上海市闵行区,121.38595,31.027575
绿春路,上海市闵行区,121.380268,31.013576
陪昆路,上海市闵行区,121.357891,31.023776
银林路,上海市闵行区,121.388946,31.025512
富国路,上海市闵行区,121.38595,31.027575
银康路,上海市闵行区,121.392225,31.027709
文井路,上海市闵行区,121.388607,31.007962
富卓路,上海市闵行区,121.390542,31.02653
青山路,上海市闵行区,121.381415,31.018286
银春路,上海市闵行区,121.397603,31.031847
北斗路,上海市闵行区,121.387373,31.014985
绿春路,上海市闵行区,121.380268,31.013576
景谷路,上海市闵行区,121.415965,31.021343
长浜桥,上海市闵行区,121.410897,31.023167
景谷路,上海市闵行区,121.415965,31.021343
碧江路,上海市闵行区,121.408951,31.013417
金平路,上海市闵行区,121.417509,31.018477
凤庆路,上海市闵行区,121.401074,31.021053
鹤庆路,上海市闵行区,121.4209,31.014049
安宁路,上海市闵行区,121.418738,31.030598
灯辉路,上海市闵行区,121.412265,31.033282
银春路,上海市闵行区,121.397603,31.031847
宾川路,上海市闵行区,121.41977,31.010343
石屏路,上海市闵行区,121.427157,31.021213
安宁路,上海市闵行区,121.418738,31.030598
沧源路,上海市闵行区,121.433061,31.025181
景谷东路,上海市闵行区,121.432229,31.026999
乌守道,上海市闵行区东川路2088号置业广场F3,121.425771,31.021218
金平路,上海市闵行区,121.417509,31.018477
鹤庆路,上海市闵行区,121.4209,31.014049
兰坪路,上海市闵行区,121.424204,31.013259
永平路,上海市闵行区,121.438427,31.021512
凤庆路,上海市闵行区,121.401074,31.021053
紫月路,上海市闵行区,121.460871,31.02428
永平路,上海市闵行区,121.438427,31.021512
紫星路,上海市闵行区,121.473481,31.020364
永平南路,上海市闵行区,121.43994,31.018076
沧源路,上海市闵行区,121.433061,31.025181
德宏路,上海市闵行区,121.442273,31.020015
老江川东路,上海市闵行区,121.455288,31.017655
奉浦大桥,上海市,121.448606,31.012167
学森路,上海市闵行区,121.442098,31.032286
环路,上海市闵行区,121.444089,31.022536
紫光路,上海市闵行区,121.469504,31.02057
西闸公路,上海市奉贤区,121.431647,30.990529
紫海路,上海市闵行区,121.464209,31.029893
紫星路,上海市闵行区,121.473481,31.020364
江川东路,上海市闵行区,121.43667,31.015243
紫日路,上海市闵行区,121.460843,31.02944
紫龙路,上海市闵行区,121.47227,31.039377
东川路,上海市闵行区,121.479098,31.035563
紫月路,上海市闵行区,121.460871,31.02428
老江川东路,上海市闵行区,121.455288,31.017655
寺嘴角路,上海市闵行区,121.490236,31.024179
虹梅南路隧道,上海市,121.481056,31.006779
东川路,上海市闵行区,121.479098,31.035563
通海路,上海市闵行区,121.483158,31.04236
西浦路,上海市闵行区,121.499932,31.01819
五宅路,上海市奉贤区,121.489874,31.004889
兰香湖绿道,上海市闵行区,121.478739,31.032106
紫光路,上海市闵行区,121.469504,31.02057
西闸公路桥,上海市奉贤区,121.498631,31.010083
益北路,上海市奉贤区,121.494466,30.987872
Y023,上海市闵行区,121.508386,31.021963
汇延路,上海市闵行区,121.525164,31.030245
永浦路,上海市闵行区,121.513971,31.021819
永恩路,上海市闵行区,121.507698,31.026936
前街,上海市闵行区浦江镇,121.505855,31.021598
金闸公路,上海市奉贤区,121.510541,30.995505
永杰路,上海市闵行区,121.51414,31.035911
西浦路,上海市闵行区,121.499932,31.01819
永颂路,上海市闵行区,121.507885,31.039876
永跃路,上海市闵行区,121.516701,31.040291
窑厂桥路,上海市闵行区,121.524559,31.021269
汇延路,上海市闵行区,121.525164,31.030245
丰南路,上海市闵行区,121.528739,31.018071
鲁宁路,上海市闵行区,121.523929,31.027228
西环路,上海市闵行区,121.53584,31.023581
闸航公路,上海市闵行区,121.530753,31.025804
闸航公路辅路,上海市闵行区,121.532269,31.025846
永南路,上海市,121.522796,31.011271
恒南路桥,上海市闵行区,121.530557,31.02019
汇舒路,上海市闵行区,121.523589,31.038661
1组村宅路,上海市闵行区,121.547207,31.024407
西环路,上海市闵行区,121.53584,31.023581
闸航路,上海市,121.58342,31.025435
丰南路,上海市闵行区,121.528739,31.018071
东晨三路,上海市闵行区,121.538113,31.033944
东城一路,上海市闵行区,121.53844,31.03578
汇北路,上海市闵行区,121.546622,31.030874
东街,上海市闵行区浦江镇,121.546324,31.024968
西街,上海市闵行区浦江镇,121.544717,31.024946
大治河桥,上海市闵行区,121.540224,31.023572
闸航路,上海市,121.58342,31.025435
鲁南路,上海市,121.571204,31.029186
从友大道,上海市闵行区,121.567338,31.029645
闸航公路,上海市,121.559978,31.025181
航达路,上海市浦东新区,121.580682,31.028888
22组村宅路,上海市浦东新区,121.564033,31.030046
新开河桥,上海市浦东新区,121.560724,31.025159
东惠路,上海市闵行区,121.56966,31.01944
21组村宅路,上海市浦东新区,121.57075,31.029141
新汇路,上海市,121.558432,31.027767
通波路辅路,上海市松江区,121.245806,31.044343
通波塘桥,上海市松江区,121.244496,31.068968
北翠路,上海市松江区,121.216194,31.04311
通波路,上海市松江区,121.245917,31.035389
五昆路,上海市松江区,121.251105,31.037693
绿城路,上海市松江区,121.238205,31.03822
南青路,上海市松江区,121.238621,31.040178
茸梅路,上海市松江区,121.252152,31.058254
茸北路,上海市松江区,121.261163,31.044184
谷阳北路,上海市松江区,121.241514,31.04565
花卉路,上海市松江区,121.26983,31.043358
茸平路,上海市松江区,121.254796,31.040645
文翔东路,上海市松江区,121.274641,31.04356
宝荣路,上海市松江区,121.269773,31.029444
香川路,上海市松江区,121.263204,31.04047
江田东路,上海市松江区,121.27388,31.033995
茸树路,上海市松江区,121.259848,31.040151
联阳路,上海市松江区,121.277685,31.040752
茸北路,上海市松江区,121.261163,31.044184
茸梅路,上海市松江区,121.252152,31.058254
锦昔路,上海市松江区,121.283451,31.044763
曹农路,上海市松江区,121.292972,31.043845
联阳路,上海市松江区,121.277685,31.040752
新格路,上海市松江区,121.288494,31.069383
三浜路,上海市松江区,121.3104,31.035467
开明路,上海市松江区,121.286865,31.048879
松胜路,上海市松江区,121.286086,31.030827
江田东路,上海市松江区,121.27388,31.033995
民益路,上海市松江区,121.293672,31.047378
东兴路,上海市松江区,121.273647,31.03536
赵家泾路,上海市松江区,121.305818,31.040013
康电路,上海市松江区,121.308062,31.037671
新界路,上海市松江区,121.306998,31.048197
通巨路,上海市松江区,121.308769,31.044607
三浜路,上海市松江区,121.3104,31.035467
新加路,上海市松江区,121.317358,31.038123
茸华路,上海市松江区,121.308855,31.037846
民强路,上海市松江区,121.295872,31.044647
民益路,上海市松江区,121.293672,31.047378
联营路,上海市松江区,121.318285,31.022625
书敏路,上海市松江区,121.329051,31.039617
新加路,上海市松江区,121.317358,31.038123
联营路,上海市松江区,121.318285,31.022625
书海路,上海市松江区,121.32891,31.034285
茜蒲路,上海市松江区,121.318543,31.051428
松闵路,上海市松江区,121.325344,31.035268
书崖路,上海市松江区,121.337421,31.031216
李高路,上海市松江区,121.32247,31.029541
新界路,上海市松江区,121.306998,31.048197
书慧路,上海市松江区,121.335564,31.043122
袁家港桥,上海市闵行区,121.348379,31.045915
书慧路,上海市松江区,121.335564,31.043122
书崖路,上海市松江区,121.337421,31.031216
曙光路,上海市闵行区,121.346662,31.059442
书海路,上海市松江区,121.32891,31.034285
茜昆路,上海市闵行区,121.34999,31.048662
松闵路,上海市松江区,121.325344,31.035268
中青路,上海市闵行区,121.363541,31.027445
中秀路,上海市闵行区,121.365158,31.039825
骏泰路,上海市闵行区,121.346531,31.0575
昆阳北路,上海市闵行区,121.366091,31.054528
元江路,上海市闵行区,121.439245,31.067087
中秀路,上海市闵行区,121.365158,31.039825
骏麟路,上海市闵行区,121.364705,31.041323
苏家港路,上海市闵行区,121.368244,31.039754
苏介桥,上海市闵行区,121.368432,31.040389
富岩路,上海市闵行区,121.378416,31.033898
元电路,上海市闵行区,121.374001,31.053105
苏介桥,上海市闵行区昆阳路与骏麟路交叉路口往南约190米,121.368578,31.040296
中青路,上海市闵行区,121.363541,31.027445
联青支路,上海市闵行区,121.383277,31.043259
元江路,上海市闵行区,121.439245,31.067087
联青路,上海市闵行区,121.384797,31.045699
华宁路,上海市闵行区,121.40505,31.006611
星联路,上海市闵行区,121.381574,31.044735
黄泥浜桥,上海市闵行区马桥黄泥浜桥(星俞路西),121.386948,31.041033
银春路,上海市闵行区,121.397603,31.031847
星俞路,上海市闵行区,121.388631,31.040521
富岩路,上海市闵行区,121.378416,31.033898
元江路4600弄,上海市闵行区,121.383047,31.048343
新春路,上海市闵行区,121.419047,31.043465
花王路,上海市闵行区,121.399523,31.040419
元科路,上海市闵行区,121.3991,31.045724
新苗路,上海市闵行区,121.417654,31.046943
灯辉路,上海市闵行区,121.412265,31.033282
新源路,上海市闵行区,121.402074,31.065056
金塔路,上海市闵行区,121.428446,31.048889
鹤翔路,上海市闵行区,121.413142,31.052412
金阳路,上海市闵行区,121.408741,31.03777
放鹤路,上海市闵行区,121.465597,31.054717
东五号河桥,上海市闵行区,121.427437,31.04509
金阳路,上海市闵行区,121.408741,31.03777
放鹤路,上海市闵行区,121.465597,31.054717
灯辉路,上海市闵行区,121.412265,31.033282
灯辉支路,上海市闵行区,121.422827,31.034623
新苗路,上海市闵行区,121.417654,31.046943
规划路,上海市闵行区,121.423319,31.040005
金灯路,上海市闵行区,121.426355,31.037459
吴河路,上海市闵行区,121.437956,31.047019
新春路,上海市闵行区,121.419047,31.043465
谈家塘路,上海市闵行区,121.442986,31.04669
永德路,上海市闵行区,121.460465,31.047157
张家里路,上海市闵行区,121.447097,31.041336
园美路,上海市闵行区,121.43675,31.044441
文治大道,上海市闵行区,121.447504,31.039003
育莲路,上海市闵行区,121.445118,31.043399
尚义路,上海市闵行区,121.458044,31.045722
曹家塘路,上海市闵行区,121.449051,31.05214
紫龙路,上海市闵行区,121.47227,31.039377
吴河路,上海市闵行区,121.437956,31.047019
紫龙路,上海市闵行区,121.47227,31.039377
尚义路,上海市闵行区,121.458044,31.045722
永德路,上海市闵行区,121.460465,31.047157
广南路,上海市闵行区,121.46661,31.041919
紫凤路,上海市闵行区,121.468693,31.035954
东川路,上海市闵行区,121.479098,31.035563
宝秀路,上海市闵行区,121.46972,31.052256
江川东路,上海市闵行区,121.43667,31.015243
紫海路,上海市闵行区,121.464209,31.029893
通海路,上海市闵行区,121.483158,31.04236
通海路,上海市闵行区,121.483158,31.04236
东川路,上海市闵行区,121.479098,31.035563
闵浦大桥,上海市闵行区,121.485284,31.056616
广南路,上海市闵行区,121.46661,31.041919
星乐路,上海市闵行区,121.480808,31.032751
蒋家港桥,上海市闵行区,121.483529,31.038549
民联路,上海市闵行区,121.497671,31.044567
鲁康路,上海市闵行区,121.519384,31.034099
永高路,上海市闵行区,121.50556,31.033407
鲁建路,上海市闵行区,121.502758,31.038505
永高路,上海市闵行区,121.50556,31.033407
鲁建路,上海市闵行区,121.502758,31.038505
永颂路,上海市闵行区,121.507885,31.039876
鲁康路,上海市闵行区,121.519384,31.034099
盐铁塘路,上海市闵行区,121.51074,31.041263
永跃路,上海市闵行区,121.516701,31.040291
鲁陈路,上海市闵行区,121.509871,31.045412
浦锦南路,上海市闵行区,121.510859,31.042821
民联路,上海市闵行区,121.497671,31.044567
汇舒路,上海市闵行区,121.523589,31.038661
盐铁路,上海市闵行区,121.533356,31.04354
汇延路,上海市闵行区,121.525164,31.030245
汇秋路,上海市闵行区,121.527208,31.036315
汇舒路,上海市闵行区,121.523589,31.038661
鲁浩路,上海市闵行区,121.526816,31.037217
盐铁塘路,上海市闵行区,121.51074,31.041263
永跃路,上海市闵行区,121.516701,31.040291
汇臻路,上海市闵行区,121.530842,31.035099
鲁坤路,上海市闵行区,121.526179,31.034786
闵驰一路,上海市闵行区,121.553526,31.046953
北徐支路,上海市闵行区,121.545384,31.042253
闵驰一路,上海市闵行区,121.553526,31.046953
浦航路,上海市闵行区,121.538896,31.046662
闵驰二路,上海市闵行区,121.543319,31.04945
江航南路,上海市闵行区,121.544197,31.048291
闵瑞路,上海市闵行区,121.525731,31.051642
东城一路,上海市闵行区,121.53844,31.03578
浦涛路,上海市闵行区,121.538993,31.052387
共青北路,上海市闵行区,121.55017,31.042399
东晨三路,上海市闵行区,121.538113,31.033944
长新河支路,上海市浦东新区,121.568114,31.044103
长达路,上海市浦东新区,121.575345,31.035973
先新路,上海市,121.568112,31.05017
7组村宅路,上海市浦东新区,121.572184,31.040394
鲁南路,上海市,121.571204,31.029186
航梅路,上海市浦东新区,121.5852,31.036053
闸航路,上海市,121.58342,31.025435
9组村宅路,上海市,121.568582,31.044375
长星河桥,上海市浦东新区,121.569183,31.044451
长牌路,上海市浦东新区,121.573919,31.047232
松良路,上海市松江区,121.246542,31.063334
茸宁路,上海市松江区,121.254161,31.062835
光星路,上海市松江区,121.247756,31.063602
外浜街,上海市松江区,121.258743,31.057986
沪松公路,上海市,121.289796,31.118307
谷阳北路,上海市松江区,121.241514,31.04565
淡家浜街,上海市松江区,121.248779,31.066948
黄渡浜街,上海市松江区,121.252558,31.06453
刘五公路,上海市松江区,121.255984,31.085531
银泽路,上海市松江区,121.213917,31.06885
沪松公路,上海市,121.289796,31.118307
茸惠路,上海市松江区,121.262921,31.056028
卖新公路,上海市松江区,121.312668,31.068016
长水街,上海市松江区,121.26167,31.065904
梅家浜路,上海市松江区,121.228097,31.059858
茸宁路,上海市松江区,121.254161,31.062835
郭家娄街,上海市松江区,121.258399,31.063983
茸盛路,上海市松江区,121.250222,31.070756
中凯路,上海市松江区,121.272398,31.053665
刘五公路,上海市松江区,121.255984,31.085531
牛泾港桥,上海市松江区,121.267104,31.063989
中创路,上海市松江区,121.282211,31.058887
沪松公路,上海市,121.289796,31.118307
新格路,上海市松江区,121.288494,31.069383
马明路,上海市松江区,121.297063,31.076397
新庙三公路,上海市松江区,121.293223,31.074008
卖新公路,上海市松江区,121.312668,31.068016
施园路,上海市松江区,121.277649,31.060575
新腾路,上海市松江区,121.295721,31.059989
新润路,上海市松江区,121.296792,31.062211
新效路,上海市松江区,121.306473,31.060966
新效支路,上海市松江区,121.30454,31.058146
马明路,上海市松江区,121.297063,31.076397
蟠龙港桥,上海市松江区,121.30515,31.062145
新润路,上海市松江区,121.296792,31.062211
新北街,上海市松江区,121.324803,31.069898
新南街,上海市松江区,121.325267,31.067833
新中街,上海市松江区,121.314133,31.070323
民益路,上海市松江区,121.293672,31.047378
新镇街,上海市松江区,121.320501,31.070117
新育路火车站隧道,上海市松江区,121.326617,31.06355
新南街,上海市松江区,121.325267,31.067833
新镇街,上海市松江区,121.320501,31.070117
闵申路,上海市松江区,121.328394,31.056635
新站路,上海市松江区,121.315129,31.064918
新北街,上海市松江区,121.324803,31.069898
光华路,上海市,121.339582,31.065068
新中街,上海市松江区,121.314133,31.070323
书海路,上海市松江区,121.32891,31.034285
镇东路,上海市松江区,121.326619,31.064282
光华路,上海市,121.339582,31.065068
曙光路,上海市闵行区,121.346662,31.059442
申立路,上海市,121.352365,31.067897
骏泰路,上海市闵行区,121.346531,31.0575
茜浦泾路,上海市闵行区,121.343042,31.051877
横经桥,上海市闵行区横经桥(光华路),121.34897,31.062741
光华支路,上海市闵行区,121.345697,31.064667
明华路,上海市松江区,121.343688,31.083917
申徐二路,上海市松江区,121.361804,31.072611
申徐路,上海市松江区,121.359741,31.068448
颛兴路,上海市闵行区,121.405771,31.073148
金都路,上海市,121.369789,31.076181
金都西路,上海市松江区,121.363803,31.074129
元江路,上海市闵行区,121.439245,31.067087
北横沙河路,上海市闵行区,121.37533,31.05704
北沙港路,上海市闵行区,121.372792,31.053447
申徐二路,上海市松江区,121.361804,31.072611
元电路,上海市闵行区,121.374001,31.053105
申立路,上海市,121.352365,31.067897
申徐路,上海市松江区,121.359741,31.068448
航竹路,上海市闵行区,121.391676,31.057764
向阳路,上海市闵行区,121.419317,31.071666
华宁路,上海市闵行区,121.40505,31.006611
元明路,上海市闵行区,121.38907,31.059506
元和路,上海市闵行区,121.386722,31.056019
颛盛路,上海市闵行区,121.402282,31.06959
颛兴路,上海市闵行区,121.405771,31.073148
北横沙河路,上海市闵行区,121.37533,31.05704
元电路,上海市闵行区,121.374001,31.053105
鑫都路,上海市闵行区,121.407066,31.064022
鑫都路,上海市闵行区,121.407066,31.064022
向阳路,上海市闵行区,121.419317,31.071666
瓶北路150弄,上海市闵行区,121.408865,31.061808
瓶北路,上海市闵行区,121.405564,31.058267
瓶安路,上海市闵行区,121.408571,31.054218
沪闵路3131弄,上海市闵行区,121.413225,31.060092
联农路,上海市闵行区,121.396122,31.064323
都市路,上海市闵行区,121.410076,31.079326
北庙泾桥,上海市闵行区,121.408539,31.059181
颛盛路,上海市闵行区,121.402282,31.06959
都会路,上海市闵行区,121.428599,31.064205
颛兴东路1421弄,上海市闵行区,121.421712,31.075754
田园路,上海市闵行区,121.43189,31.045091
伟都路,上海市闵行区,121.421517,31.065828
放鹤路,上海市闵行区,121.465597,31.054717
元江路/莘奉金高速公路(路口),上海市闵行区,121.42458,31.062651
光明二号路,上海市闵行区,121.423474,31.062107
沪闵路3131弄,上海市闵行区,121.413225,31.060092
瓶北路150弄,上海市闵行区,121.408865,31.061808
元江路辅路,上海市闵行区,121.427498,31.064486
三新街,上海市闵行区,121.449297,31.060392
北吴路,上海市闵行区,121.449011,31.061788
浦宁路,上海市闵行区,121.446122,31.061039
塘中路,上海市闵行区,121.449321,31.061976
都会路,上海市闵行区,121.428599,31.064205
永德路,上海市闵行区,121.460465,31.047157
曹家塘路,上海市闵行区,121.449051,31.05214
吴河路,上海市闵行区,121.437956,31.047019
梅莲路,上海市闵行区,121.436579,31.073513
剑漕路,上海市闵行区,121.44429,31.053115
曲吴路,上海市闵行区,121.458425,31.060068
闵浦大桥,上海市闵行区,121.485284,31.056616
永德路,上海市闵行区,121.460465,31.047157
宝秀路,上海市闵行区,121.46972,31.052256
北吴路,上海市闵行区,121.449011,31.061788
规划二路,上海市闵行区,121.461095,31.060898
三新街,上海市闵行区,121.449297,31.060392
景东路,上海市,121.466426,31.050065
北大道,上海市闵行区,121.463857,31.07692
浦宁路,上海市闵行区,121.446122,31.061039
闲云路,上海市闵行区,121.489212,31.062939
闵浦大桥,上海市闵行区,121.485284,31.056616
曲吴路,上海市闵行区,121.458425,31.060068
昌林路,上海市闵行区,121.509974,31.06736
杉林路,上海市闵行区,121.494885,31.060529
丰收路,上海市闵行区,121.495871,31.068163
平沙西路,上海市闵行区,121.493289,31.065194
兼葭中路,上海市闵行区,121.492899,31.065743
宝秀路,上海市闵行区,121.46972,31.052256
江汉路,上海市闵行区,121.51221,31.073052
金雀桥,上海市闵行区,121.50682,31.063063
张行路,上海市闵行区,121.505823,31.060586
昌林路,上海市闵行区,121.509974,31.06736
姚家浜桥,上海市闵行区,121.533561,31.069067
金龙桥,上海市闵行区,121.50691,31.063061
金凤桥,上海市闵行区,121.506869,31.063062
浦放路,上海市闵行区,121.515587,31.057731
听荷东路,上海市闵行区,121.504835,31.062954
听荷中路,上海市闵行区,121.504232,31.063007
江汉路,上海市闵行区,121.51221,31.073052
谈中路,上海市闵行区,121.536243,31.071249
三达路,上海市闵行区,121.527256,31.070416
兴达路,上海市闵行区,121.523473,31.066837
江玮路,上海市闵行区,121.540863,31.069773
联达路,上海市闵行区,121.519338,31.068127
江文路,上海市闵行区,121.53538,31.066446
浦连路,上海市闵行区,121.543982,31.060627
竹园路,上海市闵行区,121.520343,31.076165
康华路,上海市闵行区,121.530718,31.073686
叶家桥路,上海市闵行区,121.5366,31.069777
召楼路,上海市闵行区,121.547227,31.051383
闵瑞路,上海市闵行区,121.525731,31.051642
浦连路,上海市闵行区,121.543982,31.060627
谈中路,上海市闵行区,121.536243,31.071249
江协路,上海市闵行区,121.541378,31.062718
江文路,上海市闵行区,121.53538,31.066446
江航路,上海市闵行区,121.54402,31.053864
闵驰二路,上海市闵行区,121.543319,31.04945
绿带河桥,上海市闵行区,121.545213,31.063693
江玮路,上海市闵行区,121.540863,31.069773
鹤楼路,上海市浦东新区,121.567258,31.062694
鹤阳桥,上海市浦东新区,121.56805,31.062776
闵瑞路,上海市闵行区,121.525731,31.051642
鹤楼桥,上海市浦东新区,121.571533,31.063516
汪家桥,上海市浦东新区,121.570468,31.059894
乔家宅河桥,上海市浦东新区,121.565751,31.059862
先新路,上海市,121.568112,31.05017
20组村宅路,上海市浦东新区,121.567156,31.05903
鹤立西路,上海市浦东新区,121.588514,31.060926
沈楼路,上海市浦东新区,121.569545,31.067424
中泾浜路,上海市松江区,121.255132,31.084099
刘五公路,上海市松江区,121.255984,31.085531
嘉松南路,上海市松江区,121.235349,31.111132
洞业路,上海市松江区,121.262219,31.090425
茸宁路,上海市松江区,121.254161,31.062835
洞薛路,上海市松江区,121.256338,31.087404
洞塔路,上海市松江区,121.245807,31.1012
城隆路,上海市松江区,121.239999,31.086653
洞舟路,上海市松江区,121.257454,31.091091
洞厍路,上海市松江区,121.257598,31.094563
双喜路,上海市松江区,121.264264,31.082841
卖新公路,上海市松江区,121.312668,31.068016
刘五公路,上海市松江区,121.255984,31.085531
平阳河路,上海市松江区,121.273084,31.081649
沪松公路,上海市,121.289796,31.118307
洞业路,上海市松江区,121.262219,31.090425
洞凯路,上海市松江区,121.265828,31.090011
洞西路,上海市松江区,121.268367,31.087712
蔡家浜路,上海市松江区,121.277884,31.091681
洞莘路,上海市松江区,121.27266,31.089184
洞宁路,上海市松江区,121.284686,31.072703
张泾路,上海市松江区,121.287218,31.090319
卖新公路,上海市松江区,121.312668,31.068016
马明路,上海市松江区,121.297063,31.076397
泗砖南路,上海市松江区,121.292305,31.092029
长兴东路,上海市松江区,121.289665,31.088212
振业路,上海市松江区,121.279763,31.094181
蔡家浜路,上海市松江区,121.277884,31.091681
平阳河路,上海市松江区,121.273084,31.081649
洞泾茂盛路,上海市松江区,121.275025,31.076295
北泾湾桥,上海市松江区,121.305025,31.085526
九新公路,上海市松江区,121.323961,31.105381
马明路,上海市松江区,121.297063,31.076397
马裕路,上海市松江区,121.30188,31.077478
新北街,上海市松江区,121.324803,31.069898
长施公路,上海市松江区,121.297784,31.112155
新中街,上海市松江区,121.314133,31.070323
陆家圈路,上海市松江区,121.302264,31.092095
张泾路,上海市松江区,121.287218,31.090319
倪家路,上海市松江区,121.311801,31.083153
九新公路,上海市松江区,121.323961,31.105381
新育路,上海市松江区,121.327163,31.070472
明中路,上海市松江区,121.335649,31.08106
月台路,上海市松江区,121.335973,31.077275
新凯路,上海市松江区,121.311324,31.08071
九新公路跨G60桥,上海市松江区,121.323526,31.086522
长兴路,上海市松江区,121.32524,31.091597
新北街,上海市松江区,121.324803,31.069898
砖新河桥,上海市松江区,121.32455,31.084436
新南街,上海市松江区,121.325267,31.067833
明华路辅路,上海市松江区,121.345,31.080882
明华路,上海市松江区,121.343688,31.083917
明兴路,上海市松江区,121.349905,31.085192
明中路,上海市松江区,121.335649,31.08106
月台路,上海市松江区,121.335973,31.077275
莘松路,上海市,121.339519,31.09783
场西路,上海市松江区,121.353431,31.091459
春申塘桥,上海市松江区,121.345086,31.080684
金都西路,上海市松江区,121.363803,31.074129
申立路,上海市,121.352365,31.067897
申南七路,上海市松江区,121.366883,31.081441
银都西路,上海市,121.377366,31.089008
申南六路,上海市松江区,121.366864,31.084336
金都路,上海市,121.369789,31.076181
申南四路,上海市松江区,121.370309,31.087158
中心大道,上海市松江区,121.363811,31.081771
申南五路,上海市松江区,121.36748,31.086242
金都西路,上海市松江区,121.363803,31.074129
申北五路,上海市松江区,121.363871,31.086399
申华路,上海市松江区,121.369206,31.080095
金都路367弄,上海市闵行区,121.391726,31.082402
申旺路,上海市闵行区,121.392778,31.091911
银都西路,上海市,121.377366,31.089008
申富路,上海市闵行区,121.38799,31.087071
申南路,上海市闵行区,121.394662,31.081264
光中路,上海市闵行区,121.393936,31.077827
申北路,上海市闵行区,121.382732,31.09361
桂冠路,上海市闵行区,121.395154,31.08463
金都路,上海市,121.369789,31.076181
春中路,上海市闵行区,121.387717,31.087636
贵都路,上海市闵行区,121.405155,31.082189
向阳路,上海市闵行区,121.419317,31.071666
都市支路,上海市闵行区,121.409035,31.081408
都市路,上海市闵行区,121.410076,31.079326
丰顺路,上海市闵行区,121.408659,31.087445
颛建路,上海市闵行区,121.398016,31.07359
颛兴东路1421弄,上海市闵行区,121.421712,31.075754
南街,上海市闵行区,121.405985,31.073289
春东路,上海市闵行区,121.397401,31.08799
沪光路,上海市闵行区,121.430433,31.088098
淡水河桥,上海市闵行区,121.428116,31.081925
颛兴东路1421弄,上海市闵行区,121.421712,31.075754
X236,上海市闵行区,121.430632,31.082823
沪光路,上海市闵行区,121.430433,31.088098
双柏路,上海市闵行区,121.454433,31.096428
春都路,上海市闵行区,121.426667,31.089934
莲花南路,上海市闵行区,121.456695,31.031376
颛兴东路辅路,上海市闵行区,121.429258,31.082238
都市路,上海市闵行区,121.410076,31.079326
曙建路,上海市闵行区,121.425233,31.098369
X210,上海市,121.443678,31.094756
澄江路,上海市闵行区,121.454668,31.088705
龙吴路,上海市,121.474706,31.048349
虹梅路,上海市闵行区,121.446864,31.076622
向阳路228弄,上海市闵行区,121.442802,31.082703
莲花路,上海市闵行区,121.446638,31.077418
徐汇路,上海市闵行区,121.446638,31.077418
澄建路,上海市闵行区,121.450292,31.088355
墨江路,上海市闵行区,121.465901,31.078909
梅莲路,上海市闵行区,121.437793,31.073894
龙吴路辅路,上海市闵行区,121.466447,31.082441
龙吴路,上海市,121.472244,31.056953
氟源路,上海市闵行区,121.463414,31.085554
双溪路,上海市闵行区,121.453118,31.082779
北大道,上海市闵行区,121.463857,31.07692
一号路,上海市闵行区,121.476641,31.080139
墨江路,上海市闵行区,121.458159,31.078814
澄江路,上海市闵行区,121.455277,31.08873
澄建路,上海市闵行区,121.449599,31.092989
莲花路,上海市闵行区,121.446452,31.078033
浦鸥路,上海市闵行区,121.496299,31.077505
龙吴路,上海市,121.472244,31.056953
一号路,上海市闵行区,121.476641,31.080139
浦驰路,上海市闵行区,121.500676,31.105322
浦雪路,上海市闵行区,121.497266,31.085076
江园路,上海市闵行区,121.510392,31.081975
水闸南路,上海市闵行区,121.486476,31.090937
江龙路,上海市闵行区,121.507333,31.076203
江汉路,上海市闵行区,121.51221,31.073052
丰收路,上海市闵行区,121.495871,31.068163
江园路,上海市闵行区,121.513655,31.082782
南江燕路,上海市闵行区,121.501628,31.082945
浦驰路,上海市闵行区,121.506412,31.088678
北江燕路,上海市闵行区,121.513722,31.085958
竹园西路,上海市闵行区,121.51702,31.075997
江月路,上海市闵行区,121.510592,31.087608
恒南路,上海市闵行区,121.522082,31.082239
江汉路,上海市闵行区,121.508021,31.072184
浦晓南路,上海市闵行区,121.513784,31.086996
昌林路,上海市闵行区,121.530907,31.071305
竹园路,上海市闵行区,121.520343,31.076165
三达支路,上海市闵行区,121.52875,31.078529
联川路,上海市闵行区,121.530353,31.081022
谈中路,上海市闵行区,121.536243,31.071249
江月路,上海市闵行区,121.513791,31.088556
康华路,上海市闵行区,121.530718,31.073686
联航路,上海市闵行区,121.5413,31.087763
浦顺路,上海市闵行区,121.519331,31.081511
江潮路,上海市闵行区,121.531408,31.077392
万泰路,上海市闵行区,121.533177,31.084512
谈中路,上海市闵行区,121.536243,31.071249
万芳路,上海市闵行区,121.53489,31.108761
联恒路,上海市闵行区,121.549962,31.076979
江文路,上海市闵行区,121.53538,31.066446
秦裕伯路,上海市闵行区,121.553077,31.079757
兴东街,上海市闵行区,121.55657,31.080816
联航路,上海市闵行区,121.5413,31.087763
叶家桥东路,上海市闵行区,121.544949,31.07207
联川路,上海市闵行区,121.530353,31.081022
叶家桥路,上海市闵行区,121.5366,31.069777
林海公路立交桥,上海市浦东新区,121.574454,31.081831
沈杜公路,上海市,121.583276,31.089563
沈杜公路辅路,上海市闵行区,121.53512,31.073083
沈庄路,上海市浦东新区,121.583419,31.082585
谈鹤路,上海市浦东新区,121.571789,31.072267
兴东街,上海市闵行区,121.555579,31.080349
秦裕伯路,上海市闵行区,121.554374,31.077954
24组村宅路,上海市浦东新区,121.566096,31.077819
X002辅路,上海市闵行区,121.567852,31.085771
百家桥,上海市闵行区,121.56395,31.085595
塘砖路,上海市松江区,121.256684,31.103766
塘乐路,上海市松江区,121.245763,31.101347
倪家墩路,上海市松江区,121.243083,31.100544
泽悦路,上海市松江区,121.253804,31.107594
洞照路,上海市松江区,121.248075,31.102428
王家厍路,上海市松江区,121.249013,31.097885
洞塔路,上海市松江区,121.245807,31.1012
洞厍路,上海市松江区,121.257598,31.094563
德悦路,上海市松江区,121.256983,31.106625
新家园路,上海市松江区,121.242034,31.11697
洞伟支路,上海市松江区,121.270275,31.102133
长浜路,上海市松江区,121.287575,31.102261
砖桥,上海市松江区,121.271044,31.098077
登云路,上海市松江区,121.263684,31.104484
德悦路,上海市松江区,121.256983,31.106625
道悦路,上海市松江区,121.266434,31.111386
横港公路,上海市松江区,121.267748,31.128126
泗凤公路,上海市松江区,121.263917,31.11809
同乐路,上海市松江区,121.276628,31.097
泽悦路,上海市松江区,121.253804,31.107594
泗砖公路,上海市松江区,121.290543,31.112008
西张泾路,上海市松江区,121.281541,31.098309
莘砖公路辅路,上海市松江区,121.284039,31.098781
同乐路,上海市松江区,121.276628,31.097
振业路,上海市松江区,121.279763,31.094181
西官泾桥,上海市松江区张泾路珈屹智谷科创中心东南侧约130米,121.28726,31.100129
长浜路,上海市松江区,121.287575,31.102261
高技路,上海市松江区,121.301882,31.100702
张泾路,上海市松江区,121.287218,31.090319
蔡家浜路,上海市松江区,121.277884,31.091681
新开河辅道桥,上海市松江区,121.306017,31.099632
莘砖公路,上海市松江区,121.335568,31.098329
G15高速公路跨线桥,上海市松江区,121.306998,31.099536
长施公路,上海市松江区,121.297784,31.112155
永强路,上海市松江区,121.309134,31.095102
高技路,上海市松江区,121.301882,31.100702
同利路,上海市松江区,121.313392,31.112004
新农河路,上海市松江区,121.298568,31.096564
江河路,上海市松江区,121.297494,31.107211
官泾路,上海市松江区,121.310615,31.095251
漕松路,上海市松江区,121.324213,31.10535
顺庆路,上海市松江区,121.327838,31.104089
莘砖公路,上海市松江区,121.335568,31.098329
九新公路,上海市松江区,121.323961,31.105381
千帆路,上海市松江区,121.332054,31.100052
产业路,上海市松江区,121.330525,31.102044
秋松路,上海市松江区,121.328067,31.099408
漕泽路,上海市松江区,121.324349,31.100814
研展路,上海市松江区,121.331885,31.106159
长施公路,上海市松江区,121.297784,31.112155
莘松路,上海市,121.339519,31.09783
新南路,上海市松江区,121.360922,31.099961
雪家桥路,上海市松江区,121.357274,31.11541
闵松公路,上海市,121.348083,31.109116
北场公路,上海市松江区,121.347342,31.109686
明兴路,上海市松江区,121.349905,31.085192
场西路,上海市松江区,121.353431,31.091459
大浪湾道,上海市闵行区,121.356637,31.111111
莘松公路,上海市,121.36349,31.105417
亭场路,上海市,121.355878,31.11049
青春路,上海市闵行区,121.37222,31.101182
银都西路,上海市,121.377366,31.089008
莘松公路,上海市,121.36349,31.105417
场东路,上海市松江区,121.366048,31.101707
春九路,上海市松江区,121.364121,31.095446
场南路,上海市松江区,121.363183,31.097105
沁春路,上海市闵行区,121.376011,31.098538
莘谭路,上海市闵行区,121.380328,31.114897
新南路,上海市松江区,121.360922,31.099961
瀑布弯道,上海市闵行区,121.362136,31.107502
大富浜桥,上海市闵行区,121.387006,31.102333
沪闵公路,上海市闵行区,121.397102,31.123652
莘西南路,上海市闵行区,121.385477,31.100732
沁春路,上海市闵行区,121.376011,31.098538
申旺路,上海市闵行区,121.392778,31.091911
银都西路,上海市,121.377366,31.089008
沁春路辅路,上海市闵行区,121.386986,31.102366
申北路,上海市闵行区,121.382732,31.09361
银都路,上海市,121.422746,31.105174
莘西路,上海市闵行区,121.379065,31.112384
畹町路,上海市闵行区,121.405048,31.117373
都园路,上海市闵行区,121.4148,31.086023
沪闵公路,上海市闵行区,121.397102,31.123652
腾冲路,上海市闵行区,121.402598,31.105924
银都路,上海市,121.422746,31.105174
梅州路,上海市闵行区,121.400577,31.092997
曙建路,上海市闵行区,121.425233,31.098369
申北路,上海市闵行区,121.382732,31.09361
普洱路,上海市闵行区,121.397951,31.103544
莘朱路,上海市闵行区,121.424121,31.127415
老沪闵路,上海市,121.412144,31.08506
曙建路,上海市闵行区,121.425233,31.098369
绿莲路,上海市闵行区,121.418632,31.099268
畹町路,上海市闵行区,121.405048,31.117373
务本路,上海市闵行区,121.425174,31.102227
曙东路,上海市闵行区,121.427302,31.105702
莲花南路,上海市闵行区,121.456695,31.031376
景联路,上海市闵行区,121.436789,31.104748
双柏路,上海市闵行区,121.454433,31.096428
都庄路,上海市闵行区,121.416011,31.103757
联曹路,上海市闵行区,121.442536,31.102187
曹建路,上海市闵行区,121.44277,31.097785
景联路,上海市闵行区,121.436789,31.104748
虹梅南路,上海市,121.462487,31.044187
曙建路,上海市闵行区,121.425233,31.098369
景洪路辅路,上海市闵行区,121.451593,31.091789
澄江路,上海市闵行区,121.455277,31.08873
虹建路,上海市闵行区,121.448208,31.094252
华展路,上海市,121.456259,31.118081
老沪闵路,上海市,121.412144,31.08506
龙吴路,上海市,121.472244,31.056953
芦恒路,上海市闵行区,121.492819,31.117929
望月路,上海市徐汇区,121.46706,31.12311
苏近路,上海市闵行区,121.488358,31.10411
关港路,上海市,121.453658,31.114991
家港桥,上海市闵行区,121.457847,31.101312
联曹路,上海市闵行区,121.442536,31.102187
孝民路,上海市徐汇区,121.458441,31.111008
虹建路,上海市闵行区,121.448208,31.094252
柏建路,上海市闵行区,121.45322,31.100591
苏近路,上海市闵行区,121.488358,31.10411
浦瑞路,上海市闵行区,121.496409,31.085912
芦恒路,上海市闵行区,121.492819,31.117929
浦秀路,上海市闵行区,121.493891,31.104606
江柳路,上海市闵行区,121.506573,31.107983
南江桐路,上海市闵行区,121.504479,31.104266
浦雪路,上海市闵行区,121.497266,31.085076
丁连路,上海市闵行区,121.486783,31.100598
浦锦路,上海市闵行区,121.492855,31.117524
江榉路,上海市闵行区,121.4953,31.110487
江栀路,上海市闵行区,121.499417,31.100105
江桦路,上海市闵行区,121.506612,31.11093
浦晓路,上海市闵行区,121.509335,31.101721
浦申路,上海市闵行区,121.511423,31.083794
北江桐路,上海市闵行区,121.507529,31.105505
陈南路,上海市闵行区,121.508944,31.096083
浦秀路,上海市闵行区,121.493891,31.104606
浦泉路,上海市闵行区,121.506611,31.10787
恒西路,上海市闵行区,121.518284,31.090505
江月路,上海市闵行区,121.513791,31.088556
建泽路,上海市闵行区,121.528174,31.100816
新骏环路,上海市闵行区,121.528848,31.097023
江凯路,上海市闵行区,121.520494,31.093973
新骏北路,上海市闵行区,121.529985,31.097462
恒南路,上海市闵行区,121.521898,31.082927
恒西路,上海市闵行区,121.518284,31.090505
苏召路,上海市闵行区,121.542998,31.107393
景容路,上海市闵行区,121.527094,31.100142
江月路,上海市闵行区,121.513791,31.088556
勤劳路,上海市闵行区,121.540896,31.11004
勤劳路,上海市闵行区,121.540896,31.11004
立跃路,上海市闵行区,121.539502,31.102313
苏召路,上海市闵行区,121.542998,31.107393
立建路,上海市闵行区,121.553203,31.111109
万芳路,上海市闵行区,121.53489,31.108761
马家桥,上海市闵行区浦江镇,121.552361,31.099741
新骏环路,上海市闵行区,121.528848,31.097023
百曲路,上海市浦东新区,121.551217,31.119093
林海公路辅路,上海市闵行区,121.553549,31.111176
新骏北路,上海市闵行区,121.529985,31.097462
立民河桥,上海市闵行区,121.56931,31.105187
周康路,上海市浦东新区,121.581443,31.105864
沈梅路,上海市浦东新区,121.562916,31.09422
立跃路,上海市闵行区,121.539502,31.102313
建豪路,上海市浦东新区,121.575586,31.10087
横桥路,上海市,121.581589,31.113782
立民路,上海市闵行区,121.564899,31.108284
联星路,上海市,121.572605,31.103018
江月东路,上海市,121.569506,31.105225
周星路,上海市浦东新区,121.583004,31.113921
新通波塘桥,上海市松江区,121.247392,31.121819
泗宝路,上海市松江区,121.265026,31.121829
泗凯路,上海市松江区,121.238023,31.116389
城鸿路,上海市松江区,121.242927,31.119085
城置路,上海市松江区,121.250607,31.12144
新家园路,上海市松江区,121.242034,31.11697
泗凤公路,上海市松江区,121.263917,31.11809
城松路,上海市松江区,121.253244,31.117968
业文路,上海市青浦区,121.234176,31.129234
泽悦路,上海市松江区,121.253804,31.107594
泗宝路,上海市松江区,121.265026,31.121829
外婆泾路,上海市松江区,121.264919,31.12267
泗凤公路,上海市松江区,121.263917,31.11809
泗通路,上海市松江区,121.262252,31.123898
赵非公路,上海市松江区,121.275268,31.130754
外婆泾桥,上海市松江区,121.26469,31.132598
依视路,上海市松江区泗宝路2号三湘商业广场F1,121.266614,31.122968
泗凤公路辅路,上海市松江区,121.269417,31.119054
横港公路辅路,上海市松江区,121.268993,31.117281
泗博路,上海市松江区,121.265041,31.132469
鼓浪路,上海市松江区,121.287909,31.12257
北张泾桥,上海市松江区,121.285737,31.122097
叶家公路,上海市松江区,121.296669,31.123306
望东南路,上海市松江区,121.30243,31.124994
文化路,上海市松江区,121.281717,31.125799
泗砖公路,上海市松江区,121.290543,31.112008
东市北弄,上海市松江区,121.287407,31.118579
开江东路,上海市松江区,121.289654,31.119005
开江中路,上海市松江区,121.284747,31.117682
中心街,上海市松江区,121.291437,31.121337
潮富路,上海市松江区,121.30727,31.123803
望东南路,上海市松江区,121.30243,31.124994
盛龙路,上海市松江区,121.316828,31.124141
连富路,上海市松江区,121.327234,31.124434
泗砖公路,上海市松江区,121.290543,31.112008
望东中路,上海市松江区,121.304891,31.126604
叶家公路,上海市松江区,121.296669,31.123306
同利路,上海市松江区,121.313392,31.112004
高技路,上海市松江区,121.301882,31.100702
西飞路,上海市松江区,121.311638,31.112862
盛龙路,上海市松江区,121.316828,31.124141
九新公路辅路,上海市松江区,121.327347,31.124345
田富路,上海市松江区,121.327174,31.12243
世富路,上海市松江区,121.322434,31.120354
久富路,上海市松江区,121.321711,31.126742
金马路,上海市松江区,121.32101,31.127215
康亭路,上海市松江区,121.335797,31.137871
雅多路,上海市松江区,121.330622,31.125445
恒富路,上海市松江区,121.324947,31.128705
朱金路,上海市松江区,121.330512,31.117117
文浦路,上海市松江区,121.346729,31.121735
涞泾路,上海市松江区,121.350198,31.119826
黎安路,上海市,121.354314,31.125821
文亭路,上海市松江区,121.344458,31.120358
疏影路,上海市,121.356752,31.119394
易富路,上海市松江区,121.318228,31.116816
顾戴路,上海市,121.350083,31.128172
九亭大街,上海市松江区,121.329651,31.132871
虬泾路,上海市松江区,121.333596,31.145691
沪亭南路,上海市松江区,121.336554,31.131242
北辅路,上海市闵行区,121.366295,31.12032
东闸路,上海市闵行区,121.370333,31.126493
莘福路,上海市闵行区,121.364757,31.116308
友东路,上海市闵行区,121.359171,31.133191
疏影路,上海市,121.356752,31.119394
中春路,上海市闵行区,121.344502,31.159072
东吴路,上海市闵行区,121.37308,31.122243
群英路,上海市闵行区,121.376661,31.124389
秀文路,上海市闵行区,121.370027,31.127992
黎安路,上海市,121.354314,31.125821
雅致路,上海市闵行区,121.389654,31.121397
庙泾路,上海市闵行区,121.385669,31.121238
报春路,上海市闵行区,121.399331,31.131524
七莘路,上海市闵行区,121.333851,31.196974
莘沥路,上海市闵行区,121.377028,31.115555
莘东路,上海市闵行区,121.384605,31.112426
碧秀路,上海市闵行区,121.392839,31.120461
山花路,上海市闵行区,121.388713,31.12938
广通路,上海市闵行区,121.392611,31.120761
碧泉路,上海市闵行区,121.389481,31.116945
汤家巷,上海市闵行区梅陇镇,121.406201,31.121824
伟业路,上海市闵行区,121.409732,31.11636
畹町路,上海市闵行区,121.405048,31.117373
向荣路,上海市闵行区,121.410013,31.119723
高兴路,上海市闵行区,121.403046,31.11541
景彩路,上海市闵行区,121.408429,31.126253
沪闵路,上海市,121.408839,31.137656
罗阳路,上海市闵行区,121.408051,31.130057
龙茗路,上海市闵行区,121.385615,31.17351
罗秀路,上海市,121.409201,31.134328
普杰路,上海市闵行区,121.429498,31.121497
梅富路,上海市闵行区,121.421183,31.123055
普乐路,上海市闵行区,121.430375,31.123112
罗锦路,上海市闵行区,121.402395,31.128718
虹梅南路,上海市,121.462487,31.044187
春富路,上海市闵行区,121.429265,31.124848
Y113,上海市闵行区,121.421129,31.119409
同乐路,上海市闵行区,121.425553,31.131191
梅强路,上海市闵行区,121.42532,31.120352
龙里路,上海市闵行区,121.418816,31.129993
景洪路辅路,上海市徐汇区,121.446821,31.119142
华济路,上海市,121.448691,31.119422
老沪闵路1498弄,上海市闵行区,121.44262,31.117168
华展路,上海市,121.456259,31.118081
虹梅南路,上海市,121.462487,31.044187
建华路,上海市徐汇区,121.452603,31.127733
华发路,上海市徐汇区,121.452418,31.133106
关港路,上海市,121.453658,31.114991
曹联路,上海市,121.446758,31.11162
蔷薇路,上海市闵行区,121.438692,31.11821
望月路,上海市徐汇区,121.46706,31.12311
芦恒路,上海市闵行区,121.492819,31.117929
华发路,上海市徐汇区,121.452418,31.133106
龙吟路,上海市徐汇区,121.459568,31.121785
关港路,上海市,121.453658,31.114991
华展东路,上海市徐汇区,121.463206,31.117994
华展路,上海市,121.456259,31.118081
华济路,上海市,121.448691,31.119422
建华路,上海市徐汇区,121.452603,31.127733
龙吴路立交桥,上海市徐汇区,121.462243,31.132836
太保桥,上海市浦东新区,121.48544,31.124759
芦恒路,上海市闵行区,121.492819,31.117929
林浦南路,上海市,121.486477,31.115832
浦锦路,上海市闵行区,121.492855,31.117524
徐浦大桥,上海市,121.4924,31.136901
临塘南路,上海市浦东新区,121.486864,31.129312
临江路,上海市浦东新区,121.481208,31.125506
临塘路,上海市浦东新区,121.486292,31.129231
三彩路,上海市浦东新区,121.506005,31.12691
临罗路,上海市浦东新区,121.486058,31.130474
芦胜河桥,上海市浦东新区,121.507416,31.122809
三彩路,上海市浦东新区,121.506005,31.12691
江桦路,上海市闵行区,121.506612,31.11093
三鲁公路,上海市,121.509533,31.136121
三舒路,上海市浦东新区,121.509856,31.131345
懿行路,上海市浦东新区,121.519483,31.130223
林展路,上海市浦东新区,121.513048,31.134359
浦锦路,上海市闵行区,121.492855,31.117524
和炯路,上海市浦东新区,121.508691,31.12634
和佳路,上海市浦东新区,121.518897,31.132486
Y400,上海市浦东新区,121.525444,31.123725
陈行公路,上海市,121.534571,31.123168
三鲁公路5569弄,上海市闵行区,121.512986,31.123944
懿德路,上海市浦东新区,121.52033,31.122377
鲁山路,上海市闵行区,121.524525,31.114562
林恒路,上海市,121.517771,31.127343
和佳路,上海市浦东新区,121.518897,31.132486
三舒路,上海市浦东新区,121.509856,31.131345
林礼路,上海市浦东新区,121.528052,31.13208
和炯路,上海市浦东新区,121.508691,31.12634
百曲桥,上海市浦东新区,121.554632,31.120361
渡桥路,上海市浦东新区,121.554632,31.120361
陈行公路,上海市,121.534571,31.123168
百曲路,上海市浦东新区,121.551217,31.119093
苏召路,上海市闵行区,121.542998,31.107393
立跃路,上海市闵行区,121.539502,31.102313
秀沿西路,上海市浦东新区,121.539101,31.134665
梓康路,上海市浦东新区,121.576485,31.128457
康梧路,上海市浦东新区,121.563916,31.123934
周谊路,上海市浦东新区,121.537254,31.126386
双浜港桥,上海市浦东新区,121.565891,31.119368
梓康路,上海市浦东新区,121.576485,31.128457
周康路,上海市浦东新区,121.581443,31.105864
渡桥路,上海市浦东新区,121.554632,31.120361
秀浦路,上海市浦东新区,121.659015,31.136674
年家浜路,上海市,121.575939,31.120041
立跃路,上海市闵行区,121.539502,31.102313
Y562,上海市浦东新区,121.574875,31.104386
横桥路,上海市,121.581589,31.113782
秀海路,上海市浦东新区,121.567901,31.125045
长南滨桥,上海市青浦区,121.247087,31.142648
置鼎路,上海市青浦区,121.243646,31.138499
业煌路,上海市,121.237161,31.139618
业辉路,上海市青浦区,121.229301,31.148327
和尚泾桥,上海市青浦区,121.244368,31.142624
刘夏路,上海市青浦区,121.25672,31.141707
九川泾桥,上海市青浦区,121.250932,31.142328
米筛浜路,上海市松江区,121.210778,31.135779
置旺路,上海市青浦区,121.236547,31.129489
Y445,上海市青浦区,121.243857,31.140892
定浦河桥,上海市青浦区,121.260115,31.144332
前云路,上海市青浦区,121.279663,31.147731
刘夏路,上海市青浦区,121.25672,31.141707
九干公路,上海市松江区,121.280374,31.136989
泗博路,上海市松江区,121.265041,31.132469
方泗公路,上海市,121.281341,31.141691
三祥路,上海市松江区,121.256848,31.136714
华凤路,上海市松江区,121.274368,31.140346
徐源路,上海市青浦区,121.259991,31.158143
泗通路,上海市松江区,121.262252,31.123898
方泗公路,上海市,121.281341,31.141691
前云路,上海市青浦区,121.279663,31.147731
九干公路,上海市松江区,121.280374,31.136989
洋河浜路,上海市松江区,121.293956,31.149762
寅西路,上海市松江区,121.301228,31.138716
寅青路,上海市松江区,121.292016,31.148095
打铁桥路,上海市松江区,121.285962,31.135957
徐南路,上海市,121.310369,31.16301
坊东路,上海市松江区,121.293925,31.155961
九干路,上海市松江区,121.299594,31.132397
九徐路,上海市松江区,121.306366,31.144993
朗亭路,上海市松江区,121.301974,31.153357
九泾公路,上海市松江区,121.29819,31.14704
望东南路,上海市松江区,121.303834,31.124779
亭知路,上海市松江区,121.31478,31.153176
嘉蓬路,上海市松江区,121.313619,31.142125
九谊路,上海市松江区,121.313968,31.145485
寅西路,上海市松江区,121.298228,31.140105
健鹏路,上海市松江区,121.312956,31.147278
寅青路,上海市松江区,121.297904,31.143664
横泾河桥,上海市松江区,121.324782,31.143851
涞亭南路,上海市松江区,121.350905,31.119821
沪亭路,上海市松江区,121.333938,31.136205
鹤诸路,上海市松江区,121.329491,31.141854
亭知路,上海市松江区,121.317922,31.154477
九亭大街,上海市松江区,121.329651,31.132871
嘉闵高架路,上海市,121.373264,31.096863
九谊路,上海市松江区,121.312179,31.14857
涞寅路,上海市松江区,121.331096,31.156429
伴亭路,上海市,121.337795,31.14399
涞亭南路,上海市松江区,121.350905,31.119821
姚家车路,上海市闵行区,121.349844,31.145135
伴亭路,上海市,121.337795,31.14399
嘉闵高架路,上海市,121.373264,31.096863
九亭大街,上海市松江区,121.329651,31.132871
中谊路,上海市闵行区,121.36993,31.149162
华中路,上海市闵行区,121.369111,31.141761
康亭路,上海市松江区,121.335797,31.137871
联宝路,上海市闵行区,121.349239,31.139817
小涞港桥,上海市,121.348698,31.140404
Y204,上海市闵行区,121.367776,31.14121
华友路,上海市闵行区,121.355054,31.13786
宝铭路,上海市闵行区,121.375705,31.145559
华林路,上海市闵行区,121.360604,31.148216
中谊路,上海市闵行区,121.36993,31.149162
七莘路2299弄,上海市闵行区,121.364135,31.148295
秀波路,上海市闵行区,121.371465,31.133014
荣谊路,上海市闵行区,121.371186,31.147201
广福心道,上海市闵行区七莘路1839号财富108广场F2,121.368379,31.14102
秀文路,上海市闵行区,121.370027,31.127992
古美西路,上海市闵行区,121.399892,31.138778
古龙路,上海市闵行区,121.387507,31.149856
水清路,上海市闵行区,121.386047,31.124197
万源路,上海市闵行区,121.40715,31.136053
龙茗路,上海市闵行区,121.385615,31.17351
报春路,上海市闵行区,121.399604,31.13161
秀文路,上海市闵行区,121.370027,31.127992
平阳路,上海市,121.412867,31.148313
沪闵路,上海市,121.408839,31.137656
外环顾戴路立交桥,上海市闵行区,121.38431,31.142342
古方路,上海市闵行区,121.40773,31.140164
古美路,上海市,121.413152,31.145603
万源路,上海市闵行区,121.40715,31.136053
罗秀路,上海市,121.409201,31.134328
平阳路,上海市,121.412867,31.148313
张家港桥,上海市闵行区莲花路阳光美景城1期西侧,121.408825,31.143446
闵虹路,上海市闵行区,121.400127,31.135193
龙茗路,上海市闵行区,121.385615,31.17351
沪闵高架路,上海市,121.405364,31.13402
平吉路,上海市闵行区,121.395715,31.148873
凌云路,上海市徐汇区,121.428894,31.137569
天等路,上海市徐汇区,121.433643,31.143891
嘉川路,上海市徐汇区,121.423452,31.140183
虹梅高架路,上海市,121.445385,31.089694
上中西路,上海市,121.413238,31.135278
丹棱路,上海市徐汇区,121.433496,31.143136
梅陇路,上海市徐汇区,121.432274,31.147252
古美路,上海市,121.413152,31.145603
百色路,上海市徐汇区,121.436889,31.148709
罗锦路,上海市闵行区,121.402395,31.128718
长桥路,上海市徐汇区,121.446026,31.142825
平福路,上海市徐汇区,121.453678,31.145603
龙川路,上海市徐汇区,121.448724,31.144053
天等路,上海市徐汇区,121.433643,31.143891
上中路,上海市徐汇区,121.448051,31.145648
罗香路,上海市徐汇区,121.447082,31.142096
龙临路,上海市徐汇区,121.444363,31.136844
百色路,上海市徐汇区,121.436889,31.148709
华发路,上海市徐汇区,121.452418,31.133106
龙瑞路,上海市徐汇区,121.461343,31.146305
三港线,上海市,121.464837,31.139667
平福路,上海市徐汇区,121.453678,31.145603
沿江公路,上海市浦东新区,121.477,31.139475
上中路隧道,上海市,121.463412,31.149856
龙瑞路,上海市徐汇区,121.461343,31.146305
华发路,上海市徐汇区,121.452418,31.133106
徐浦大桥,上海市,121.4924,31.136901
喜泰路,上海市徐汇区,121.457956,31.155543
进木港,上海市徐汇区,121.460796,31.138773
喜泰支路,上海市徐汇区,121.460474,31.152372
渡口路,上海市浦东新区,121.487991,31.144422
徐浦大桥,上海市,121.4924,31.136901
济阳路,上海市浦东新区,121.495773,31.148141
沿江公路,上海市浦东新区,121.477,31.139475
恒木路,上海市浦东新区,121.486796,31.149063
三航路,上海市浦东新区,121.493331,31.137799
东育路,上海市浦东新区,121.495733,31.139303
上浦西路,上海市浦东新区,121.489845,31.149982
耀龙路,上海市浦东新区,121.481538,31.157573
前茂路,上海市浦东新区,121.48872,31.156105
三林塘港桥,上海市浦东新区,121.518139,31.147663
三鲁公路,上海市,121.509533,31.136121
中林街,上海市浦东新区,121.506651,31.142904
灵岩南路,上海市浦东新区,121.503585,31.158775
长清路,上海市浦东新区,121.495448,31.175916
永泰路,上海市浦东新区,121.53238,31.148805
三林路,上海市浦东新区,121.532675,31.15341
凌兆路,上海市浦东新区,121.508955,31.150205
三新路,上海市浦东新区,121.515643,31.140214
上浦路,上海市浦东新区,121.505862,31.152459
聚华路,上海市浦东新区,121.528075,31.143893
林鸣路,上海市浦东新区,121.540192,31.142911
三鲁公路,上海市,121.509533,31.136121
南林路,上海市浦东新区,121.528908,31.144008
陈行公路,上海市,121.534571,31.123168
永泰路,上海市浦东新区,121.53238,31.148805
环林西路,上海市浦东新区,121.525774,31.150885
三林路,上海市浦东新区,121.532675,31.15341
环林东路,上海市浦东新区,121.535856,31.15045
尚博路,上海市浦东新区,121.524212,31.153446
荻山路,上海市浦东新区,121.562692,31.146227
秀沿西路,上海市浦东新区,121.539101,31.134665
秀沿路,上海市浦东新区,121.610796,31.143299
西泰林路,上海市浦东新区,121.542563,31.159024
康梧路,上海市浦东新区,121.563916,31.123934
御桥路,上海市浦东新区,121.562196,31.161122
环林东路,上海市浦东新区,121.535856,31.15045
康颂路,上海市浦东新区,121.541479,31.138185
杨高南路立交桥,上海市浦东新区,121.538038,31.143657
秀康路,上海市浦东新区,121.570015,31.146686
秀沈路,上海市浦东新区,121.57632,31.144248
沪南路,上海市浦东新区,121.558332,31.196216
秀沿路,上海市浦东新区,121.610796,31.143299
康溪路,上海市浦东新区,121.563948,31.140405
秀浦路,上海市浦东新区,121.659015,31.136674
上海康桥,上海市浦东新区秀沈路康桥老街菜市场,121.567865,31.14188
康梧路,上海市浦东新区,121.563916,31.123934
秀康路,上海市浦东新区,121.570015,31.146686
康巴路,上海市浦东新区,121.569792,31.134706
康柳路,上海市浦东新区,121.56246,31.136025
红旗桥,上海市青浦区,121.247132,31.164338
和睦路,上海市青浦区,121.247213,31.164541
香银路,上海市青浦区,121.251811,31.157875
业辉路,上海市青浦区,121.229301,31.148327
徐源路,上海市青浦区,121.259991,31.158143
张金路,上海市青浦区,121.243487,31.165539
业前路,上海市青浦区,121.213196,31.149487
垂姚路,上海市青浦区,121.226036,31.163562
佳康路,上海市青浦区,121.233367,31.165027
砖窑泾桥,上海市青浦区,121.243038,31.157533
新泾桥,上海市青浦区,121.26626,31.162827
前云路,上海市青浦区,121.274558,31.153619
徐盈路,上海市青浦区,121.269128,31.169435
宋家宅路,上海市青浦区,121.270978,31.179153
徐源路,上海市青浦区,121.259945,31.158764
育才路,上海市青浦区,121.277114,31.173666
叶联路,上海市青浦区,121.27982,31.16274
京华路,上海市青浦区,121.280084,31.178293
香银路,上海市青浦区,121.251811,31.157875
振泾路,上海市青浦区,121.276805,31.170788
倪家角路,上海市青浦区,121.292323,31.162529
前云路,上海市青浦区,121.279663,31.147731
徐南路,上海市,121.310369,31.16301
徐和路,上海市青浦区,121.291278,31.166018
叶联路,上海市青浦区,121.277417,31.166231
京华路,上海市青浦区,121.280561,31.17744
沪渝高速,上海市,121.26986,31.154153
沧泾路,上海市松江区,121.292359,31.154444
高泾路,上海市青浦区,121.301891,31.169826
新漕泾桥,上海市青浦区,121.287332,31.16011
九杜路,上海市,121.309143,31.16036
沪渝高速,上海市,121.26986,31.154153
朗亭路,上海市松江区,121.300003,31.155584
亭知路,上海市松江区,121.317922,31.154477
高光路,上海市青浦区,121.31396,31.166865
高泾路/沪青平高速公路(路口),上海市青浦区,121.308129,31.161837
高泾路,上海市青浦区,121.301891,31.169826
涞坊路,上海市松江区,121.293895,31.142815
徐南路,上海市,121.310369,31.16301
光联二路,上海市青浦区,121.322923,31.169541
新漕泾桥,上海市松江区,121.333139,31.150001
亭知路,上海市松江区,121.317922,31.154477
涞亭南路,上海市松江区,121.350905,31.119821
涞亭北路,上海市,121.327367,31.165467
涞寅路,上海市松江区,121.331096,31.156429
光联二路,上海市青浦区,121.322923,31.169541
涞坊路,上海市松江区,121.293895,31.142815
沪亭北路,上海市松江区,121.318637,31.160654
星站路,上海市闵行区,121.349969,31.169822
九杜路,上海市,121.309143,31.16036
新龙路,上海市闵行区,121.359725,31.165871
涞亭南路,上海市松江区,121.350905,31.119821
佳宝路,上海市闵行区,121.3525,31.160447
星站路,上海市闵行区,121.349969,31.169822
华宝路,上海市闵行区,121.343747,31.155556
中春路辅路,上海市闵行区,121.34456,31.158749
沪星路,上海市闵行区,121.343274,31.170478
吴宝路,上海市闵行区,121.35434,31.167781
嘉闵高架路,上海市,121.373264,31.096863
涞寅路,上海市松江区,121.331096,31.156429
号上西路,上海市闵行区,121.36514,31.163188
新镇路,上海市闵行区,121.367305,31.158042
宝南路,上海市闵行区,121.366293,31.157763
青年路,上海市闵行区,121.363746,31.161591
富强街,上海市闵行区,121.368243,31.160692
镇企路,上海市闵行区,121.365619,31.158616
星强街,上海市闵行区,121.371434,31.16194
航新路,上海市闵行区,121.3526,31.178943
号文路,上海市闵行区,121.359977,31.171018
联明路,上海市闵行区,121.35139,31.149774
星宝风情街,上海市闵行区,121.384685,31.161755
虹莘路,上海市闵行区,121.386028,31.156977
田林路,上海市,121.388496,31.167104
田州路,上海市徐汇区,121.402487,31.168851
漕宝路,上海市,121.371553,31.163806
虹泉路,上海市闵行区,121.38154,31.175582
天豪路,上海市闵行区,121.37727,31.166666
古龙路,上海市闵行区,121.387507,31.149856
宜山路,上海市,121.394562,31.173283
银亭路,上海市闵行区,121.381221,31.178456
漕河泾港桥,上海市闵行区,121.408292,31.158964
田州路,上海市徐汇区,121.402487,31.168851
桂平路,上海市徐汇区,121.408627,31.179306
桂江路,上海市徐汇区,121.410512,31.168503
田林路,上海市,121.388496,31.167104
万源路,上海市闵行区,121.40715,31.136053
桂林西街,上海市徐汇区,121.423524,31.159691
东兰路,上海市,121.410285,31.163997
桂果路,上海市徐汇区,121.407994,31.173926
虹漕南路,上海市徐汇区,121.423466,31.155037
浦北路,上海市徐汇区,121.427151,31.160564
动力北一路,上海市徐汇区,121.434752,31.160163
桂林西街,上海市徐汇区,121.423524,31.159691
桂林东街,上海市徐汇区,121.432112,31.162639
天等路,上海市徐汇区,121.433643,31.143891
桂林东街桥,上海市徐汇区桂林东街康健公寓西北侧,121.427363,31.162994
冠生园路,上海市徐汇区,121.42692,31.168987
动力北二路,上海市徐汇区,121.433209,31.160185
桂平路,上海市徐汇区,121.408627,31.179306
动力北三路,上海市徐汇区,121.43193,31.158693
石龙路辅路,上海市徐汇区,121.446011,31.16203
石龙路411弄,上海市徐汇区,121.444958,31.160088
石龙路345弄,上海市徐汇区,121.446894,31.161354
动力北一路,上海市徐汇区,121.434752,31.160163
柳州路,上海市徐汇区,121.431635,31.172167
永川路,上海市徐汇区,121.445913,31.160575
石龙路,上海市徐汇区,121.438909,31.156891
南宁路,上海市徐汇区,121.439068,31.162218
东泉路,上海市徐汇区,121.451592,31.16023
罗城路,上海市徐汇区,121.441436,31.155326
龙水南路,上海市徐汇区,121.460269,31.159588
黄石路,上海市徐汇区,121.466565,31.163593
临江路,上海市徐汇区,121.465009,31.159741
龙腾大道,上海市徐汇区,121.46428,31.139858
后马路,上海市徐汇区,121.459316,31.178066
天钥桥南路,上海市徐汇区,121.462302,31.15772
上中路隧道,上海市,121.463412,31.149856
前滩大道,上海市浦东新区,121.47636,31.15767
罗城路,上海市徐汇区,121.441436,31.155326
龙耀路,上海市徐汇区,121.462543,31.166437
企创路,上海市浦东新区,121.488805,31.163609
东育路,上海市浦东新区,121.495733,31.139303
企荣路,上海市浦东新区,121.488845,31.162591
耀体路,上海市浦东新区,121.483046,31.159563
杨思路,上海市浦东新区,121.495925,31.164385
企耀路,上海市浦东新区,121.488488,31.16445
平家桥路,上海市浦东新区,121.483916,31.154776
江耀路,上海市浦东新区,121.482956,31.157014
西营南路,上海市浦东新区,121.492897,31.165864
泳耀路,上海市浦东新区,121.488302,31.165459
恒大路,上海市浦东新区,121.505412,31.163598
海阳路,上海市浦东新区,121.518171,31.165613
杨南支路,上海市浦东新区,121.508035,31.156805
联丰路,上海市浦东新区,121.513623,31.160584
上浦路,上海市浦东新区,121.505862,31.152459
杨新路,上海市浦东新区,121.501374,31.169773
杨思路,上海市浦东新区,121.499399,31.165816
成山路,上海市浦东新区,121.525204,31.180001
三林路,上海市浦东新区,121.499714,31.141125
凌兆路,上海市浦东新区,121.500522,31.147359
杨南路,上海市浦东新区,121.501618,31.155609
板泉路,上海市浦东新区,121.497459,31.16228
杨高南路,上海市浦东新区,121.538447,31.214776
联明路,上海市浦东新区,121.521201,31.157226
尚博路,上海市浦东新区,121.524212,31.153446
高青路,上海市浦东新区,121.506778,31.159364
盛苑路,上海市浦东新区,121.533256,31.16666
浦三路,上海市浦东新区,121.525867,31.187829
海阳路,上海市浦东新区,121.498503,31.159886
新浦路,上海市浦东新区,121.541787,31.176846
御桥路,上海市浦东新区,121.562196,31.161122
东泰林路,上海市浦东新区,121.544489,31.159444
大道站路,上海市浦东新区,121.54606,31.16757
东书房路,上海市浦东新区,121.539058,31.176393
康意路,上海市浦东新区,121.560116,31.154177
板泉路,上海市浦东新区,121.497459,31.16228
三林塘二号桥,上海市浦东新区,121.545265,31.159654
浦三路,上海市浦东新区,121.525867,31.187829
康安路,上海市浦东新区,121.561422,31.163476
西泰林路,上海市浦东新区,121.542563,31.159024
御北路,上海市浦东新区,121.562663,31.163733
沪南路,上海市浦东新区,121.558332,31.196216
康花路,上海市浦东新区,121.568213,31.156694
康安路,上海市浦东新区,121.561422,31.163476
临御路,上海市浦东新区,121.566944,31.166996
康意路,上海市浦东新区,121.560116,31.154177
康士路,上海市浦东新区,121.570894,31.155173
康杉路,上海市浦东新区,121.565671,31.163473
御水路,上海市浦东新区,121.58318,31.154347
御青路,上海市浦东新区,121.579561,31.159523
乐高路,上海市青浦区,121.244905,31.18842
尚茂路,上海市青浦区,121.240954,31.183385
乐天路,上海市青浦区,121.24726,31.188302
徐乐路,上海市青浦区,121.251705,31.184308
乐爱路,上海市青浦区,121.239708,31.184992
尚泰路,上海市青浦区,121.23976,31.187214
徐耀路,上海市青浦区,121.246952,31.178267
诸陆西路,上海市青浦区,121.259427,31.179304
乐国路,上海市青浦区,121.241432,31.186962
凤马塘路,上海市青浦区,121.235672,31.187473
西向阳河桥,上海市青浦区,121.270187,31.174722
宋家宅路,上海市青浦区,121.272731,31.175514
官路浜桥,上海市青浦区,121.270539,31.187173
诸陆西路,上海市青浦区,121.259427,31.179304
双浜路,上海市青浦区,121.268854,31.190869
金字圩路,上海市青浦区,121.266459,31.189239
迮庵路,上海市青浦区,121.267014,31.178187
育才路,上海市青浦区,121.275516,31.172852
徐乐路,上海市青浦区,121.251705,31.184308
徐德路,上海市青浦区,121.272765,31.197655
宋家宅路,上海市青浦区,121.272731,31.175514
诚爱路,上海市青浦区,121.280155,31.180061
X464辅路,上海市青浦区,121.284803,31.180529
崧泽大道,上海市,121.149116,31.180636
会鼎路,上海市青浦区,121.291212,31.184738
蟠龙港桥,上海市青浦区,121.288659,31.181988
徐民路,上海市青浦区,121.278476,31.181437
京华路,上海市青浦区,121.280561,31.17744
东徐联路,上海市青浦区,121.289182,31.172195
徐蟠路,上海市青浦区,121.291029,31.179512
徐泾港路,上海市青浦区,121.308376,31.18431
谢卫路,上海市,121.32235,31.181576
诸光路,上海市青浦区,121.319098,31.173577
高泾路,上海市青浦区,121.301891,31.169826
会卓路,上海市青浦区,121.309525,31.187527
东向阳河桥,上海市青浦区,121.315511,31.164772
蟠中路,上海市青浦区,121.284182,31.187286
蟠龙路,上海市,121.285747,31.197006
高光路,上海市青浦区,121.31396,31.166865
光联一路,上海市,121.320739,31.171551
华翔路辅路,上海市闵行区,121.325802,31.181716
申滨南路,上海市闵行区,121.327756,31.183304
申滨南路地道,上海市闵行区,121.327359,31.183513
申达六路,上海市闵行区,121.337854,31.191033
申兰路地道,上海市闵行区,121.326975,31.18696
虹翔三路,上海市闵行区,121.336053,31.192036
温虹路,上海市闵行区,121.336501,31.189066
迎宾三路,上海市,121.336071,31.183463
谢卫路,上海市,121.32235,31.181576
光联二路,上海市青浦区,121.322923,31.169541
迎宾三路地道,上海市,121.341574,31.184311
空港一路,上海市长宁区,121.354817,31.195555
虹翔三路,上海市闵行区,121.336053,31.192036
迎宾三路,上海市,121.336071,31.183463
吴宝路,上海市闵行区,121.35434,31.167781
航北路,上海市闵行区,121.36153,31.179207
航东路,上海市闵行区,121.359095,31.186323
航新路,上海市闵行区,121.3526,31.178943
虹渝高架路,上海市闵行区,121.340737,31.182087
温虹路,上海市闵行区,121.336501,31.189066
兰竹路,上海市闵行区,121.368233,31.183202
航华路,上海市闵行区,121.363034,31.182534
虹春路,上海市闵行区,121.351309,31.177091
紫藤路,上海市闵行区,121.371701,31.177082
金汇路528弄,上海市闵行区,121.380316,31.187161
航东路,上海市闵行区,121.359095,31.186323
迎宾二路,上海市长宁区,121.355302,31.192671
空港一路,上海市长宁区,121.354817,31.195555
外环沪青平立交桥,上海市,121.365162,31.187358
白樟路,上海市闵行区,121.374757,31.180533
陈家浜桥,上海市闵行区,121.384093,31.181128
金汇路528弄,上海市闵行区,121.380175,31.187126
金雨路,上海市闵行区,121.384119,31.18101
虹泉路,上海市闵行区,121.384244,31.176328
金汇路,上海市闵行区,121.381572,31.183225
华光路,上海市闵行区,121.385009,31.191116
银亭路,上海市闵行区,121.381131,31.178712
青杉路,上海市闵行区,121.379554,31.183375
紫乐路,上海市闵行区,121.386827,31.186654
紫秀路,上海市闵行区,121.388148,31.18492
钦江路,上海市徐汇区,121.411381,31.18143
贺阀路,上海市徐汇区,121.410425,31.182953
上林路,上海市徐汇区,121.410572,31.177845
田州路,上海市徐汇区,121.402487,31.168851
虹镇路,上海市闵行区,121.403623,31.186235
虹许路,上海市,121.400533,31.188701
老外街,上海市长宁区,121.395627,31.197235
古北路,上海市,121.41233,31.1886
吴中路,上海市,121.406675,31.188871
苍梧路,上海市徐汇区,121.417453,31.183891
宜山路辅路,上海市徐汇区,121.42602,31.181184
钦州北路,上海市徐汇区,121.4288,31.186376
三汇路,上海市徐汇区,121.439461,31.186546
吴中路,上海市,121.406675,31.188871
宋园路,上海市,121.419948,31.197176
田林东路,上海市徐汇区,121.439718,31.180974
苍梧路,上海市徐汇区,121.417453,31.183891
康健路,上海市徐汇区,121.431701,31.171618
冠生园路,上海市徐汇区,121.42692,31.168987
古北路,上海市,121.41233,31.1886
漕东支路,上海市徐汇区,121.444614,31.175704
三汇路,上海市徐汇区,121.439461,31.186546
龙水北路,上海市徐汇区,121.452189,31.177308
田东路,上海市徐汇区,121.446926,31.177755
漕东路,上海市徐汇区,121.445295,31.179915
龙田路,上海市徐汇区,121.447703,31.179974
后马路,上海市徐汇区,121.459316,31.178066
漕溪路,上海市徐汇区,121.440916,31.175554
南丹路,上海市徐汇区,121.433576,31.198372
漕溪北路,上海市徐汇区,121.444423,31.198161
后马路,上海市徐汇区,121.459316,31.178066
凯滨路,上海市徐汇区,121.462363,31.188864
云锦路,上海市徐汇区,121.465093,31.172655
龙恒东路,上海市徐汇区,121.466515,31.183513
龙水北路,上海市徐汇区,121.452189,31.177308
龙华路,上海市徐汇区,121.457576,31.178724
瑞平路,上海市徐汇区,121.464047,31.189257
龙华西路,上海市徐汇区,121.458035,31.178288
龙腾大道,上海市徐汇区,121.46428,31.139858
丰谷路,上海市徐汇区,121.460231,31.175871
打浦路隧道,上海市,121.484102,31.1913
雪野二路,上海市浦东新区,121.493453,31.185196
昌里路,上海市浦东新区,121.495248,31.178802
上南路,上海市浦东新区,121.503624,31.172984
耀元路,上海市浦东新区,121.483387,31.178007
打浦路,上海市黄浦区,121.478516,31.204888
长清北路,上海市浦东新区,121.490524,31.18963
南北高架路,上海市,121.494389,31.152339
卢浦大桥,上海市,121.488397,31.192776
龙耀路隧道,上海市,121.481165,31.172684
洪山路,上海市浦东新区,121.509446,31.167608
成山路,上海市浦东新区,121.532268,31.182032
云莲路,上海市浦东新区,121.511818,31.187833
西藏南路隧道,上海市,121.506581,31.192432
上南路,上海市浦东新区,121.503624,31.172984
齐河路,上海市浦东新区,121.520811,31.188204
云台路,上海市浦东新区,121.504621,31.189396
昌里路,上海市浦东新区,121.495248,31.178802
昌里东路,上海市浦东新区,121.516258,31.182441
历城路,上海市浦东新区,121.499205,31.180718
过线桥,上海市浦东新区,121.530059,31.181369
云莲路,上海市浦东新区,121.511818,31.187833
下南路,上海市浦东新区,121.547679,31.176184
北艾路,上海市浦东新区,121.527587,31.185396
华鹏路,上海市浦东新区,121.533508,31.178726
华绣路,上海市浦东新区,121.535191,31.190459
严丰路,上海市浦东新区,121.537145,31.199759
华春路,上海市浦东新区,121.534884,31.182892
板泉路,上海市浦东新区,121.497459,31.16228
邹平路,上海市浦东新区,121.52055,31.17925
南新桥,上海市浦东新区,121.545438,31.18055
下南路,上海市浦东新区,121.547679,31.176184
顾全路,上海市浦东新区,121.543922,31.177
绿林路51弄,上海市浦东新区绿林路51弄,121.555303,31.181019
北艾路,上海市浦东新区,121.527587,31.185396
东书房路,上海市浦东新区,121.539058,31.176393
绿林路,上海市浦东新区,121.554816,31.178447
锦尊路,上海市浦东新区,121.537216,31.189672
博华路,上海市浦东新区,121.557347,31.176735
陈春路,上海市浦东新区,121.548631,31.176889
陈春东路,上海市浦东新区,121.564439,31.181182
鹏春路,上海市浦东新区,121.567673,31.180416
新陈路,上海市浦东新区,121.577486,31.187466
五星路,上海市浦东新区,121.572791,31.181427
鹏飞路,上海市浦东新区,121.562622,31.181062
莲安东路,上海市浦东新区,121.56691,31.187374
莲中路,上海市浦东新区,121.563948,31.191968
芳芯路,上海市浦东新区,121.56383,31.198173
五星支路,上海市浦东新区,121.571261,31.186357
莲溪大桥,上海市浦东新区,121.568755,31.185592
凤嵩路,上海市青浦区,121.257808,31.204233
徐乐北路,上海市青浦区,121.240905,31.200047
嵩仁路,上海市青浦区,121.245086,31.199647
嵩山路,上海市青浦区,121.244184,31.202196
岑泾江桥,上海市青浦区,121.244357,31.201354
新凤南路,上海市青浦区,121.242317,31.206613
凤徐路,上海市青浦区,121.236841,31.194309
凤中路,上海市青浦区,121.231632,31.206616
尚泰路,上海市青浦区,121.23976,31.187214
凤星路,上海市青浦区,121.246693,31.219106
庙泾桥,上海市青浦区,121.266208,31.200855
徐旺路,上海市青浦区,121.26578,31.201987
徐德路,上海市青浦区,121.272765,31.197655
徐祥路,上海市青浦区,121.271029,31.201193
双联路,上海市青浦区,121.2721,31.195033
泗沙路,上海市青浦区,121.263466,31.202897
北青公路立交桥,上海市青浦区,121.271065,31.206611
徐龙路,上海市青浦区,121.276596,31.201545
汇龙路,上海市,121.277829,31.203667
金光路,上海市闵行区,121.277676,31.214612
蟠龙路辅路,上海市闵行区,121.284822,31.203213
天山西路,上海市,121.2932,31.200765
运乐路,上海市闵行区,121.290101,31.210614
映月北巷,上海市青浦区,121.282687,31.196206
蟠东路,上海市青浦区,121.291771,31.198085
崧泽大道,上海市,121.149116,31.180636
蟠文路,上海市青浦区,121.296038,31.189117
汇龙路,上海市,121.277829,31.203667
徐龙路,上海市青浦区,121.276596,31.201545
金光路,上海市闵行区,121.277676,31.214612
苏虹路,上海市闵行区,121.31636,31.200246
龙联东路,上海市,121.30596,31.203541
泰虹路,上海市闵行区,121.320706,31.207238
扬虹路,上海市闵行区,121.312537,31.202259
锡虹路,上海市闵行区,121.320741,31.203727
涞港路,上海市青浦区,121.31228,31.197993
徐灵路,上海市青浦区,121.303719,31.205951
国展外环东路,上海市青浦区,121.315558,31.192514
紫苑路,上海市闵行区,121.302568,31.210218
天山西路,上海市,121.2932,31.200765
嘉闵高架路,上海市闵行区,121.329037,31.202915
申虹路,上海市闵行区,121.322768,31.208717
绍虹路,上海市闵行区,121.321897,31.199915
通虹路,上海市闵行区,121.321944,31.205607
申贵路地下通道,上海市闵行区,121.324843,31.198631
虹翔三路,上海市闵行区,121.336053,31.192036
申达六路,上海市闵行区,121.337854,31.191033
甬虹路,上海市闵行区,121.321476,31.196127
申武路,上海市闵行区,121.319144,31.199864
申兰路,上海市闵行区,121.327787,31.211108
迎宾一路,上海市长宁区,121.357735,31.197675
空港一路,上海市长宁区,121.354817,31.195555
迎宾二路,上海市长宁区,121.355302,31.192671
申达六路,上海市闵行区,121.337854,31.191033
虹翔三路,上海市闵行区,121.336053,31.192036
空港三路,上海市长宁区,121.357275,31.203826
空港八路,上海市长宁区,121.359814,31.202196
空港七路,上海市长宁区,121.354177,31.196127
友乐路,上海市长宁区,121.359507,31.197838
虹桥路2545弄,上海市长宁区,121.361224,31.196317
金浜路,上海市长宁区,121.371769,31.204371
迎宾二路,上海市长宁区,121.355302,31.192671
空港一路,上海市长宁区,121.354817,31.195555
虹桥路2545弄,上海市长宁区,121.361224,31.196317
环绿路,上海市长宁区,121.363029,31.199177
友乐路,上海市长宁区,121.359507,31.197838
中泾路,上海市长宁区,121.368845,31.207992
新潮路,上海市长宁区,121.368432,31.20738
青溪路,上海市长宁区,121.379034,31.203318
哈密路,上海市长宁区,121.3721,31.205307
华光路,上海市闵行区,121.386472,31.191986
老外街,上海市长宁区,121.395627,31.197235
金汇路528弄,上海市闵行区,121.380316,31.187161
仙霞路,上海市长宁区,121.403582,31.211632
程家桥路168弄,上海市闵行区,121.378805,31.192577
黄金城道步行街,上海市长宁区,121.405309,31.201227
哈密路,上海市长宁区,121.3721,31.205307
安龙路,上海市长宁区,121.394067,31.214773
平溪路,上海市长宁区,121.376181,31.198328
水城南路,上海市长宁区,121.400567,31.200043
黄金城道步行街,上海市长宁区,121.405309,31.201227
红宝石路,上海市长宁区,121.405841,31.203464
金珠路,上海市长宁区,121.407021,31.204752
玛瑙路,上海市长宁区,121.41009,31.202663
老外街,上海市长宁区,121.395627,31.197235
紫云西路,上海市长宁区,121.41058,31.213013
银珠路,上海市长宁区,121.407965,31.202846
蓝宝石路,上海市长宁区,121.405455,31.198923
荣华东道,上海市长宁区,121.403569,31.201794
宋园路,上海市,121.419948,31.197176
虹桥路996弄,上海市长宁区,121.427157,31.201686
杨宅路,上海市长宁区,121.424517,31.209904
宋园路,上海市,121.419948,31.197176
长顺路,上海市长宁区,121.423901,31.206243
虹桥路961弄,上海市长宁区,121.425268,31.204006
定西路,上海市长宁区,121.43028,31.212406
安顺路,上海市长宁区,121.413937,31.206677
黄金城道,上海市长宁区,121.404252,31.201034
虹桥路555弄,上海市长宁区,121.42559,31.204724
新华路,上海市长宁区,121.424377,31.211601
衡山路,上海市徐汇区,121.451071,31.208456
昭平路,上海市徐汇区,121.444907,31.203551
斜土路,上海市,121.451418,31.19493
南丹路,上海市徐汇区,121.433576,31.198372
宛平南路,上海市徐汇区,121.453386,31.198524
辛耕路,上海市徐汇区,121.451323,31.200112
天钥桥路,上海市徐汇区,121.451319,31.185518
广元路,上海市徐汇区,121.446318,31.205543
恭城路,上海市徐汇区,121.442332,31.201744
天钥桥路171弄,上海市徐汇区,121.452909,31.199291
小木桥路,上海市徐汇区,121.467132,31.199569
斜土路,上海市,121.451418,31.19493
清真路,上海市徐汇区,121.465547,31.205557
肇嘉浜路,上海市,121.445585,31.200397
打浦路,上海市黄浦区,121.478516,31.204888
宝庆路,上海市徐汇区,121.456281,31.218025
瞿溪路,上海市,121.47366,31.203302
枫林路,上海市徐汇区,121.468725,31.191473
医学院路,上海市徐汇区,121.46523,31.206399
襄阳南路,上海市徐汇区,121.463433,31.22064
打浦路,上海市黄浦区,121.478516,31.204888
龙华东路,上海市黄浦区,121.480996,31.200016
鲁班路,上海市黄浦区,121.481364,31.209418
蒙自路,上海市黄浦区,121.485123,31.210042
局门路,上海市黄浦区,121.487592,31.198593
制造局路,上海市黄浦区,121.489235,31.215511
卢浦大桥,上海市,121.488397,31.192776
瞿溪路1072弄,上海市黄浦区,121.481238,31.203522
徐家汇路,上海市黄浦区,121.475841,31.211583
苗江路,上海市黄浦区,121.505728,31.210866
白莲泾桥,上海市浦东新区,121.516355,31.192096
南码头路,上海市浦东新区,121.517736,31.197689
苗江路,上海市黄浦区,121.505728,31.210866
西藏南路隧道,上海市,121.506581,31.192432
国展路,上海市浦东新区,121.492546,31.186441
外马路,上海市黄浦区,121.511362,31.213792
上南路,上海市浦东新区,121.503624,31.172984
半淞园路,上海市黄浦区,121.501882,31.205877
雪野路,上海市浦东新区,121.512095,31.20229
白莲泾路,上海市浦东新区,121.507448,31.195071
东方路辅路,上海市浦东新区,121.524591,31.200106
严丰路,上海市浦东新区,121.537145,31.199759
南码头路,上海市浦东新区,121.517736,31.197689
东三里桥路,上海市浦东新区,121.527919,31.201422
兰陵路,上海市浦东新区,121.522773,31.20119
南泉路,上海市浦东新区,121.529512,31.221467
外马路,上海市黄浦区,121.511362,31.213792
严杨路,上海市浦东新区,121.534167,31.199877
东绣路,上海市浦东新区,121.5433,31.213638
环龙路,上海市浦东新区,121.534692,31.21288
白莲桥,上海市浦东新区,121.544654,31.205148
东绣路,上海市浦东新区,121.5433,31.213638
锦安东路,上海市浦东新区,121.549694,31.209231
东建路,上海市浦东新区,121.546831,31.206852
严丰路,上海市浦东新区,121.537145,31.199759
浦建路,上海市浦东新区,121.535015,31.213915
蓝村路,上海市浦东新区,121.537401,31.217581
下南路,上海市浦东新区,121.547679,31.176184
前锦桥,上海市浦东新区,121.541459,31.203315
严中路,上海市浦东新区,121.537248,31.19989
芳华路,上海市浦东新区,121.56886,31.202656
芳芯路,上海市浦东新区,121.56383,31.198173
芳草路,上海市浦东新区,121.562147,31.19953
白杨路,上海市浦东新区,121.565584,31.197617
申波路,上海市浦东新区,121.569017,31.196821
龙汇路,上海市浦东新区,121.565788,31.208559
石楠路,上海市浦东新区,121.568288,31.212716
苗桐路,上海市浦东新区,121.571354,31.201322
培花路,上海市浦东新区,121.562961,31.201803
浦建路,上海市浦东新区,121.535015,31.213915
民兴路,上海市青浦区,121.251805,31.210505
华重公路辅路,上海市青浦区,121.247815,31.225604
G15华徐公路,上海市青浦区,121.245029,31.225523
新嵩路,上海市青浦区,121.235054,31.219374
凤溪塘路,上海市青浦区,121.246887,31.215909
沈海高速,上海市,121.282158,31.185171
民兴大道,上海市青浦区,121.260722,31.219584
凤星路,上海市青浦区,121.246693,31.219106
东吊桥,上海市青浦区,121.250364,31.220926
华农路,上海市青浦区,121.235268,31.230352
青虬江路,上海市闵行区,121.268168,31.221243
民兴大道,上海市青浦区,121.260722,31.219584
金辉路,上海市闵行区,121.285168,31.209906
金光路,上海市闵行区,121.277676,31.214612
沈海高速,上海市,121.282158,31.185171
民兴路,上海市青浦区,121.251805,31.210505
纪潭路,上海市闵行区,121.272194,31.227338
纪展路,上海市闵行区,121.277887,31.229911
华徐公路辅路,上海市青浦区,121.259883,31.221831
芳乐路,上海市闵行区,121.273077,31.223602
闵北路辅路,上海市闵行区,121.286619,31.220355
雅乐路,上海市闵行区,121.291012,31.224509
闵北路,上海市闵行区,121.286619,31.220355
纪翟路,上海市闵行区,121.277169,31.246224
季乐路,上海市闵行区,121.283929,31.216658
鸣嘉路,上海市闵行区,121.285771,31.228268
桂乐路,上海市闵行区,121.287141,31.21935
金光路,上海市闵行区,121.277676,31.214612
盘阳路,上海市闵行区,121.28695,31.217833
朱建路,上海市闵行区,121.277991,31.22221
吴翟路,上海市闵行区,121.305401,31.220795
雅乐路,上海市闵行区,121.291012,31.224509
北翟路,上海市,121.33404,31.227279
申长路,上海市闵行区,121.321569,31.19621
季乐路,上海市闵行区,121.283929,31.216658
申滨路,上海市闵行区,121.316328,31.205238
朱建路,上海市闵行区,121.277991,31.22221
北翟高架,上海市,121.313872,31.223875
纪翟路,上海市闵行区,121.277169,31.246224
博恒路,上海市闵行区,121.311522,31.229717
张正浦桥,上海市闵行区,121.315074,31.229392
申昆路,上海市闵行区,121.331762,31.184214
北翟路,上海市,121.33404,31.227279
宁虹路地道,上海市闵行区,121.324909,31.216198
申长路,上海市闵行区,121.321569,31.19621
申兰路,上海市闵行区,121.327787,31.211108
北翟路1554弄,上海市闵行区,121.344701,31.231545
丰虹路,上海市闵行区,121.327673,31.213419
宁虹路,上海市闵行区,121.316573,31.215016
申贵路,上海市闵行区,121.333959,31.191036
许浦港桥,上海市长宁区,121.349121,31.225447
北翟路1554弄,上海市闵行区,121.344701,31.231545
南石桥路,上海市闵行区,121.337333,31.21919
东华美路,上海市闵行区,121.338385,31.223854
北翟路1444弄,上海市,121.346474,31.239941
许浦港桥,上海市长宁区绥宁路与天山西路交叉路口往西约120米,121.349316,31.225364
申昆路,上海市闵行区,121.331762,31.184214
华江路,上海市闵行区,121.333851,31.231714
金钟路,上海市长宁区,121.373207,31.22559
空港三路,上海市长宁区,121.357275,31.203826
新渔港桥,上海市长宁区,121.367666,31.222007
新渔路,上海市长宁区,121.381706,31.220058
平塘路,上海市长宁区,121.37168,31.228099
天山路,上海市长宁区,121.421004,31.214276
金钟路,上海市长宁区,121.373207,31.22559
福泉路,上海市长宁区,121.366578,31.209773
定威路,上海市长宁区,121.359603,31.222177
蒲淞北路,上海市长宁区,121.381606,31.222995
甘溪路,上海市长宁区,121.36842,31.216912
仙霞西路,上海市长宁区,121.36484,31.215002
天山路,上海市长宁区,121.421004,31.214276
蒲淞北路,上海市长宁区,121.381606,31.222995
双流路,上海市长宁区,121.387522,31.22407
新渔东路,上海市长宁区,121.393708,31.218004
茅台路,上海市长宁区,121.386874,31.216488
仙霞路,上海市长宁区,121.403582,31.211632
北渔路,上海市长宁区,121.379202,31.225323
云岭东路,上海市普陀区,121.399112,31.228909
威宁路,上海市长宁区,121.391096,31.215862
天中路,上海市长宁区,121.396707,31.223406
云雾山路551弄,上海市长宁区云雾山路551弄,121.409395,31.221897
玉屏南路,上海市长宁区,121.417327,31.21859
天山支路,上海市长宁区,121.403882,31.220314
紫云西路,上海市长宁区,121.41058,31.213013
锦屏路,上海市长宁区,121.408061,31.221567
云雾山路,上海市长宁区,121.411125,31.221702
芙蓉江路,上海市长宁区,121.40202,31.217587
天山路,上海市长宁区,121.421004,31.214276
遵义路,上海市长宁区,121.414535,31.218141
古北路桥,上海市,121.404338,31.224952
汇川路,上海市长宁区,121.424207,31.225728
武夷路,上海市长宁区,121.432179,31.219636
杨宅路,上海市长宁区,121.424517,31.209904
昭化路,上海市长宁区,121.431341,31.218033
安化路,上海市长宁区,121.430109,31.221022
安西路,上海市长宁区,121.431853,31.22542
玉屏南路,上海市长宁区,121.417327,31.21859
中山西路,上海市,121.418601,31.21517
镇宁路,上海市,121.442517,31.227513
华阳路,上海市长宁区,121.430353,31.228108
长乐路,上海市,121.449719,31.22161
乌鲁木齐中路,上海市,121.45078,31.222144
武康路,上海市,121.445628,31.219707
镇宁路,上海市,121.442517,31.227513
安福路,上海市徐汇区,121.450455,31.220436
宝庆路,上海市徐汇区,121.456281,31.218025
五原路,上海市徐汇区,121.447862,31.218106
巨鹿路,上海市,121.46327,31.228116
愚园路,上海市,121.447096,31.22895
华山路,上海市,121.452908,31.224622
南昌路,上海市,121.4645,31.220723
永康路,上海市徐汇区,121.461899,31.216163
复兴中路,上海市,121.466187,31.219425
宝庆路,上海市徐汇区,121.456281,31.218025
瑞金二路,上海市黄浦区,121.472861,31.215804
思南路,上海市黄浦区,121.475818,31.217854
大沽路,上海市,121.471301,31.231448
进贤路,上海市黄浦区,121.46535,31.227628
新乐路,上海市徐汇区,121.461177,31.223719
皋兰路,上海市黄浦区,121.472525,31.223097
肇周路,上海市黄浦区,121.488233,31.217975
济南路,上海市黄浦区,121.486757,31.22289
徐家汇路,上海市黄浦区,121.481421,31.214967
东台路,上海市黄浦区,121.488717,31.224018
复兴东路,上海市黄浦区,121.496533,31.22755
方斜路,上海市黄浦区,121.490986,31.221752
西民立路,上海市黄浦区,121.492192,31.215759
建国新路,上海市黄浦区,121.489547,31.22039
吉安路,上海市黄浦区,121.487263,31.22485
龙门路,上海市黄浦区,121.485218,31.230865
篾竹路,上海市黄浦区,121.506728,31.222275
乔家路,上海市黄浦区,121.503003,31.223133
紫霞路,上海市黄浦区,121.507971,31.223973
王家码头路,上海市黄浦区,121.507503,31.222239
小石桥街,上海市黄浦区,121.504881,31.220864
苗江路,上海市黄浦区,121.505728,31.210866
西钩玉弄,上海市黄浦区,121.506719,31.220081
府谷街,上海市黄浦区,121.505277,31.220801
外仓桥街,上海市黄浦区,121.507837,31.222217
金坛路,上海市黄浦区,121.505177,31.224642
北张家浜路,上海市浦东新区,121.530029,31.222792
南泉路,上海市浦东新区,121.529512,31.221467
蓝村路,上海市浦东新区,121.537401,31.217581
崂山路,上海市浦东新区,121.526353,31.240448
张家浜路,上海市浦东新区,121.521778,31.220936
宁阳路,上海市浦东新区,121.524761,31.217939
外马路,上海市黄浦区,121.511362,31.213792
潍坊路,上海市浦东新区,121.531064,31.231135
浦东南路,上海市浦东新区,121.504826,31.18556
峨山路,上海市浦东新区,121.528392,31.219897
锦延路,上海市浦东新区,121.539686,31.224471
世纪大道,上海市浦东新区,121.512622,31.242212
锦康路,上海市浦东新区,121.542963,31.218633
蓝村路,上海市浦东新区,121.537401,31.217581
峨山路91弄,上海市浦东新区,121.538615,31.221131
东绣路,上海市浦东新区,121.5433,31.213638
松林路,上海市浦东新区,121.542133,31.231942
峨山路,上海市浦东新区,121.528392,31.219897
浦电路,上海市浦东新区,121.53675,31.2272
南泉路,上海市浦东新区,121.529512,31.221467
金盏桥,上海市浦东新区,121.564117,31.222352
石楠路,上海市浦东新区,121.568288,31.212716
梅花路,上海市浦东新区,121.568334,31.217042
银霄路,上海市浦东新区,121.563682,31.217536
芳甸路,上海市浦东新区,121.564217,31.236371
世纪大道,上海市浦东新区,121.512622,31.242212
锦绣路,上海市浦东新区,121.552356,31.169995
柳杉路,上海市浦东新区,121.574358,31.225321
迎春路,上海市浦东新区,121.550511,31.224138
樱花路,上海市浦东新区,121.553023,31.211532
盐仓浦桥,上海市青浦区,121.2475,31.241739
华徐公路4638弄,上海市青浦区,121.250942,31.240472
纪鹤公路1385弄,上海市青浦区,121.248813,31.244539
新府中路,上海市青浦区,121.239072,31.234722
华志路,上海市,121.244798,31.237478
华志路跨线桥,上海市青浦区,121.250381,31.239086
华新街,上海市青浦区,121.227742,31.25072
华腾公路,上海市,121.232701,31.242952
新凤中路,上海市青浦区,121.234417,31.22464
管家河桥,上海市青浦区,121.244478,31.24154
纪高路1298弄,上海市闵行区,121.268885,31.241783
纪高路,上海市闵行区,121.27143,31.241429
纪鹤路,上海市闵行区,121.277378,31.252516
纪高路828弄,上海市闵行区,121.270543,31.241111
纪梅路,上海市闵行区,121.279427,31.239357
纪丰路,上海市闵行区,121.265765,31.24729
华徐公路4638弄,上海市青浦区,121.250567,31.240422
华志路,上海市,121.25118,31.239329
纪信路,上海市闵行区,121.279684,31.248517
沈海高速,上海市,121.282158,31.185171
高嵩路,上海市闵行区,121.283583,31.237166
繁兴路,上海市闵行区,121.295641,31.223893
纪友路,上海市闵行区,121.283967,31.239103
纪中路,上海市闵行区,121.283744,31.251389
纪育路,上海市闵行区,121.284493,31.243841
纪翟路,上海市闵行区,121.277169,31.246224
纪展路,上海市闵行区,121.277887,31.229911
纪信路,上海市闵行区,121.279684,31.248517
红卫路,上海市闵行区,121.295055,31.23814
朱建路,上海市闵行区,121.277991,31.22221
金耀南路,上海市嘉定区,121.317064,31.242833
爱特路,上海市嘉定区,121.326657,31.237276
南华街,上海市闵行区,121.327405,31.228222
繁兴路,上海市闵行区,121.295641,31.223893
朱建路,上海市闵行区,121.277991,31.22221
华庄公路/封杨路(路口),上海市嘉定区,121.308595,31.239186
金沙江西路,上海市,121.351272,31.248716
金耀路,上海市嘉定区,121.318177,31.247362
鹤旋路,上海市嘉定区,121.328138,31.244531
鹤望路,上海市嘉定区,121.327214,31.250273
鹤友路,上海市嘉定区,121.331431,31.241852
鹤旋路,上海市嘉定区,121.328138,31.244531
爱特路,上海市嘉定区,121.326657,31.237276
鹤望路,上海市嘉定区,121.327214,31.250273
金耀南路,上海市嘉定区,121.317064,31.242833
南华街,上海市闵行区,121.327405,31.228222
金运路,上海市嘉定区,121.326932,31.243971
鸿宁路,上海市嘉定区,121.323057,31.23724
华江路,上海市闵行区,121.333851,31.231714
北华路,上海市闵行区,121.336264,31.234281
绥宁路,上海市,121.344261,31.247705
北翟路1554弄,上海市闵行区,121.344701,31.231545
北翟路1444弄,上海市,121.346474,31.239941
北沈路,上海市闵行区,121.341981,31.231254
华江公路726弄,上海市嘉定区,121.334723,31.252424
夏华路,上海市闵行区,121.34229,31.23786
丰华路,上海市嘉定区,121.340068,31.242653
北华路,上海市闵行区,121.336264,31.234281
华江路,上海市闵行区,121.333851,31.231714
勤丰路,上海市嘉定区,121.345858,31.250547
泾阳路,上海市普陀区,121.366865,31.241818
香樟路,上海市,121.364304,31.246045
金沙江支路,上海市嘉定区,121.362721,31.246078
丰庄路,上海市嘉定区,121.369334,31.251445
清峪路,上海市,121.370127,31.249142
临虹路,上海市长宁区,121.359162,31.236784
临新路,上海市长宁区,121.35987,31.2398
千阳路271弄,上海市普陀区,121.375862,31.240696
真光路,上海市普陀区,121.380723,31.240009
棕榈路,上海市,121.366772,31.246334
中环路虬江桥,上海市普陀区,121.38874,31.240328
真光路,上海市普陀区,121.387565,31.248471
怒江北路561弄,上海市普陀区,121.391675,31.240317
伯士路,上海市普陀区,121.383368,31.238111
丹巴路,上海市普陀区,121.389803,31.234255
怒江北路,上海市普陀区,121.396226,31.241741
怒江北路449弄,上海市普陀区,121.394008,31.239785
中江路,上海市普陀区,121.399472,31.227167
同普路,上海市普陀区,121.397061,31.233329
同普路1175弄,上海市普陀区,121.377804,31.237013
怒江路桥,上海市普陀区,121.405306,31.240593
枣阳路,上海市普陀区,121.409214,31.240744
桂巷路,上海市普陀区,121.410523,31.245117
桐柏路,上海市普陀区,121.411992,31.24126
中江路,上海市普陀区,121.399285,31.229031
杨柳青路,上海市普陀区,121.4054,31.25063
梅岭北路,上海市普陀区,121.405995,31.247412
怒江北路239弄,上海市普陀区,121.400708,31.241508
杏山路,上海市普陀区,121.416553,31.238038
武宁路,上海市普陀区,121.432914,31.242395
宁夏路,上海市普陀区,121.417269,31.23709
谈家渡路,上海市普陀区,121.428745,31.241025
普雄路,上海市普陀区,121.427329,31.241835
顺义路,上海市普陀区,121.42768,31.238492
东新路,上海市普陀区,121.430512,31.24626
余姚路,上海市静安区,121.450775,31.242559
瞿家廊路,上海市普陀区,121.425125,31.24059
白兰路,上海市普陀区,121.421135,31.242364
武宁路桥,上海市普陀区,121.433124,31.242385
凯旋北路,上海市,121.422837,31.244461
胶州路,上海市,121.442019,31.24478
余姚路,上海市静安区,121.450775,31.242559
延平路,上海市,121.442319,31.243012
新会路,上海市普陀区,121.449746,31.248671
康定路,上海市静安区,121.461723,31.243244
海防路,上海市静安区,121.451649,31.244218
长安路,上海市静安区,121.458763,31.253652
昌化路长寿路(路口),上海市普陀区昌化路与长寿路交叉口,121.451343,31.25081
新丰路,上海市静安区,121.451828,31.245726
陕西北路,上海市,121.450265,31.2473
静安区石门二路街,上海市静安区,121.465843,31.242654
山海关路,上海市,121.468654,31.241624
长安路,上海市静安区,121.458763,31.253652
北京西路,上海市,121.462211,31.236774
梅园路,上海市静安区,121.463827,31.252187
慈溪路,上海市静安区,121.468,31.242324
石门二路,上海市静安区,121.468607,31.23719
大统路,上海市静安区,121.465854,31.262672
成都北路,上海市,121.472737,31.240227
凤阳路,上海市,121.468928,31.237371
香粉弄,上海市黄浦区,121.48649,31.242264
福建中路,上海市黄浦区,121.489357,31.237662
平望街,上海市黄浦区,121.485899,31.237319
天津路,上海市黄浦区,121.487156,31.243166
南京东路,上海市黄浦区,121.493094,31.243826
宁波路,上海市黄浦区,121.485415,31.243283
广西北路,上海市黄浦区,121.486164,31.23617
石潭弄,上海市黄浦区,121.486793,31.243041
山西南路,上海市黄浦区,121.488398,31.244018
北京东路,上海市黄浦区,121.487114,31.245397
名商路,上海市浦东新区,121.505856,31.241839
延安东路隧道,上海市,121.505215,31.243162
富城路,上海市浦东新区,121.509209,31.236946
世纪天桥,上海市浦东新区,121.509997,31.242605
明珠塔路,上海市浦东新区,121.504304,31.243944
陆家嘴西路,上海市浦东新区,121.506853,31.243839
丰和路,上海市浦东新区,121.506611,31.24418
明珠环岛,上海市浦东新区,121.507378,31.243698
银城中路,上海市浦东新区,121.514437,31.246846
外滩观光隧道,上海市,121.497342,31.245515
大连路隧道,上海市,121.526463,31.252782
乳山路,上海市浦东新区,121.533415,31.243215
荣成路,上海市浦东新区,121.523871,31.247361
南泉北路,上海市浦东新区,121.526271,31.230939
栖霞路,上海市浦东新区,121.530415,31.244832
钱仓路,上海市浦东新区,121.527632,31.245454
昌邑路,上海市浦东新区,121.554068,31.256228
延安东路隧道,上海市,121.505215,31.243162
福山路,上海市浦东新区,121.531796,31.243182
即墨路,上海市浦东新区,121.518489,31.246237
沈家弄路,上海市浦东新区,121.546378,31.242134
桃林路,上海市浦东新区,121.54154,31.247149
陆家嘴美丽苑小区道路,上海市浦东新区,121.548773,31.239963
商城路,上海市浦东新区,121.542839,31.24365
羽山路,上海市浦东新区,121.561918,31.243487
松林路,上海市浦东新区,121.542133,31.231942
源深路,上海市浦东新区,121.545271,31.229169
世纪大道,上海市浦东新区,121.512622,31.242212
苗圃路,上海市浦东新区,121.548934,31.254703
巨野路,上海市浦东新区,121.555814,31.241295
洋泾港灵山路桥,上海市浦东新区,121.564238,31.241445
罗山路立交桥,上海市浦东新区,121.572608,31.243462
博山东路,上海市浦东新区,121.570951,31.256595
内环高架路,上海市,121.554469,31.259391
灵山路,上海市浦东新区,121.546344,31.233362
南洋泾路,上海市浦东新区,121.561014,31.243055
崮山路,上海市浦东新区,121.564773,31.24855
张杨路,上海市浦东新区,121.586381,31.261614
四方路,上海市浦东新区,121.559381,31.238549
紫槐路,上海市浦东新区,121.567685,31.234885
邱家角桥,上海市青浦区华益村277号201室,121.246365,31.26281
华纪路,上海市青浦区,121.243019,31.250884
春荣路,上海市嘉定区,121.232064,31.274862
老油车港桥,上海市,121.24958,31.260286
华新街,上海市青浦区,121.235923,31.25164
G15吴淞江大桥,上海市,121.250441,31.264834
G15,上海市,121.273356,31.201831
李东桥,上海市青浦区,121.243859,31.264203
联西路,上海市嘉定区,121.257037,31.276135
东风港桥,上海市青浦区,121.248076,31.260012
北港一路,上海市闵行区,121.261555,31.263209
翔江公路,上海市嘉定区,121.29857,31.30203
曹丰路,上海市嘉定区,121.277699,31.277392
纪鹤路,上海市闵行区,121.277378,31.252516
冯东路,上海市嘉定区,121.268868,31.270481
联西路,上海市嘉定区,121.257037,31.276135
联星路,上海市嘉定区,121.272662,31.273986
曹联路,上海市嘉定区,121.264854,31.279646
纪丰路,上海市闵行区,121.265765,31.24729
赵家路,上海市闵行区,121.265395,31.259873
解放岛东环路辅路,上海市嘉定区,121.2864,31.263136
解放岛东环路,上海市嘉定区,121.282049,31.262787
翔江路,上海市嘉定区,121.283764,31.26551
翔江公路,上海市嘉定区,121.29857,31.30203
通州浜桥,上海市嘉定区,121.287703,31.263241
曹丰路,上海市嘉定区,121.277699,31.277392
纪中路,上海市闵行区,121.283744,31.251389
封杨路,上海市嘉定区,121.300378,31.265915
浦环路,上海市嘉定区,121.294563,31.272787
联星路,上海市嘉定区,121.272662,31.273986
华翔路,上海市,121.310745,31.269576
星华路,上海市嘉定区,121.311253,31.260381
封杨路,上海市嘉定区,121.300378,31.265915
金园一路,上海市嘉定区,121.324685,31.266084
金园五路,上海市嘉定区,121.314749,31.259743
金园六路,上海市嘉定区,121.318451,31.263132
金园八路,上海市嘉定区,121.322101,31.261569
金园四路,上海市嘉定区,121.324362,31.265861
石湾路,上海市嘉定区,121.302514,31.263406
姚家桥,上海市嘉定区江桥镇,121.306603,31.260207
买盐江桥,上海市嘉定区,121.325649,31.261637
金园一路,上海市嘉定区,121.324685,31.266084
金园四路,上海市嘉定区,121.324362,31.265861
华翔路,上海市,121.310745,31.269576
金园八路,上海市嘉定区,121.322101,31.261569
临洮路,上海市嘉定区,121.337733,31.270629
武都路,上海市嘉定区,121.316689,31.257408
黄家花园路,上海市嘉定区,121.326653,31.274597
金园三路,上海市嘉定区,121.320678,31.268852
鹤霞路,上海市嘉定区,121.324035,31.252927
江佳路,上海市嘉定区,121.350035,31.267228
曹安公路,上海市嘉定区,121.169807,31.294622
虞姬墩路,上海市嘉定区,121.350808,31.258479
华江支路,上海市嘉定区,121.345479,31.265261
丰江路,上海市嘉定区,121.353903,31.260028
临夏路,上海市嘉定区,121.337064,31.263107
江桥路/沪宁高速公路(路口),上海市嘉定区江桥路,121.346486,31.257905
嘉怡路,上海市嘉定区,121.354388,31.273091
华江公路1号桥,上海市嘉定区,121.351927,31.26336
张掖路,上海市嘉定区,121.344855,31.259787
东栅桥路,上海市嘉定区,121.367682,31.262393
北栅桥路,上海市嘉定区,121.365501,31.263988
外环/沪宁高速公路(路口),上海市嘉定区,121.360188,31.259401
定边路,上海市,121.370442,31.262532
金鼎路,上海市,121.367045,31.264684
曹安公路,上海市嘉定区,121.169807,31.294622
靖边路,上海市,121.373768,31.262148
新郁支路,上海市嘉定区,121.368405,31.257621
潼关路,上海市嘉定区,121.365074,31.266367
丰庄北路,上海市嘉定区,121.370144,31.255376
双河路,上海市,121.383988,31.262987
金鼎路,上海市,121.367045,31.264684
子洲路,上海市普陀区,121.396648,31.265845
铜川路,上海市,121.383116,31.260213
金汤路,上海市,121.384942,31.257722
万镇路,上海市,121.382955,31.251929
梅川路,上海市,121.378759,31.254099
高陵路,上海市普陀区,121.388865,31.258262
真南路635弄,上海市普陀区,121.393901,31.275114
景泰路,上海市普陀区,121.381001,31.281852
兰溪路,上海市普陀区,121.408833,31.252343
芝川路,上海市普陀区,121.41033,31.263838
曹杨路,上海市普陀区,121.423639,31.24424
子洲路,上海市普陀区,121.396648,31.265845
潮州路,上海市普陀区,121.412212,31.264053
固川路,上海市普陀区,121.409266,31.259979
礼泉路,上海市普陀区,121.418321,31.261272
三源路,上海市普陀区,121.411832,31.266323
北石路,上海市普陀区,121.403855,31.254406
真北支路,上海市普陀区,121.401027,31.263099
岚皋路辅路,上海市普陀区,121.428733,31.264746
光新路,上海市普陀区,121.437256,31.261811
宜君路,上海市普陀区,121.431901,31.269792
府村路,上海市普陀区,121.425668,31.260477
华池路,上海市普陀区,121.429825,31.259774
管弄路,上海市普陀区,121.430669,31.260546
石泉路,上海市普陀区,121.422532,31.252876
凯旋北路,上海市,121.422837,31.244461
双山路,上海市普陀区,121.430159,31.270512
兰田路,上海市普陀区,121.428237,31.251847
中潭路,上海市普陀区,121.447729,31.261142
光新路,上海市普陀区,121.437256,31.261811
泾惠路,上海市普陀区,121.442443,31.264736
大统路,上海市静安区,121.465854,31.262672
宜川路,上海市,121.443427,31.270033
宜君路,上海市普陀区,121.431901,31.269792
中山北路交通路立交桥,上海市普陀区,121.447494,31.262019
洛川路,上海市普陀区,121.444736,31.265947
骊山路,上海市普陀区,121.44987,31.26771
中华新路,上海市,121.455433,31.261424
普善横路,上海市静安区,121.463788,31.261898
大统路,上海市静安区,121.465854,31.262672
普善路,上海市静安区,121.457602,31.273242
永兴小马路,上海市静安区,121.470961,31.25778
芷江西路,上海市静安区,121.460261,31.262292
南山路,上海市静安区,121.472481,31.26275
太阳山路,上海市静安区,121.466443,31.256185
大统路地道,上海市静安区,121.465472,31.258395
长安路,上海市静安区,121.458763,31.253652
恒丰路,上海市,121.457645,31.257555
启东路,上海市静安区,121.486948,31.261543
罗浮路,上海市,121.487017,31.25831
川公路,上海市,121.489723,31.262554
虬江路,上海市,121.487046,31.25929
宝源路,上海市,121.486963,31.264624
武进路/河南北路(路口),上海市静安区,121.4861,31.255657
永兴路,上海市静安区,121.471757,31.256933
新广路,上海市,121.489489,31.259682
宝通路,上海市静安区,121.484594,31.262361
乍浦路,上海市,121.49395,31.25353
东余杭路,上海市虹口区,121.502567,31.257947
丹徒路,上海市虹口区,121.509205,31.260504
通州路,上海市虹口区,121.501823,31.263953
高阳路,上海市虹口区,121.507451,31.259576
海门路,上海市虹口区,121.514559,31.259734
岳州路,上海市虹口区,121.509839,31.266317
临平路,上海市虹口区,121.50281,31.267842
舟山路,上海市虹口区,121.512381,31.262918
东汉阳路,上海市虹口区,121.501708,31.256738
新建路,上海市虹口区,121.507167,31.25504
福禄街,上海市杨浦区,121.526631,31.260329
济宁路,上海市杨浦区,121.528983,31.266278
霍山路,上海市,121.525738,31.265853
许昌路,上海市杨浦区,121.531,31.261948
景星路,上海市杨浦区,121.525144,31.261168
榆林路,上海市,121.527647,31.26265
扬州路,上海市杨浦区,121.531287,31.261277
通北路,上海市杨浦区,121.519311,31.272676
长阳路,上海市,121.539633,31.274984
汾州路,上海市杨浦区,121.528487,31.263168
安浦路,上海市杨浦区,121.545738,31.260891
广州路,上海市杨浦区,121.542832,31.262465
杨浦大桥,上海市,121.5564,31.257858
宁国南路,上海市杨浦区,121.548539,31.26311
杭州路,上海市杨浦区,121.542429,31.26496
歇宁线,上海市浦东新区,121.549541,31.262181
渭南路,上海市杨浦区,121.546077,31.264502
宽甸路,上海市杨浦区,121.545814,31.261001
沈阳路,上海市杨浦区,121.543976,31.267977
松潘路,上海市杨浦区,121.546619,31.267538
龙居路,上海市浦东新区,121.570903,31.256654
博山东路,上海市浦东新区,121.570951,31.256595
云山路,上海市浦东新区,121.576876,31.258198
万德路,上海市浦东新区,121.563984,31.256623
张杨路,上海市浦东新区,121.586381,31.261614
杨浦大桥,上海市,121.5564,31.257858
友林路,上海市浦东新区,121.575198,31.265914
崮山路,上海市浦东新区,121.564773,31.24855
枣庄路,上海市浦东新区,121.579832,31.261827
陶安路,上海市浦东新区,121.565846,31.264936
春意路,上海市嘉定区,121.249896,31.284655
星塔路,上海市嘉定区,121.24721,31.289853
淞阳南路,上海市嘉定区,121.240337,31.273069
淞阳路,上海市嘉定区,121.239736,31.280272
春荣路,上海市嘉定区,121.232064,31.274862
联群路,上海市嘉定区,121.24692,31.270944
曹安公路辅路,上海市嘉定区,121.231865,31.279503
春雨路,上海市嘉定区,121.241351,31.287385
曹安公路4514弄,上海市嘉定区,121.237252,31.280243
春浓路,上海市嘉定区,121.252486,31.286876
宝园五路,上海市嘉定区,121.26894,31.286354
曹联支路,上海市嘉定区,121.266395,31.278135
宝园六路,上海市嘉定区,121.268961,31.285706
翔江公路,上海市嘉定区,121.29857,31.30203
19号桥,上海市嘉定区,121.268695,31.281362
宝园七路,上海市嘉定区,121.263943,31.293357
曹联路,上海市嘉定区,121.264854,31.279646
宝园四路,上海市嘉定区,121.262638,31.290203
联星路,上海市嘉定区,121.272662,31.273986
宝园九路,上海市嘉定区,121.262582,31.288408
张家岭路,上海市嘉定区,121.287708,31.281307
星华公路,上海市嘉定区,121.273772,31.281151
翔江公路,上海市嘉定区,121.29857,31.30203
沈家浜桥,上海市嘉定区,121.285366,31.280421
倪家桥路,上海市嘉定区,121.2824,31.286525
宝园一路,上海市嘉定区,121.277838,31.288552
联星路,上海市嘉定区,121.272662,31.273986
惠平路,上海市嘉定区,121.289388,31.307209
宝园五路,上海市嘉定区,121.26894,31.286354
曹丰路,上海市嘉定区,121.277699,31.277392
翔黄公路,上海市嘉定区,121.305695,31.290159
华翔路,上海市,121.310745,31.269576
星华公路,上海市嘉定区,121.273772,31.281151
凌志路,上海市嘉定区,121.307798,31.279713
吴杨东路,上海市嘉定区,121.310817,31.27849
翔黄公路辅路,上海市嘉定区,121.307333,31.285852
南华路,上海市嘉定区,121.31227,31.298286
凌志路100弄,上海市嘉定区,121.309295,31.280713
乡思路,上海市嘉定区,121.305451,31.277543
南辅路,上海市嘉定区,121.304526,31.28853
花园桥,上海市嘉定区,121.324939,31.280052
华翔路,上海市,121.310745,31.269576
海波路,上海市嘉定区,121.334708,31.275751
嘉峪关路,上海市嘉定区,121.324557,31.275769
南华路,上海市嘉定区,121.31227,31.298286
陇南路,上海市嘉定区,121.341166,31.27717
金迈路,上海市,121.327828,31.288819
嘉涛路,上海市嘉定区,121.332765,31.276424
乐秀路,上海市嘉定区,121.320885,31.275226
翔铁中路,上海市嘉定区,121.325669,31.282035
华联路,上海市普陀区,121.352289,31.283115
金达路,上海市普陀区,121.347051,31.282533
曹安公路,上海市嘉定区,121.169807,31.294622
竹柳路,上海市普陀区,121.353408,31.295146
江佳路,上海市嘉定区,121.350035,31.267228
嘉涌路,上海市嘉定区,121.342795,31.27464
雪松路,上海市普陀区,121.35818,31.292116
海蓝路,上海市嘉定区,121.344653,31.269671
真沃路,上海市普陀区,121.350273,31.286275
海波路,上海市嘉定区,121.334708,31.275751
水厂路,上海市普陀区,121.365668,31.279831
雪松路,上海市普陀区,121.35818,31.292116
景泰路,上海市普陀区,121.381001,31.281852
竹柳路,上海市普陀区,121.353408,31.295146
桃浦路,上海市,121.366222,31.270458
绥德路,上海市,121.364371,31.273542
古浪路,上海市,121.374687,31.297377
玉门路,上海市普陀区,121.375013,31.286473
种子场桥,上海市普陀区,121.37037,31.282602
海川路,上海市嘉定区,121.356966,31.269886
真金路,上海市,121.413001,31.286811
武威东路,上海市,121.414696,31.282221
水泉路,上海市普陀区,121.408937,31.278562
真南路635弄,上海市普陀区,121.393901,31.275114
万泉路,上海市普陀区,121.405827,31.275071
真南路822弄,上海市普陀区,121.390828,31.277557
交通路,上海市,121.432274,31.265225
大华一路,上海市,121.421712,31.275253
真华路,上海市,121.417746,31.28957
富平路,上海市普陀区,121.417115,31.271892
新沪路,上海市宝山区,121.425155,31.280053
华灵路,上海市,121.429288,31.281758
大华二路,上海市宝山区,121.417882,31.279129
灵石路,上海市,121.431022,31.276361
宜君路,上海市普陀区,121.431901,31.269792
大华三路,上海市宝山区,121.423272,31.281887
沪太路,上海市,121.412229,31.336302
平利路,上海市,121.430843,31.27877
大华一路,上海市,121.421712,31.275253
阳城路,上海市静安区,121.437653,31.290883
广中西路777弄,上海市静安区,121.445675,31.284237
原平路,上海市静安区,121.439139,31.287534
万荣路,上海市静安区,121.448483,31.294268
广中西路,上海市静安区,121.45672,31.285588
宁盛路,上海市静安区,121.445179,31.292559
运城路,上海市静安区,121.442448,31.280673
灵石路,上海市,121.431022,31.276361
永和路,上海市静安区,121.440377,31.293156
宜川路,上海市,121.443427,31.270033
延长中路,上海市静安区,121.458138,31.276298
民晏路,上海市静安区,121.467826,31.280876
北宝兴路,上海市,121.471807,31.279642
花园路,上海市虹口区,121.485793,31.275823
株洲路,上海市虹口区,121.47196,31.28345
延长路,上海市静安区,121.462126,31.277776
同心路,上海市虹口区,121.477513,31.277454
洛川东路,上海市静安区,121.46616,31.275139
同丰路,上海市虹口区,121.472562,31.278644
新同心路,上海市虹口区,121.473508,31.282579
广中路,上海市,121.485164,31.281666
西体育会路,上海市虹口区,121.488044,31.283528
花园路,上海市虹口区,121.485793,31.275823
西江湾路,上海市虹口区,121.485495,31.275009
东体育会路,上海市虹口区,121.493125,31.286672
广中支路,上海市虹口区,121.483537,31.281556
广秀路,上海市虹口区,121.485302,31.285826
东江湾路,上海市虹口区,121.486602,31.271646
广中路地道,上海市虹口区,121.48479,31.281817
甜爱路,上海市虹口区,121.489982,31.270903
四川北路,上海市虹口区,121.490535,31.268424
大连西路,上海市,121.503754,31.282052
四平路,上海市,121.519064,31.299795
密云路,上海市,121.503361,31.290453
畅心园路,上海市虹口区,121.509272,31.278236
阜新路,上海市杨浦区,121.511635,31.279718
蒋家桥路,上海市虹口区,121.503318,31.278735
新港路,上海市虹口区,121.503934,31.275796
曲阳路118弄,上海市虹口区,121.500907,31.275689
甜爱路,上海市虹口区,121.489982,31.270903
玉田支路,上海市虹口区,121.499262,31.285584
控江路桥,上海市杨浦区,121.52642,31.281239
本溪路桥,上海市杨浦区,121.524111,31.282567
本溪路,上海市杨浦区,121.526454,31.283142
凤城路,上海市杨浦区,121.532027,31.280436
长浜路,上海市杨浦区,121.52922,31.27839
四平路,上海市,121.519064,31.299795
控江路,上海市杨浦区,121.513662,31.276691
长岭路,上海市杨浦区,121.526432,31.287513
延吉西路,上海市杨浦区,121.523978,31.284743
鞍山路,上海市杨浦区,121.515679,31.284817
顺平路,上海市杨浦区,121.542634,31.280399
双阳支路,上海市杨浦区,121.54917,31.281772
双阳路,上海市杨浦区,121.536324,31.291568
靖宇东路,上海市杨浦区,121.545814,31.296926
隆昌路,上海市杨浦区,121.550386,31.280212
辽源东路,上海市杨浦区,121.543249,31.284578
舒兰路,上海市杨浦区,121.546568,31.287408
河间路,上海市杨浦区,121.547348,31.27587
隆昌路下立交,上海市杨浦区,121.548263,31.284495
控江路,上海市杨浦区,121.513662,31.276691
黎平路,上海市杨浦区,121.566099,31.281591
上海城投城投公路,上海市杨浦区中环路杨树浦路3061弄住宅小区东北侧约240米,121.56622,31.283351
定海路,上海市杨浦区,121.561652,31.281571
平凉路,上海市,121.555462,31.279349
内江路,上海市杨浦区,121.551483,31.289032
共青路,上海市杨浦区,121.569182,31.280464
定海港路,上海市杨浦区,121.565994,31.282655
共青路八二弄,上海市杨浦区,121.569204,31.28018
定海路桥,上海市杨浦区,121.566433,31.277612
河间路,上海市杨浦区,121.547348,31.27587
兴亭路,上海市嘉定区,121.247761,31.30748
方园路,上海市嘉定区,121.242886,31.308454
绿环路,上海市嘉定区,121.233045,31.297101
春归路,上海市嘉定区,121.237267,31.292959
春浓路,上海市嘉定区,121.252486,31.286876
谢春路,上海市嘉定区,121.214168,31.301264
陆家巷路,上海市嘉定区,121.261484,31.313037
众百南路,上海市嘉定区,121.252887,31.307114
嘉好路,上海市嘉定区,121.293824,31.316265
金昌路,上海市嘉定区,121.243008,31.306353
第四沥1号河桥,上海市嘉定区,121.266777,31.301265
嘉美路,上海市嘉定区,121.271992,31.302318
银裕路,上海市嘉定区,121.266067,31.308136
嘉好路,上海市嘉定区,121.275176,31.309272
翔方公路,上海市嘉定区,121.268733,31.309393
美裕路,上海市嘉定区,121.270685,31.305898
和裕路,上海市嘉定区,121.262933,31.305325
胜辛南路,上海市嘉定区,121.280201,31.30065
宝园七路,上海市嘉定区,121.264578,31.291424
宝园四路,上海市嘉定区,121.269433,31.289369
惠裕路,上海市嘉定区,121.280136,31.313414
嘉美路,上海市嘉定区,121.279559,31.305272
惠亚路,上海市嘉定区,121.299985,31.307234
胜辛南路,上海市嘉定区,121.280896,31.299883
嘉美路955弄,上海市嘉定区,121.28583,31.307272
翔方公路,上海市嘉定区,121.268953,31.309213
惠平路,上海市嘉定区,121.289388,31.307209
嘉年路,上海市嘉定区,121.304718,31.30664
翔乐路,上海市嘉定区,121.306269,31.296903
胜辛南路255弄,上海市嘉定区,121.278036,31.297923
沪宜公路1189弄,上海市嘉定区,121.306416,31.303277
南华路,上海市嘉定区,121.31227,31.298286
惠亚路,上海市嘉定区,121.299985,31.307234
真南路,上海市,121.339811,31.300732
德华路,上海市嘉定区,121.310404,31.297212
鹤槎路,上海市嘉定区,121.304824,31.306363
翔江公路辅路,上海市嘉定区,121.288986,31.298577
翔乐路,上海市嘉定区,121.306269,31.296903
裕丰路,上海市嘉定区,121.312385,31.303341
民主街,上海市嘉定区,121.318564,31.298437
中佳路,上海市嘉定区,121.327556,31.302641
众仁路,上海市,121.331987,31.296163
民主东街,上海市嘉定区,121.32442,31.301068
佳通路,上海市嘉定区,121.326095,31.303868
南华路,上海市嘉定区,121.31227,31.298286
佳通支路,上海市嘉定区,121.328689,31.30102
瑞林路,上海市嘉定区,121.322436,31.306606
芳林路,上海市嘉定区,121.330849,31.309014
和平街,上海市嘉定区,121.318961,31.299206
宝翔路,上海市嘉定区,121.322913,31.319952
腾飞路,上海市宝山区,121.344586,31.304071
竹柳路,上海市普陀区,121.353408,31.295146
园光路,上海市宝山区,121.348002,31.304071
宝祁路,上海市宝山区,121.352159,31.307827
园辉路,上海市宝山区,121.340984,31.30562
金迎路,上海市,121.340455,31.300249
丰翔路,上海市,121.340787,31.311128
雪松路,上海市普陀区,121.35818,31.292116
白丽路,上海市普陀区,121.357119,31.2855
园泰路,上海市宝山区,121.344907,31.309739
竹柳路,上海市普陀区,121.353408,31.295146
古浪路,上海市,121.374687,31.297377
一号桥,上海市宝山区,121.366819,31.300246
业绩路,上海市宝山区,121.362748,31.318154
雪松路,上海市普陀区,121.35818,31.292116
外环沪嘉立交桥,上海市,121.367011,31.299101
柳明路,上海市普陀区,121.358662,31.304007
红柳路,上海市,121.362353,31.307019
白丽路,上海市普陀区,121.357119,31.2855
园光路,上海市宝山区,121.348002,31.304071
三号桥,上海市宝山区,121.403014,31.305287
兆南路,上海市宝山区,121.405755,31.308804
祁安路,上海市普陀区,121.392727,31.298372
古浪路,上海市,121.374531,31.297004
祁连山路三号桥,上海市宝山区祁连山路三号桥(105县道),121.386622,31.303182
真南路822弄,上海市普陀区,121.390698,31.276735
祁顺路,上海市普陀区,121.395255,31.283728
姚介桥,上海市宝山区,121.384199,31.302998
祁连山路,上海市,121.388355,31.326783
走马塘路,上海市宝山区,121.376871,31.309327
真朋路,上海市宝山区,121.404248,31.30017
兆南路,上海市宝山区,121.404729,31.307294
南大路,上海市,121.375047,31.302112
真大路,上海市,121.416816,31.302853
华和路,上海市,121.402888,31.296892
南大路30号通道,上海市宝山区,121.413274,31.307755
真北路,上海市,121.413921,31.299573
环镇北路,上海市宝山区,121.397396,31.313391
汶水路,上海市,121.423481,31.293875
祁安路,上海市普陀区,121.392517,31.294339
江场西路辅路,上海市静安区,121.426971,31.300278
平遥路,上海市,121.429178,31.296378
江场西路,上海市,121.423657,31.299446
沪太支路1090弄,上海市宝山区,121.425429,31.304556
沪太支路668弄,上海市,121.425239,31.298462
沪太路2019弄,上海市宝山区,121.422059,31.301368
少年村路,上海市,121.43616,31.309796
沪太支路,上海市,121.427589,31.305378
交城路,上海市静安区,121.438872,31.300251
高平路,上海市静安区,121.434027,31.295176
万荣二路,上海市静安区,121.450134,31.303234
江场三路,上海市静安区,121.444066,31.297044
平陆路,上海市静安区,121.452073,31.293749
江场二路,上海市静安区,121.450698,31.305024
万荣一路,上海市静安区,121.447691,31.305169
云照路,上海市静安区,121.449824,31.300404
永和路,上海市静安区,121.440377,31.293156
永和东路,上海市静安区,121.465715,31.297465
江场一路,上海市静安区,121.453734,31.304788
平顺路,上海市静安区,121.458815,31.320884
云飞东路,上海市静安区,121.466682,31.304078
永和东路,上海市静安区,121.465715,31.297465
奎照路,上海市,121.470772,31.305993
广粤支路,上海市,121.47151,31.301788
平型关路,上海市静安区,121.474648,31.270641
江场路,上海市静安区,121.459379,31.304842
寿阳路,上海市静安区,121.464876,31.301047
广粤路,上海市,121.474201,31.31292
平顺路,上海市静安区,121.458815,31.320884
广灵四路,上海市虹口区,121.476879,31.293214
车站北路,上海市虹口区,121.48649,31.302978
奎照路,上海市,121.470772,31.305993
新市南路,上海市虹口区,121.487996,31.297786
车站南路,上海市虹口区,121.478061,31.300605
文治路,上海市虹口区,121.48875,31.304006
韶嘉路,上海市虹口区,121.484915,31.3046
车站西路,上海市虹口区,121.489534,31.305569
广纪路,上海市虹口区,121.488883,31.28768
公安街,上海市虹口区,121.483616,31.307247
虹湾路,上海市虹口区,121.478673,31.319093
登辉环路,上海市杨浦区,121.506223,31.303425
四平路,上海市,121.519064,31.299795
政肃路,上海市杨浦区,121.512026,31.299815
大学路,上海市杨浦区,121.516773,31.309972
邯郸路,上海市,121.509182,31.301437
望道路,上海市杨浦区,121.511639,31.303235
国定路,上海市杨浦区,121.513198,31.30738
运光路,上海市,121.49933,31.299432
武川路,上海市杨浦区,121.503094,31.312955
腾克路,上海市虹口区,121.500007,31.29699
国定东路,上海市杨浦区,121.526452,31.300873
国定东路辅路,上海市杨浦区,121.525262,31.30041
关山路,上海市杨浦区,121.527758,31.297831
四平路,上海市,121.519064,31.299795
靖宇东路,上海市杨浦区,121.545814,31.296926
家福富桥,上海市杨浦区五角场街道国定东路285号金储广场二号楼6楼,121.52696,31.303195
国顺路,上海市杨浦区,121.521347,31.296235
长海路,上海市杨浦区,121.527072,31.315507
黄兴路,上海市杨浦区,121.523611,31.302749
国定路,上海市杨浦区,121.513198,31.30738
中农新村桥,上海市杨浦区,121.54838,31.303312
佳木斯路,上海市杨浦区,121.551214,31.307516
靖宇东路,上海市杨浦区,121.545814,31.296926
包头南路,上海市杨浦区,121.545197,31.309844
延吉东路,上海市杨浦区,121.550265,31.30066
松花江路,上海市杨浦区,121.53705,31.295674
敦化路,上海市杨浦区,121.549025,31.293643
安图路,上海市杨浦区,121.546248,31.299768
营口路,上海市杨浦区,121.541417,31.295129
民星路,上海市杨浦区,121.556485,31.317839
志摩路,上海市杨浦区,121.562904,31.300786
海安路,上海市杨浦区,121.563043,31.29652
民治路,上海市杨浦区,121.55821,31.299583
东塘公路,上海市浦东新区,121.575305,31.333188
浦东大道,上海市浦东新区,121.571221,31.267535
翔殷路隧道,上海市,121.576458,31.309017
松花江路,上海市杨浦区,121.53705,31.295674
春江路,上海市杨浦区,121.557482,31.301218
图们路,上海市杨浦区,121.55152,31.297787
延吉东路,上海市杨浦区,121.550265,31.30066
众川路,上海市嘉定区,121.24852,31.319148
泰云路,上海市嘉定区,121.244887,31.320301
安辰路,上海市嘉定区,121.248162,31.331995
众百路,上海市嘉定区,121.250899,31.319866
方伟路,上海市嘉定区,121.236688,31.323332
方德路,上海市嘉定区,121.233852,31.323834
泰波路,上海市嘉定区,121.25157,31.318217
泰海路,上海市嘉定区,121.251624,31.320126
泰云支路,上海市嘉定区,121.249809,31.322027
金浩路,上海市嘉定区,121.238992,31.318531
后北泾桥,上海市嘉定区,121.268247,31.322825
云谷路,上海市嘉定区,121.253975,31.352203
崇文路,上海市嘉定区,121.272297,31.323672
翔方公路,上海市嘉定区,121.268953,31.309213
泰涛路,上海市嘉定区,121.256573,31.31753
泰波路,上海市嘉定区,121.25157,31.318217
乐惠路,上海市嘉定区,121.278854,31.30673
封周路,上海市嘉定区,121.281842,31.339426
云屏路,上海市嘉定区,121.255968,31.34046
合作路,上海市嘉定区,121.258189,31.349764
育英街,上海市嘉定区,121.286628,31.331306
亚钢路,上海市嘉定区,121.294993,31.325348
嘉美路,上海市嘉定区,121.279559,31.305272
崇福路,上海市嘉定区,121.28698,31.324834
沪宜公路,上海市嘉定区,121.310511,31.296916
惠亚路,上海市嘉定区,121.299985,31.307234
嘉绣路,上海市嘉定区,121.293375,31.318835
崇教路,上海市嘉定区,121.281268,31.326719
樱花街,上海市嘉定区,121.289711,31.333778
康年路,上海市嘉定区,121.280632,31.32448
嘉绣东路,上海市嘉定区,121.303653,31.32046
亚钢路,上海市嘉定区,121.294993,31.325348
惠亚路,上海市嘉定区,121.299985,31.307234
德园路,上海市嘉定区,121.304552,31.319107
新勤路,上海市嘉定区,121.31073,31.335239
沪宜公路,上海市嘉定区,121.310511,31.296916
张彭河桥,上海市嘉定区,121.306447,31.320855
沪嘉高速,上海市,121.312328,31.314789
沪翔高速,上海市,121.311669,31.330426
真南路,上海市,121.339811,31.300732
静唐路,上海市嘉定区,121.342139,31.324811
雅翔路,上海市嘉定区,121.324222,31.323034
云安路,上海市嘉定区,121.331679,31.313923
芳礼路,上海市嘉定区,121.3212,31.318156
栖林路,上海市嘉定区,121.326452,31.311926
浏翔公路/静唐路(路口),上海市嘉定区X033,121.330432,31.321868
浩翔路,上海市嘉定区,121.319648,31.319303
陈翔公路,上海市,121.341851,31.323035
昌翔路,上海市嘉定区,121.336955,31.323082
芳林路,上海市嘉定区,121.330849,31.309014
纬五路,上海市嘉定区,121.342586,31.319443
陈翔公路,上海市,121.341851,31.323035
园泰北路,上海市宝山区,121.347262,31.318062
山连路,上海市宝山区,121.362141,31.311368
振园路,上海市宝山区,121.351895,31.316539
市台路,上海市宝山区,121.361226,31.320392
顺达路,上海市嘉定区,121.347225,31.329824
昌翔路,上海市嘉定区,121.336955,31.323082
园康路,上海市宝山区,121.353975,31.322316
经五路,上海市嘉定区,121.348044,31.325239
新槎浦桥,上海市宝山区,121.367047,31.322493
陈太路2399弄,上海市宝山区,121.363686,31.325702
市台路,上海市宝山区,121.361226,31.320392
真陈路,上海市,121.354359,31.311193
聚丰园路,上海市宝山区,121.393875,31.320797
丰宝路,上海市宝山区,121.37781,31.322879
园庆路,上海市宝山区,121.356664,31.322528
丰翔路二号桥,上海市宝山区,121.370698,31.314585
祁中路,上海市宝山区,121.385709,31.322372
园新路,上海市宝山区,121.358598,31.313407
祁中路,上海市宝山区,121.385709,31.322372
聚丰园路,上海市宝山区,121.393875,31.320797
锦秋路,上海市宝山区,121.405062,31.327268
瑞丰路,上海市宝山区,121.381001,31.326346
祁真路,上海市宝山区,121.383874,31.326314
祁连一、二村街坊通道,上海市宝山区,121.386228,31.321489
X105,上海市,121.387334,31.311281
华秋路,上海市宝山区,121.386362,31.327483
祁华路,上海市宝山区,121.377859,31.326723
上大路,上海市宝山区,121.396606,31.316939
桃浦河桥,上海市宝山区,121.407225,31.313194
兆南路,上海市宝山区,121.404729,31.307294
南陈路,上海市宝山区,121.403878,31.326034
环镇北路,上海市宝山区,121.397396,31.313391
纬地路,上海市宝山区,121.407987,31.332143
锦秋路,上海市宝山区,121.405062,31.327268
涵青路,上海市宝山区,121.40921,31.336338
南大路,上海市,121.375047,31.302112
文海路,上海市宝山区,121.400486,31.315879
上大路,上海市宝山区,121.396606,31.316939
长康路,上海市宝山区,121.429076,31.329842
大康路,上海市宝山区,121.432796,31.326948
环镇北路,上海市宝山区,121.397396,31.313391
花园宅路,上海市宝山区,121.432252,31.335571
少年村路,上海市,121.43616,31.309796
场中路,上海市,121.420929,31.3088
洛场路,上海市宝山区,121.418863,31.30872
长临路,上海市,121.44196,31.330627
上飞大道,上海市,121.438597,31.313459
界华路,上海市宝山区,121.429024,31.306938
三泉路,上海市,121.443823,31.336479
共和新路,上海市,121.447836,31.337514
共江路,上海市宝山区,121.456939,31.335702
平顺路,上海市静安区,121.458815,31.320884
长临路,上海市,121.44196,31.330627
曲沃路,上海市静安区,121.451727,31.312592
共康路,上海市,121.43061,31.326649
大康路,上海市宝山区,121.432796,31.326948
闻喜路,上海市静安区,121.45209,31.314293
临汾路,上海市静安区,121.444707,31.315226
汾西路,上海市静安区,121.462726,31.31967
平顺路,上海市静安区,121.458815,31.320884
江杨南路,上海市,121.474554,31.327014
共江路,上海市宝山区,121.456939,31.335702
保德路,上海市静安区,121.469022,31.324345
景凤路,上海市静安区,121.465316,31.326247
安业路,上海市静安区,121.463672,31.319523
虹湾路,上海市虹口区,121.478673,31.319093
岭南路,上海市,121.462019,31.331556
临汾路,上海市静安区,121.469838,31.31691
斜塘河桥,上海市虹口区,121.484875,31.320727
虹湾路,上海市虹口区,121.478673,31.319093
殷高路,上海市宝山区,121.501727,31.326227
河曲路,上海市宝山区,121.486318,31.325924
奎照路,上海市,121.470772,31.305993
安汾路,上海市,121.48492,31.320677
吉浦路,上海市,121.497602,31.325325
江杨南路,上海市,121.474554,31.327014
凉城路,上海市虹口区,121.476966,31.293221
云西路,上海市宝山区,121.479474,31.323877
政蓝路,上海市杨浦区,121.507865,31.322886
吉浦路,上海市,121.497602,31.325325
殷高路,上海市宝山区,121.501727,31.326227
清流环二路,上海市杨浦区,121.507713,31.32453
国霞路,上海市杨浦区,121.512572,31.316136
国权北路,上海市,121.502619,31.333538
国航路,上海市杨浦区,121.511366,31.319247
清流环一路,上海市杨浦区,121.504654,31.319699
政云路,上海市杨浦区,121.508666,31.318301
民府路,上海市杨浦区,121.522073,31.319481
民约路,上海市杨浦区,121.526682,31.322076
民庆路,上海市杨浦区,121.529666,31.321344
长海路,上海市杨浦区,121.527072,31.315507
三门路,上海市,121.517682,31.317191
世界路,上海市杨浦区,121.532555,31.326515
民星路,上海市杨浦区,121.556485,31.317839
宁城路,上海市杨浦区,121.528434,31.326451
闸殷路,上海市杨浦区,121.535707,31.342908
清源环路,上海市杨浦区,121.528108,31.318369
民京路,上海市杨浦区,121.530082,31.328304
嫩江路820弄,上海市杨浦区,121.548811,31.32094
民星路,上海市杨浦区,121.556485,31.317839
嫩江路,上海市杨浦区,121.545656,31.320764
长海路,上海市杨浦区,121.527072,31.315507
包头路,上海市杨浦区,121.545123,31.316327
安波路,上海市杨浦区,121.534978,31.30796
翔殷路,上海市杨浦区,121.527399,31.307708
世界路,上海市杨浦区,121.532555,31.326515
殷行路,上海市杨浦区,121.519005,31.334608
国顺东路,上海市杨浦区,121.547768,31.310421
东嫩线,上海市,121.568655,31.321964
虬江码头路,上海市杨浦区,121.561833,31.315567
东塘公路,上海市浦东新区,121.575305,31.333188
翔殷路隧道,上海市,121.576458,31.309017
殷行路,上海市杨浦区,121.519005,31.334608
港水路,上海市杨浦区,121.560317,31.335211
浦东北路,上海市浦东新区,121.584504,31.290504
嫩江路,上海市杨浦区,121.545656,31.320764
风雨桥,上海市杨浦区,121.562292,31.324341
白城路,上海市杨浦区,121.550157,31.328724
云谷路,上海市嘉定区,121.253975,31.352203
希望路,上海市嘉定区,121.258918,31.339482
塔秀路,上海市嘉定区,121.265516,31.355326
天祝路,上海市嘉定区,121.260496,31.349594
崇信路,上海市嘉定区,121.24656,31.352073
章翔路/A5高速公路(路口),上海市嘉定区,121.246128,31.344622
双丁路,上海市嘉定区,121.280737,31.3454
永盛路,上海市嘉定区,121.272897,31.332782
临泽路,上海市嘉定区,121.244377,31.352325
漳翔路,上海市嘉定区,121.255056,31.328322
永盛路,上海市嘉定区,121.272897,31.332782
云谷路,上海市嘉定区,121.253975,31.352203
阿克苏路,上海市嘉定区,121.265455,31.356643
德富路,上海市嘉定区,121.262406,31.357051
封周路,上海市嘉定区,121.281842,31.339426
吴漕港桥,上海市嘉定区吴漕港桥(希望路),121.266718,31.343149
蔡家桥路,上海市嘉定区,121.271844,31.346895
希望路,上海市嘉定区,121.258918,31.339482
二号桥,上海市嘉定区,121.268091,31.340698
天祝路,上海市嘉定区,121.260496,31.349594
育英街,上海市嘉定区,121.286628,31.331306
双单路,上海市嘉定区,121.260257,31.333436
德立路,上海市嘉定区,121.279767,31.349098
裕民路,上海市嘉定区,121.284047,31.343218
宝安公路,上海市,121.180636,31.315285
马陆塘街,上海市嘉定区,121.293859,31.341802
沪宜公路,上海市嘉定区,121.310511,31.296916
马陆街,上海市嘉定区,121.290898,31.3389
丰功路,上海市嘉定区,121.294564,31.348501
樱花街,上海市嘉定区,121.289711,31.333778
宝安公路,上海市,121.180636,31.315285
思诚路,上海市嘉定区,121.330591,31.349415
朱宝路,上海市嘉定区,121.308405,31.342983
东宝路,上海市嘉定区,121.303585,31.342306
敬学路,上海市嘉定区,121.311835,31.343347
樊宝路,上海市嘉定区,121.30274,31.338507
沪宜公路,上海市嘉定区,121.310511,31.296916
澄浏中路,上海市嘉定区,121.293097,31.370788
陈文泾桥,上海市嘉定区,121.308285,31.343879
育绿路,上海市嘉定区,121.3047,31.349543
浏翔公路,上海市嘉定区,121.325675,31.339914
明和路,上海市嘉定区,121.327669,31.337805
科茂路,上海市嘉定区,121.33527,31.329259
博学南路,上海市嘉定区,121.321311,31.336515
剑兰路,上海市嘉定区,121.324122,31.338965
北陈路,上海市嘉定区,121.330566,31.340138
思星路,上海市嘉定区,121.336047,31.339445
浏翔公路2248弄,上海市嘉定区,121.321663,31.355878
思义路,上海市嘉定区,121.33686,31.345947
陈宝路,上海市嘉定区,121.335338,31.3633
科福路500弄,上海市嘉定区,121.346714,31.340423
科福路,上海市,121.343064,31.351539
思义路,上海市嘉定区,121.33686,31.345947
菊联路,上海市宝山区,121.373797,31.353911
顺达路,上海市嘉定区,121.347225,31.329824
陈宝路,上海市嘉定区,121.335338,31.3633
科茂路,上海市嘉定区,121.33527,31.329259
沪联路,上海市宝山区,121.347488,31.357185
宝满路,上海市宝山区,121.34811,31.35569
陈富路,上海市,121.350795,31.333878
菊联路,上海市宝山区,121.373797,31.353911
菊太路,上海市宝山区,121.376317,31.357831
塘祁路,上海市宝山区,121.381624,31.331188
沙浦河桥,上海市宝山区,121.373221,31.351097
镜泊湖路,上海市宝山区,121.388852,31.355328
宝富路,上海市宝山区,121.364926,31.356126
飞寒隧道,上海市宝山区,121.36215,31.34194
长白山路,上海市宝山区,121.359267,31.347405
水圈斗支路,上海市宝山区,121.382012,31.337054
中心村路,上海市宝山区,121.378055,31.338643
佳龙路,上海市宝山区,121.399449,31.349602
顾陈路,上海市宝山区,121.40006,31.346604
水圈斗一路,上海市宝山区,121.385206,31.336323
黄花流路,上海市宝山区,121.383493,31.340014
中心村路,上海市宝山区,121.378055,31.338643
水圈斗支路,上海市宝山区,121.382012,31.337054
锦秋路,上海市宝山区,121.405062,31.327268
涵青路,上海市宝山区,121.40921,31.336338
华秋路,上海市宝山区,121.386362,31.327483
镜泊湖路,上海市宝山区,121.388852,31.355328
塘桥,上海市宝山区,121.408955,31.343421
涵青路,上海市宝山区,121.40921,31.336338
顾陈路,上海市宝山区,121.40006,31.346604
联白路,上海市宝山区,121.406657,31.344932
联牧路,上海市宝山区,121.404079,31.345539
纬地路,上海市宝山区,121.407987,31.332143
电台路,上海市宝山区,121.39628,31.3667
佳龙路,上海市宝山区,121.399449,31.349602
顾太路,上海市宝山区,121.405037,31.348646
顾北路,上海市宝山区,121.392482,31.356363
蕴藻路,上海市宝山区,121.430638,31.343913
康宁路,上海市,121.430358,31.348142
南蕰藻路(路口),上海市宝山区850路,121.438049,31.342463
花园宅路,上海市宝山区,121.432252,31.335571
呼兰西路,上海市宝山区,121.44075,31.345707
联谊路,上海市宝山区,121.45003,31.356481
康文路,上海市宝山区,121.425108,31.337778
场北路,上海市宝山区,121.434023,31.338765
南蕰藻路,上海市宝山区,121.426838,31.341623
老富长路,上海市宝山区,121.428151,31.345093
共江路,上海市宝山区,121.456939,31.335702
纪蕰路,上海市宝山区,121.44703,31.338072
呼玛路,上海市宝山区,121.459633,31.347229
长江西路,上海市宝山区,121.448767,31.337811
南蕰藻路(路口),上海市宝山区850路,121.438049,31.342463
通河路,上海市宝山区,121.457691,31.332367
呼兰路,上海市宝山区,121.467466,31.354371
场北路,上海市宝山区,121.434023,31.338765
南蕰藻路,上海市宝山区,121.426838,31.341623
康宁路,上海市,121.430358,31.348142
Y516,上海市宝山区,121.469584,31.342814
联长路,上海市宝山区,121.471624,31.343179
共江路,上海市宝山区,121.456939,31.335702
长江西路1145弄,上海市宝山区,121.464627,31.346116
江杨南路,上海市,121.474554,31.327014
爱辉路,上海市宝山区,121.461451,31.338203
通南路,上海市宝山区,121.482145,31.343696
淞发路,上海市宝山区,121.502717,31.34929
一二八纪念路,上海市宝山区,121.471633,31.334021
革新路,上海市宝山区,121.460589,31.34379
长江南路,上海市宝山区,121.486032,31.343512
淞发路,上海市宝山区,121.502717,31.34929
长逸路,上海市宝山区,121.503329,31.344951
长江南路530弄通道,上海市宝山区,121.48743,31.340876
殷高路,上海市宝山区,121.501727,31.326227
郁江巷路,上海市宝山区,121.483388,31.348387
江杨南路,上海市,121.474554,31.327014
联长路,上海市宝山区,121.471624,31.343179
通南路,上海市宝山区,121.482145,31.343696
淞塘路,上海市宝山区,121.495662,31.339027
国学路国权北路,上海市杨浦区国学路新江湾尚景园东北侧,121.507125,31.342351
国学路,上海市杨浦区,121.508243,31.341897
政青路,上海市杨浦区,121.505102,31.333309
国政路,上海市杨浦区,121.504356,31.338971
纬七路,上海市杨浦区,121.511137,31.341785
睿达路,上海市杨浦区,121.508537,31.335398
军工路,上海市,121.503373,31.357463
吉浦路,上海市,121.497602,31.325325
国帆路,上海市,121.509312,31.350157
国权北路,上海市,121.502619,31.333538
政和路,上海市杨浦区,121.52276,31.341381
国浩路,上海市杨浦区,121.518384,31.342715
政悦路,上海市杨浦区,121.530426,31.340122
国秀路,上海市杨浦区,121.515646,31.340177
淞沪路,上海市,121.520037,31.348691
中原路,上海市杨浦区,121.538422,31.333101
开鲁路,上海市杨浦区,121.53706,31.33082
千山路,上海市杨浦区,121.534332,31.343591
国伟路,上海市杨浦区,121.54238,31.337576
民京路,上海市杨浦区,121.526882,31.326345
浚浦局路,上海市杨浦区,121.549499,31.337323
国伟路,上海市杨浦区,121.541419,31.337589
中原路,上海市杨浦区,121.538465,31.329254
殷行路,上海市杨浦区,121.519005,31.334608
包头路,上海市杨浦区,121.545123,31.316327
中高公路,上海市浦东新区,121.555504,31.357217
白城路,上海市杨浦区,121.550157,31.328724
开鲁路,上海市杨浦区,121.538426,31.330823
政悦路,上海市杨浦区,121.529191,31.334652
港水路,上海市杨浦区,121.560317,31.335211
纬一路,上海市浦东新区,121.567939,31.339697
清溪路,上海市浦东新区,121.583219,31.350811
和雅路,上海市浦东新区,121.576531,31.343093
中高公路,上海市浦东新区,121.555504,31.357217
和龙路,上海市浦东新区,121.57499,31.356974
草高支路,上海市浦东新区,121.572792,31.35669
殷行路,上海市杨浦区,121.519005,31.334608
莱阳路,上海市浦东新区,121.589578,31.316766
高荷路,上海市浦东新区,121.580844,31.340667
春晖路,上海市浦东新区,121.585601,31.338852
